ID,Business Name,Trade Name,Sidewalk Cafe Type,License Number,Full Address,Address Building,Address Street Name,City,State,ZIP Code,Borough,Address Location,Phone Number,Lic Area Sq Ft
796,103 GW12 LLC,MONUMENT LANE,Unenclosed Sidewalk Cafe,1420085,"103 GREENWICH AVE, NEW YORK, NY 10014",103,GREENWICH AVE,NEW YORK,NY,10014,Manhattan,,(212) 255-0155,180
953,106 AMSTERDAM REST. CORP,THE ELLINGTON INN,Unenclosed Sidewalk Cafe,1458660,"936 AMSTERDAM AVENUE, NEW YORK, NY 10025",936,AMSTERDAM AVENUE,NEW YORK,NY,10025,Manhattan,,(917) 680-5280,560
683,109 WEST BROADWAY FOOD & WINE LLC,109 WEST BROADWAY,Enclosed Sidewalk Cafe,1377538,"109 W BROADWAY, NEW YORK, NY 10013",109,W BROADWAY,NEW YORK,NY,10013,Manhattan,,(212) 513-1988,515
144,"10TH AVENUE GROUP,INC.",44&X-HELLS KITCHEN,Unenclosed Sidewalk Cafe,1071297,"622 10 AVE, NEW YORK, NY 10036",622,10 AVE,NEW YORK,NY,10036,Manhattan,,(212) 977-1170,542
995,1111 AVE K INC,CAFE K,Enclosed Sidewalk Cafe,1467744,"1111 AVE K, BROOKLYN, NY 11230",1111,AVE K,BROOKLYN,NY,11230,Brooklyn,,(718) 677-3125,243
105,112 FRENCH INC,LE MONDE,Unenclosed Sidewalk Cafe,1001063,"2883 BROADWAY, NEW YORK, NY 10025",2883,BROADWAY,NEW YORK,NY,10025,Manhattan,,(212) 531-3939,741
352,114 KENMARE ASSOCIATES LLC,LA ESQUINA,Unenclosed Sidewalk Cafe,1227042,"114 KENMARE ST, NEW YORK, NY 10012",114,KENMARE ST,NEW YORK,NY,10012,Manhattan,,(646) 613-7100,337
862,117 W. ENT CORP,ANGELO'S PIZZERIA,Unenclosed Sidewalk Cafe,1429757,"117 W 57TH ST, NEW YORK, NY 10019",117,W 57TH ST,NEW YORK,NY,10019,Manhattan,,(212) 333-1333,91
103,"119 7TH AVEUNE CAFETERIA, LLC",CAFETERIA,Unenclosed Sidewalk Cafe,1000225,"119 7 AVE, NEW YORK, NY 10011",119,7 AVE,NEW YORK,NY,10011,Manhattan,,(212) 414-1717,470
817,"11 CARMINE TACOS, LLC",DOS TOROS TAQUERIA,Unenclosed Sidewalk Cafe,1422296,"11 CARMINE ST, NEW YORK, NY 10014",11,CARMINE ST,NEW YORK,NY,10014,Manhattan,,(212) 627-2051,104
244,1207 AMSTERDAM CORP,AMSTERDAM CAFE,Unenclosed Sidewalk Cafe,1172172,"1207 AMSTERDAM AVE, NEW YORK, NY 10027",1207,AMSTERDAM AVE,NEW YORK,NY,10027,Manhattan,,(212) 662-6330,324
758,120 U REST. LLC,TORTARIA,Enclosed Sidewalk Cafe,1412892,"94 UNIVERSITY PL, NEW YORK, NY 10003",94,UNIVERSITY PL,NEW YORK,NY,10003,Manhattan,,(212) 243-8517,292
232,1226 SECOND AVENUE REALTY CORP.,,Unenclosed Sidewalk Cafe,1167555,"1226 2ND AVE, NEW YORK, NY 10065",1226,2ND AVE,NEW YORK,NY,10065,Manhattan,,(212) 758-1775,183
130,1236 SECOND AVENUE REST. CORP.,SILVER STAR RESTAURANT,Enclosed Sidewalk Cafe,1028755,"1236 2 AVENUE, NEW YORK, NY 10065",1236,2 AVENUE,NEW YORK,NY,10065,Manhattan,,(212) 249-4250,645
181,1262 AMSTERDAM CAFE INC,MAX CAFFE,Unenclosed Sidewalk Cafe,1133124,"1262 AMSTERDAM AVE, NEW YORK, NY 10027",1262,AMSTERDAM AVE,NEW YORK,NY,10027,Manhattan,,(212) 288-2937,193
147,1274 AMSTERDAM TRATTORIA INC,MAX SOHA,Unenclosed Sidewalk Cafe,1073015,"1274 AMSTERDAM AVE, NEW YORK, NY 10027",1274,AMSTERDAM AVE,NEW YORK,NY,10027,Manhattan,,(212) 288-2937,314
74,1291 PUB INC.,JG MELLON,Unenclosed Sidewalk Cafe,0954466,"1291 THIRD AVENUE, NEW YORK, NY 10021",1291,THIRD AVENUE,NEW YORK,NY,10021,Manhattan,,(212) 744-0585,175
637,12 FIRST AVENUE RESTAURANT CORP,,Unenclosed Sidewalk Cafe,1352781,"12 1 AVENUE, NEW YORK, NY 10009",12,1 AVENUE,NEW YORK,NY,10009,Manhattan,,(212) 598-9126,307
302,1326 RESTAURANT LLC,BEACH CAFE,Unenclosed Sidewalk Cafe,1217877,"1326 2ND AVE, NEW YORK, NY 10021",1326,2ND AVE,NEW YORK,NY,10021,Manhattan,,(212) 988-7299,429
875,132 MULBERRY INC,UMBERTO'S CLAM HOUSE,Unenclosed Sidewalk Cafe,1432938,"132 MULBERRY STREET, NEW YORK, NY 10013",132,MULBERRY STREET,NEW YORK,NY,10013,Manhattan,,(212) 431-7545,82
685,"135 STUDIO N ADR, INC.",JULIETTE,Unenclosed Sidewalk Cafe,1378763,"135 N 5TH ST, BROOKLYN, NY 11249",135,N 5TH ST,BROOKLYN,NY,11249,Brooklyn,,(646) 373-5149,124
804,"135 WEST B FOOD & DRINK, LLC",TINY'S AND THE BAR UPSTAIRS,Unenclosed Sidewalk Cafe,1421014,"135 W BROADWAY, NEW YORK, NY 10013",135,W BROADWAY,NEW YORK,NY,10013,Manhattan,,(212) 300-7942,112
175,1 & 3 ON 5TH CORP,FABIANE'S CAFE & PASTRY,Unenclosed Sidewalk Cafe,1120483,"142 N 5TH ST, BROOKLYN, NY 11211",142,N 5TH ST,BROOKLYN,NY,11211,Brooklyn,,(718) 218-9632,266
554,13TH STREET ENTERTAINMENT LLC,BRASSERIE BEAUMARCHAIS,Unenclosed Sidewalk Cafe,1324561,"409 W 13TH ST, NEW YORK, NY 10014",409,W 13TH ST,NEW YORK,NY,10014,Manhattan,,(212) 255-1933,204
798,1431 FIRST AVENUE CORP,NUMERO 28,Unenclosed Sidewalk Cafe,1420358,"1431 1ST AVE, NEW YORK, NY 10021",1431,1ST AVE,NEW YORK,NY,10021,Manhattan,,(917) 865-9278,180
337,1465 3RD AVE. REST. CORP.,GAEL PUB,Unenclosed Sidewalk Cafe,1223078,"1465 3RD AVE, NEW YORK, NY 10028",1465,3RD AVE,NEW YORK,NY,10028,Manhattan,,(914) 632-6036,87
692,"1475 SECOND AVENUE BAGEL, LLC",PICK A BAGEL,Unenclosed Sidewalk Cafe,1381059,"1475 2 AVENUE, NEW YORK, NY 10075",1475,2 AVENUE,NEW YORK,NY,10075,Manhattan,,(212) 717-4668,164
107,1483 FIRST AVENUE RESTAURANT INC.,MARUZZELLA,Unenclosed Sidewalk Cafe,1002419,"1483 1ST AVE, NEW YORK, NY 10075",1483,1ST AVE,NEW YORK,NY,10075,Manhattan,,(212) 988-8877,84
72,1490 REST. INC.,DOC WATSON'S,Unenclosed Sidewalk Cafe,0952606,"1490 SECOND AVENUE, NEW YORK, NY 10075",1490,SECOND AVENUE,NEW YORK,NY,10075,Manhattan,,(212) 676-4817,113
467,149 BROADWAY RESTAURANT LLC,DRESSLER,Unenclosed Sidewalk Cafe,1282383,"149 BROADWAY, BROOKLYN, NY 11211",149,BROADWAY,BROOKLYN,NY,11211,Brooklyn,,(718) 384-6343,135
649,149 SECOND AVE. REST. INC,THE 13TH STEP,Unenclosed Sidewalk Cafe,1355808,"149 2ND AVE, NEW YORK, NY 10003",149,2ND AVE,NEW YORK,NY,10003,Manhattan,,(212) 228-8020,215
616,151 BLEECKER LLC,THE RED LION,Enclosed Sidewalk Cafe,1348216,"151 BLEECKER ST, NEW YORK, NY 10012",151,BLEECKER ST,NEW YORK,NY,10012,Manhattan,,(212) 260-9797,172
617,151 BLEECKER LLC,RED LION,Unenclosed Sidewalk Cafe,1348223,"151 BLEECKER STREET, NEW YORK, NY 10012",151,BLEECKER STREET,NEW YORK,NY,10012,Manhattan,,(212) 260-9797,242
578,151 MULBERRY ST CORP,IL PALAZZO,Unenclosed Sidewalk Cafe,1343752,"151 MULBERRY ST, NEW YORK, NY 10013",151,MULBERRY ST,NEW YORK,NY,10013,Manhattan,,(212) 343-7000,82
42,151 SECOND AVE. REST. INC.,RYAN'S IRISH PUB,Unenclosed Sidewalk Cafe,0895599,"151 2ND AVE, NEW YORK, NY 10003",151,2ND AVE,NEW YORK,NY,10003,Manhattan,,(212) 979-9511,260
177,156 SEVENTH AVE GROUP LLC,ELMO,Unenclosed Sidewalk Cafe,1127935,"156 7TH AVE, NEW YORK, NY 10011",156,7TH AVE,NEW YORK,NY,10011,Manhattan,,(212) 337-8000,270
340,156 TENTH AVENUE RESTAURANT LLC,10TH AVENUE COOKSHOP,Unenclosed Sidewalk Cafe,1224204,"156 10TH AVE, NEW YORK, NY 10011",156,10TH AVE,NEW YORK,NY,10011,Manhattan,AKA 460 WEST 20TH STREET,(212) 924-4440,506
940,1600 AMSTERDAM AVENUE CORP,COCCOLA,Unenclosed Sidewalk Cafe,1456073,"1600 AMSTERDAM AVE, NEW YORK, NY 10031",1600,AMSTERDAM AVE,NEW YORK,NY,10031,Manhattan,,(917) 225-3271,292
2,1616 SECOND AVENUE RESTAURANT INC,DORRIAN'S RED HAND  E/S/C #217,Enclosed Sidewalk Cafe,0571720,"1616 2 AVENUE, NEW YORK, NY 10028",1616,2 AVENUE,NEW YORK,NY,10028,Manhattan,,(212) 772-6660,435
903,161 MULBERRY RESTAURANT LLC,ITALIAN FOOD CENTER,Unenclosed Sidewalk Cafe,1443292,"161 MULBERRY ST, NEW YORK, NY 10013",161,MULBERRY ST,NEW YORK,NY,10013,Manhattan,,(949) 228-7040,823
982,164 BROAD CORP.,HEIGHTS TAVERN,Unenclosed Sidewalk Cafe,1463574,"3910 BROADWAY, NEW YORK, NY 10032",3910,BROADWAY,NEW YORK,NY,10032,Manhattan,562 W 164TH ST,(212) 866-4500,879
70,164 MULBERRY ST. CORP,DA NICO RESTAURANT,Unenclosed Sidewalk Cafe,0949447,"164 MULBERRY ST, NEW YORK, NY 10013",164,MULBERRY ST,NEW YORK,NY,10013,Manhattan,,(212) 343-1212,113
410,1650 BROADWAY ASSOCIATES INC.,ELLEN'S STARBUST DINER,Unenclosed Sidewalk Cafe,1257707,"1650 BROADWAY, NEW YORK, NY 10019",1650,BROADWAY,NEW YORK,NY,10019,Manhattan,,(212) 582-0161,110
926,1679 3RD AVENUE RESTAURANT CORP.,THE DISTRICT,Unenclosed Sidewalk Cafe,1454085,"1679 3RD AVE, NEW YORK, NY 10128",1679,3RD AVE,NEW YORK,NY,10128,Manhattan,,(914) 760-1496,407
621,16TH STREET BBQ LLC,BROTHER JIMMYS BBQ,Unenclosed Sidewalk Cafe,1349442,"114-116 E 16TH ST, NEW YORK, NY 10003",114-116,E 16TH ST,NEW YORK,NY,10003,Manhattan,,(212) 244-3502,122
517,1702 RATHBONES INC.,RATHBONES,Unenclosed Sidewalk Cafe,1310255,"1702 2ND AVE, NEW YORK, NY 10128",1702,2ND AVE,NEW YORK,NY,10128,Manhattan,,(212) 208-7272,224
734,1710 RESTAURANT CORP.,CARINO RISTORANTE & CAFE,Unenclosed Sidewalk Cafe,1389825,"1710 2ND AVE, NEW YORK, NY 10128",1710,2ND AVE,NEW YORK,NY,10128,Manhattan,,(917) 864-6683,70
152,"172 BLEEKER ST. REST., INC",CAFE ESPANOL,Unenclosed Sidewalk Cafe,1080119,"190 SULLIVAN STREET, NEW YORK, NY 10012",190,SULLIVAN STREET,NEW YORK,NY,10012,Manhattan,,(212) 505-0657,89
56,"172 BLEEKER ST. REST., INC",CAFE ESPANOL,Unenclosed Sidewalk Cafe,0920629,"172 BLEECKER STREET, NEW YORK, NY 10012",172,BLEECKER STREET,NEW YORK,NY,10012,Manhattan,,(212) 505-0657,84
413,174 BEDFORD AVENUE BAR LLC,CHARLESTON,Unenclosed Sidewalk Cafe,1259219,"174 BEDFORD AVE, BROOKLYN, NY 11249",174,BEDFORD AVE,BROOKLYN,NY,11249,Brooklyn,,(718) 599-9199,177
306,174 GRAND STREET CORP.,ONIEAL'S,Unenclosed Sidewalk Cafe,1218544,"174 GRAND ST, NEW YORK, NY 10013",174,GRAND ST,NEW YORK,NY,10013,Manhattan,,(212) 941-9119,126
135,177 CHRYSTIE INC,ESPERANTO,Unenclosed Sidewalk Cafe,1034831,"145 AVENUE C, NEW YORK, NY 10009",145,AVENUE C,NEW YORK,NY,10009,Manhattan,,(212) 505-6559,501
500,179 THIRD AVENUE REST. INC,MUMBLES,Unenclosed Sidewalk Cafe,1299328,"179 3RD AVE, NEW YORK, NY 10003",179,3RD AVE,NEW YORK,NY,10003,Manhattan,200 EAST 17 STREET,(212) 477-6066,363
735,"183 CONDECHI ASSOCIATES, LLC",CAFE CONDESA,Unenclosed Sidewalk Cafe,1390265,"183 W 10TH ST, NEW YORK, NY 10014",183,W 10TH ST,NEW YORK,NY,10014,Manhattan,,(212) 352-0050,75
63,184 3RD AVENUE RESTAURANT CORP.,GRAMERCY CAFE,Enclosed Sidewalk Cafe,0928548,"184 3RD AVE, NEW YORK, NY 10003",184,3RD AVE,NEW YORK,NY,10003,Manhattan,,(718) 567-2990,418
724,187 RESTAURANT CORP,REFRIED BEANS MEXICAN GRILL,Unenclosed Sidewalk Cafe,1387916,"591 FORT WASHINGTON AVE, NEW YORK, NY 10033",591,FORT WASHINGTON AVE,NEW YORK,NY,10033,Manhattan,,(212) 568-2299,181
512,18 BEDFORD AVE LLC,FIVE LEAVES,Unenclosed Sidewalk Cafe,1309076,"18 BEDFORD AVE, BROOKLYN, NY 11222",18,BEDFORD AVE,BROOKLYN,NY,11222,Brooklyn,,(646) 510-6467,319
932,18 GREENWICH AVENUE LLC,ROSEMARY'S,Unenclosed Sidewalk Cafe,1454964,"18 GREENWICH AVENUE, NEW YORK, NY 10011",18,GREENWICH AVENUE,NEW YORK,NY,10011,Manhattan,,(212) 647-1818,183
293,191 GRAND RESTAURANT CORP.,NOVELLA,Unenclosed Sidewalk Cafe,1213603,"191 GRAND ST, NEW YORK, NY 10013",191,GRAND ST,NEW YORK,NY,10013,Manhattan,,(212) 343-1212,371
38,200 EAST 81ST RESTAURANT CORP.,BEYOGLU,Unenclosed Sidewalk Cafe,0890521,"1431 3RD AVE, NEW YORK, NY 10028",1431,3RD AVE,NEW YORK,NY,10028,Manhattan,A/K/A 200 EAST 81 ST,(212) 650-0850,253
916,200 NINTH RESTAURANT LLC,THE MEATBALL SHOP,Unenclosed Sidewalk Cafe,1450652,"200 9TH AVE, NEW YORK, NY 10011",200,9TH AVE,NEW YORK,NY,10011,Manhattan,,(917) 640-8008,186
471,201 REST. 95TH ST. CORP,BUCEO 95,Unenclosed Sidewalk Cafe,1282774,"201 W 95TH ST, NEW YORK, NY 10025",201,W 95TH ST,NEW YORK,NY,10025,Manhattan,,(646) 249-6822,146
690,201 WEST 103 CORP,BUCA,Unenclosed Sidewalk Cafe,1380748,"203 W 103RD ST, NEW YORK, NY 10025",203,W 103RD ST,NEW YORK,NY,10025,Manhattan,,(917) 225-3271,90
354,205 EAST 75TH STREET LLC,FULTON,Unenclosed Sidewalk Cafe,1227438,"205 E 75TH ST, NEW YORK, NY 10021",205,E 75TH ST,NEW YORK,NY,10021,Manhattan,,(212) 227-1700,310
780,207 WEST RESTAURANT CORP,YUMMY THAI,Unenclosed Sidewalk Cafe,1418705,"4959 BROADWAY, NEW YORK, NY 10034",4959,BROADWAY,NEW YORK,NY,10034,Manhattan,,(917) 529-0811,200
659,210 SMITH STREET CORP.,CLOVER CLUB,Unenclosed Sidewalk Cafe,1357820,"210 SMITH STREET, BROOKLYN, NY 11201",210,SMITH STREET,BROOKLYN,NY,11201,Brooklyn,,(718) 855-7939,57
451,211 AVE A RESTAURANT INC.,SHOOLBRED'S,Unenclosed Sidewalk Cafe,1278271,"197 2 AVENUE, NEW YORK, NY 10003",197,2 AVENUE,NEW YORK,NY,10003,Manhattan,,(917) 969-3440,136
625,"212 LAFAYETTE ASSOCIATES,LLC",CAFE SELECT,Unenclosed Sidewalk Cafe,1349707,"212 LAFAYETTE STREET, NEW YORK, NY 10012",212,LAFAYETTE STREET,NEW YORK,NY,10012,Manhattan,,(212) 925-9322,84
917,2255 EMMONS CAFE LOUNGE INC,PERA CAFE & LOUNGE,Unenclosed Sidewalk Cafe,1450950,"2255 EMMONS AVE, BROOKLYN, NY 11235",2255,EMMONS AVE,BROOKLYN,NY,11235,Brooklyn,,(718) 676-2992,501
476,237 BEDFORD AVENUE RESTAURANT CORP.,LA NONNA PIZZERIA/TRATTORIA,Unenclosed Sidewalk Cafe,1283821,"237 BEDFORD AVE, BROOKLYN, NY 11211",237,BEDFORD AVE,BROOKLYN,NY,11211,Brooklyn,,(718) 302-5353,63
197,23RD & 9TH RESTAURANT CORP,,Enclosed Sidewalk Cafe,1141700,"368 WEST   23 STREET, NEW YORK, NY 10011",368,WEST   23 STREET,NEW YORK,NY,10011,Manhattan,,(212) 691-5400,692
858,241 BOWERY CORP,THE BOWERY DINER,Unenclosed Sidewalk Cafe,1429312,"241 BOWERY, NEW YORK, NY 10002",241,BOWERY,NEW YORK,NY,10002,Manhattan,,(212) 388-052,112
509,247 CAFE INC.,BROOKLYN PUBLIC HOUSE,Unenclosed Sidewalk Cafe,1308287,"247 DEKALB AVE, BROOKLYN, NY 11205",247,DEKALB AVE,BROOKLYN,NY,11205,Brooklyn,,(631) 424-8480,99
784,"26TH STREET HOSPITALITY GROUP, LLC",BREAD & TULIPS,Unenclosed Sidewalk Cafe,1419312,"365 PARK AVE S, NEW YORK, NY 10016",365,PARK AVE S,NEW YORK,NY,10016,Manhattan,,(212) 532-9100,201
387,27-39 EAST 30 REST. CORP,THE CROOKED KNIFE,Unenclosed Sidewalk Cafe,1249286,"27-29 E 30TH ST, NEW YORK, NY 10016",27-29,E 30TH ST,NEW YORK,NY,10016,Manhattan,,(646) 359-7372,176
744,2799 BROADWAY GROCERY LLC,CASCABEL TAQUERIA,Unenclosed Sidewalk Cafe,1394145,"2799 BROADWAY, NEW YORK, NY 10025",2799,BROADWAY,NEW YORK,NY,10025,Manhattan,,(212) 665-1500,392
618,2850 BROADWAY REST ASSOCIATES LLC,,Unenclosed Sidewalk Cafe,1348335,"2850 BROADWAY, NEW YORK, NY 10025",2850,BROADWAY,NEW YORK,NY,10025,Manhattan,,(917) 882-6525,168
456,2888 BROADWAY LLC,AMIGOS,Unenclosed Sidewalk Cafe,1280168,"2888 BROADWAY, NEW YORK, NY 10025",2888,BROADWAY,NEW YORK,NY,10025,Manhattan,,(212) 864-1143,212
533,2896 BROADWAY FOOD SERVICE INC.,COMMUNITY FOOD AND JUICE,Unenclosed Sidewalk Cafe,1314421,"2893 BROADWAY, NEW YORK, NY 10025",2893,BROADWAY,NEW YORK,NY,10025,Manhattan,,(212) 665-2800,500
966,2953 BROADWAY INC.,VINE SUSHI,Unenclosed Sidewalk Cafe,1460948,"2955 BROADWAY, NEW YORK, NY 10025",2955,BROADWAY,NEW YORK,NY,10025,Manhattan,,(212) 222-3568,147
599,"300 WEST 46TH STREET, CORP",BRASSERIE ATHENEE,Unenclosed Sidewalk Cafe,1346488,"300 W 46TH ST, NEW YORK, NY 10036",300,W 46TH ST,NEW YORK,NY,10036,Manhattan,,(212) 399-1100,105
374,301 E. 47TH ST. REST. CORP.,NINO'S POSITANO,Unenclosed Sidewalk Cafe,1242405,"888-890 SECOND AVENUE, NEW YORK, NY 10017",888-890,SECOND AVENUE,NEW YORK,NY,10017,Manhattan,,(212) 355-5540,373
768,307 THIRD AVENUE EAST VENTURE LLC,TAPROOM 307,Unenclosed Sidewalk Cafe,1417471,"307 3RD AVE, NEW YORK, NY 10010",307,3RD AVE,NEW YORK,NY,10010,Manhattan,,(212) 725-4766,97
215,30 E 30 ZANA INC,,Unenclosed Sidewalk Cafe,1161546,"30 EAST   30 STREET, NEW YORK, NY 10016",30,EAST   30 STREET,NEW YORK,NY,10016,Manhattan,,(212) 481-3717,127
463,316 BOWERY LLC,,Unenclosed Sidewalk Cafe,1281748,"316 BOWERY, NEW YORK, NY 10012",316,BOWERY,NEW YORK,NY,10012,Manhattan,,(212) 343-7017,400
223,317 AMSTERDAM CORP,TOLANI,Unenclosed Sidewalk Cafe,1165276,"410 AMSTERDAM AVE, NEW YORK, NY 10024",410,AMSTERDAM AVE,NEW YORK,NY,10024,Manhattan,,(212) 873-6252,178
134,31 GREAT JONES RESTAURANT CORP.,FIVE POINTS,Unenclosed Sidewalk Cafe,1034252,"31 GREAT JONES ST, NEW YORK, NY 10012",31,GREAT JONES ST,NEW YORK,NY,10012,Manhattan,,(212) 253-5700,159
167,31ST STREET PIZZA PALACE INC,PIZZA PALACE,Enclosed Sidewalk Cafe,1103894,"29-29 DITMARS BOULEVARD, ASTORIA, NY 11105",29-29,DITMARS BOULEVARD,ASTORIA,NY,11105,Queens,,(718) 728-1060,341
12,"320 COLUMBUS AVE.,INC",MUGHLAI INDIAN CUISINE,Enclosed Sidewalk Cafe,0738544,"320 COLUMBUS AVE, NEW YORK, NY 10023",320,COLUMBUS AVE,NEW YORK,NY,10023,Manhattan,,(212) 724-0419,298
546,324 SEVENTH AVE. RESTAURANT CORP.,MUSTANG SALLY'S,Unenclosed Sidewalk Cafe,1320689,"324 7 AVENUE, NEW YORK, NY 10001",324,7 AVENUE,NEW YORK,NY,10001,Manhattan,,(212) 695-3806,165
718,325 BOWERY RESTAURANT LLC,PEELS RESTAURANT,Unenclosed Sidewalk Cafe,1385809,"325 BOWERY, NEW YORK, NY 10003",325,BOWERY,NEW YORK,NY,10003,Manhattan,,(212) 932-7566,573
623,325 CHURCH ST. COMPANY LLC,SALUGGI'S,Unenclosed Sidewalk Cafe,1349597,"325 CHURCH ST, NEW YORK, NY 10013",325,CHURCH ST,NEW YORK,NY,10013,Manhattan,,(212) 238-0015,56
49,33-01 BROADWAY CORP.,TIERRAS COLOMBIANAS II,Enclosed Sidewalk Cafe,0916981,"33-01 BROADWAY, ASTORIA, NY 11106",33-01,BROADWAY,ASTORIA,NY,11106,Queens,,(718) 956-3012,720
557,3321 ASTORIA INC,BARE BURGER,Unenclosed Sidewalk Cafe,1327665,"33-21 31ST AVE, ASTORIA, NY 11106",33-21,31ST AVE,ASTORIA,NY,11106,Queens,,(212) 566-6002,363
613,333 LAFAYETTE LLC,PINCHE TAQUERIA,Unenclosed Sidewalk Cafe,1347971,"333 LAFAYETTE STREET, NEW YORK, NY 10012",333,LAFAYETTE STREET,NEW YORK,NY,10012,Manhattan,,(212) 343-9977,334
891,33 WEST 54TH STREET LLC,IL GATTOPARDO,Unenclosed Sidewalk Cafe,1437756,"33 WEST   54 STREET, NEW YORK, NY 10019",33,WEST   54 STREET,NEW YORK,NY,10019,Manhattan,,(212) 246-0412,46
847,343 BROOME STREET RESTAURANT INC,RANDOLPH BEER,Unenclosed Sidewalk Cafe,1426393,"343 BROOME ST, NEW YORK, NY 10013",343,BROOME ST,NEW YORK,NY,10013,Manhattan,,(917) 653-0633,132
20,345 COURT ST CORP,MARCO POLO REST     E/S/C #508,Enclosed Sidewalk Cafe,0789922,"345 COURT ST, BROOKLYN, NY 11231",345,COURT ST,BROOKLYN,NY,11231,Brooklyn,,(718) 852-5015,420
827,345 COURT ST. CORP,MARCO POLO RISTORANTE,Unenclosed Sidewalk Cafe,1422815,"345 COURT ST, BROOKLYN, NY 11231",345,COURT ST,BROOKLYN,NY,11231,Brooklyn,,(718) 852-5015,252
851,348 WYTHE MANAGEMENT LLC,ISA,Unenclosed Sidewalk Cafe,1427399,"348 WYTHE AVE, BROOKLYN, NY 11211",348,WYTHE AVE,BROOKLYN,NY,11211,Brooklyn,,(917) 856-3091,347
756,352 EAST 86TH STREET RESTAURANT INC.,GRACIE'S CORNER,Unenclosed Sidewalk Cafe,1408347,"352 E 86TH ST, NEW YORK, NY 10028",352,E 86TH ST,NEW YORK,NY,10028,Manhattan,,(212) 737-8505,196
11,352 EAST 86TH STREET RESTAURANT INC.,GRACIE'S CORNER,Enclosed Sidewalk Cafe,0737570,"352 E 86TH ST, NEW YORK, NY 10028",352,E 86TH ST,NEW YORK,NY,10028,Manhattan,,(212) 737-8505,201
547,352 RESTAURANT CORP,MUSTANG HARRY'S,Unenclosed Sidewalk Cafe,1320701,"352 7TH AVE, NEW YORK, NY 10001",352,7TH AVE,NEW YORK,NY,10001,Manhattan,,(212) 268-8930,200
723,357 HOSPITALITY INC,,Unenclosed Sidewalk Cafe,1387587,"435 AMSTERDAM AVE, NEW YORK, NY 10024",435,AMSTERDAM AVE,NEW YORK,NY,10024,Manhattan,,(718) 426-4420,473
73,"359 COLUMBUS AVENUE, LLC",ISABELLA'S,Unenclosed Sidewalk Cafe,0953473,"359 COLUMBUS AVE, NEW YORK, NY 10024",359,COLUMBUS AVE,NEW YORK,NY,10024,Manhattan,,(212) 724-2100,558
407,384 3RD AVE REST LLC,WHITEMAN & BLOOM LIQUOR COMPANY,Unenclosed Sidewalk Cafe,1257055,"384 3RD AVE, NEW YORK, NY 10016",384,3RD AVE,NEW YORK,NY,10016,Manhattan,,(914) 632-6036,103
270,384 COLUMBUS AVENUE ASSOCIATES LLC,OCEAN GRILL,Unenclosed Sidewalk Cafe,1190075,"384 COLUMBUS AVE, NEW YORK, NY 10024",384,COLUMBUS AVE,NEW YORK,NY,10024,Manhattan,,(212) 579-2300,375
668,3 IN 1 KITCHEN CORP.,,Enclosed Sidewalk Cafe,1361524,"4902 FORT HAMILTON PKWY, BROOKLYN, NY 11219",4902,FORT HAMILTON PKWY,BROOKLYN,NY,11219,Brooklyn,,(718) 437-7744,191
498,3RD AVE 26 REST. CORP.,SUNFLOWER DINER,Enclosed Sidewalk Cafe,1297821,"359 3RD AVE, NEW YORK, NY 10016",359,3RD AVE,NEW YORK,NY,10016,Manhattan,,(646) 526-0252,252
426,40-01 NORTHERN BOULEVARD CORP,TEQUILA SUNRISE,Enclosed Sidewalk Cafe,1275009,"4001 NORTHERN BLVD, QUEENS, NY 11101",4001,NORTHERN BLVD,QUEENS,NY,11101,Queens,,(917) 841-6667,1044
601,400 WEST 14TH INC,GASLIGHT,Unenclosed Sidewalk Cafe,1346493,"400 W 14TH ST, NEW YORK, NY 10014",400,W 14TH ST,NEW YORK,NY,10014,Manhattan,,(917) 449-5558,631
895,402 8TH AVE. REST. INC,MOLLY WEE PUB,Unenclosed Sidewalk Cafe,1438687,"402 8TH AVE, NEW YORK, NY 10001",402,8TH AVE,NEW YORK,NY,10001,Manhattan,,(212) 967-2627,196
992,4042 EAST TREMONT CAFE CORP.,TOSCA CAFE,Enclosed Sidewalk Cafe,1466017,"4038 EAST TREMONT AVE, BRONX, NY 10465",4038,EAST TREMONT AVE,BRONX,NY,10465,Bronx,,(718) 239-3300,814
332,41-08 REST.CORP.,CHRISTOS STEAK HOUSE,Unenclosed Sidewalk Cafe,1222107,"4108 23RD AVE, QUEENS, NY 11105",4108,23RD AVE,QUEENS,NY,11105,Queens,,(718) 777-8400,439
204,412 AMSTERDAM CORP.,BETTOLA,Unenclosed Sidewalk Cafe,1158198,"412 AMSTERDAM AVE, NEW YORK, NY 10024",412,AMSTERDAM AVE,NEW YORK,NY,10024,Manhattan,,(212) 362-7400,134
737,419 MYRTLE REST CORP,PUTNAM'S,Unenclosed Sidewalk Cafe,1391086,"419 MYRTLE AVE, BROOKYN, NY 11205",419,MYRTLE AVE,BROOKYN,NY,11205,Brooklyn,,(917) 412-7110,677
854,42-02 TAVERN INC,,Unenclosed Sidewalk Cafe,1427814,"4202 BROADWAY, ASTORIA, NY 11103",4202,BROADWAY,ASTORIA,NY,11103,Queens,,(718) 606-2777,552
303,425 AMSTERDAM CAFE INC.,MCALEER'S PUB,Unenclosed Sidewalk Cafe,1218074,"425 AMSTERDAM AVE, NEW YORK, NY 10024",425,AMSTERDAM AVE,NEW YORK,NY,10024,Manhattan,,(212) 362-7867,145
890,430 LLC,THE GOODWIN,Unenclosed Sidewalk Cafe,1437677,"430 HUDSON ST, NEW YORK, NY 10014",430,HUDSON ST,NEW YORK,NY,10014,Manhattan,,(212) 929-6181,140
878,"43 WEST 24TH ST. REST., LLC.",RAYMI RESTAURANT,Unenclosed Sidewalk Cafe,1433299,"43 W 24TH ST, NEW YORK, NY 10010",43,W 24TH ST,NEW YORK,NY,10010,Manhattan,,(212) 929-1200,234
62,449 RESTAURANT INC.,MOONSTRUCK DINER,Enclosed Sidewalk Cafe,0924875,"449 THIRD AVENUE, NEW YORK, NY 10016",449,THIRD AVENUE,NEW YORK,NY,10016,Manhattan,,(212) 213-1100,516
194,"44TH AND NINTH RESTAURANT, INC.",L'ALLEGRIA,Unenclosed Sidewalk Cafe,1139326,"623 9TH AVE, NEW YORK, NY 10036",623,9TH AVE,NEW YORK,NY,10036,Manhattan,,(212) 265-6777,144
531,451 GRAHAM AVENUE CORP,THE RICHARDSON,Unenclosed Sidewalk Cafe,1314137,"451 GRAHAM AVENUE, BROOKLYN, NY 11222",451,GRAHAM AVENUE,BROOKLYN,NY,11222,Brooklyn,,(718) 389-0839,421
515,46 02 SKILLMAN CAFE LLC,CLARET'S WINE BAR,Unenclosed Sidewalk Cafe,1309963,"46-02 SKILLMAN AVE, SUNNYSIDE, NY 11104",46-02,SKILLMAN AVE,SUNNYSIDE,NY,11104,Queens,,(718) 791-1501,254
395,4N CORP,BLIND PIG,Unenclosed Sidewalk Cafe,1251799,"233 E 14TH ST, NEW YORK, NY 10003",233,E 14TH ST,NEW YORK,NY,10003,Manhattan,,(212) 209-1573,152
493,"4 RUNNERS, INC",,Unenclosed Sidewalk Cafe,1290477,"310 W 14TH ST, NEW YORK, NY 10014",310,W 14TH ST,NEW YORK,NY,10014,Manhattan,,(212) 463-8626,150
170,505-23 BAR INC,THE HALF KING,Unenclosed Sidewalk Cafe,1109467,"505-507 W 23RD ST, NEW YORK, NY 10011",505-507,W 23RD ST,NEW YORK,NY,10011,Manhattan,,(212) 462-4300,420
710,"513 COLUMBUS,LLC",,Unenclosed Sidewalk Cafe,1384479,"513 COLUMBUS AVENUE, NEW YORK, NY 10024",513,COLUMBUS AVENUE,NEW YORK,NY,10024,Manhattan,,(212) 579-2900,370
941,51 KENT CAFE INC,,Unenclosed Sidewalk Cafe,1456625,"51 KENT AVE, BROOKLYN, NY 11249",51,KENT AVE,BROOKLYN,NY,11249,Brooklyn,,(347) 227-8624,437
111,520 COLUMBUS AVE LTD,GOOD ENOUGH TO EAT,Unenclosed Sidewalk Cafe,1006183,"520 COLUMBUS AVE, NEW YORK, NY 10024",520,COLUMBUS AVE,NEW YORK,NY,10024,Manhattan,,(212) 579-3194,297
673,523 9TH AVENUE INC.,HELLS KITCHEN CAFE,Unenclosed Sidewalk Cafe,1371615,"523 9 AVENUE, NEW YORK, NY 10018",523,9 AVENUE,NEW YORK,NY,10018,Manhattan,,(917) 957-0161,162
168,52 RESTAURANT GROUP CORP.,OPAL,Unenclosed Sidewalk Cafe,1105401,"251 E 52ND ST, NEW YORK, NY 10022",251,E 52ND ST,NEW YORK,NY,10022,Manhattan,,(212) 593-4321,339
958,53 WEST 72ND STREET CAFE LLC.,,Enclosed Sidewalk Cafe,1459183,"53 W 72ND ST, NEW YORK, NY 10023",53,W 72ND ST,NEW YORK,NY,10023,Manhattan,,(212) 362-7070,344
330,"54TH STREET BAKERY, LLC.",CAFE METRO,Unenclosed Sidewalk Cafe,1221586,"839 7TH AVE, NEW YORK, NY 10019",839,7TH AVE,NEW YORK,NY,10019,Manhattan,,(212) 983-7474,202
528,58 2ND AVE REST CORP.,CELLAR 58,Unenclosed Sidewalk Cafe,1312717,"58 2ND AVE, NEW YORK, NY 10003",58,2ND AVE,NEW YORK,NY,10003,Manhattan,,(212) 777-2840,144
524,600 METROPOLITAN CORP.,ALLIGATOR LOUNGE,Unenclosed Sidewalk Cafe,1311871,"600 METROPOLITAN AVE, BROOKLYN, NY 11211",600,METROPOLITAN AVE,BROOKLYN,NY,11211,Brooklyn,,(718) 599-4440,184
474,600 WEST 169TH REST. INC.,COOGANS,Unenclosed Sidewalk Cafe,1283230,"4015 BROADWAY, NEW YORK, NY 10032",4015,BROADWAY,NEW YORK,NY,10032,Manhattan,,(212) 928-1234,360
13,603 SECOND AVE CORP,BENJAMIN RESTAURANT,Enclosed Sidewalk Cafe,0760685,"603 2ND AVE, NEW YORK, NY 10016",603,2ND AVE,NEW YORK,NY,10016,Manhattan,,(212) 889-0750,240
488,609 EDIBLES INC,TINOS DELICATESSEN,Unenclosed Sidewalk Cafe,1288036,"2410 ARTHUR AVE, BRONX, NY 10458",2410,ARTHUR AVE,BRONX,NY,10458,Bronx,,(718) 733-9879,81
296,60 SWEET THING INC.,REDEMPTION COCTAIL LOUNGE,Unenclosed Sidewalk Cafe,1215467,"1003 2ND AVE, NEW YORK, NY 10022",1003,2ND AVE,NEW YORK,NY,10022,Manhattan,,(212) 513-1988,380
191,62ND & 1ST LLC,NEELY'S BARBECUE PARLOR,Unenclosed Sidewalk Cafe,1136669,"1125 FIRST AVENUE, NEW YORK, NY 10065",1125,FIRST AVENUE,NEW YORK,NY,10065,Manhattan,,(212) 871-4000,417
676,63 GUERNSEY LLC,SPRITZENHAUS,Unenclosed Sidewalk Cafe,1374780,"63 GUERNSEY ST, BROOKLYN, NY 11222",63,GUERNSEY ST,BROOKLYN,NY,11222,Brooklyn,,(212) 932-7566,814
359,643 HUDSON LLC,FATTY CRAB,Unenclosed Sidewalk Cafe,1230448,"643 HUDSON ST, NEW YORK, NY 10014",643,HUDSON ST,NEW YORK,NY,10014,Manhattan,,(212) 807-6383,86
715,64 GREENWICH RESTAURANT,THE MEATBALL SHOP,Unenclosed Sidewalk Cafe,1385289,"64 GREENWICH AVENUE, NEW YORK, NY 10011",64,GREENWICH AVENUE,NEW YORK,NY,10011,Manhattan,,(917) 640-8008,75
473,"64 WEST RESTAURANT, LLC",BAR BOULUD,Unenclosed Sidewalk Cafe,1282969,"1900 BROADWAY, NEW YORK, NY 10023",1900,BROADWAY,NEW YORK,NY,10023,Manhattan,,(212) 595-0303,676
532,662 FULTON ST RESTAURANT CORP,DENIZ,Unenclosed Sidewalk Cafe,1314257,"662 FULTON ST, BROOKLYN, NY 11217",662,FULTON ST,BROOKLYN,NY,11217,Brooklyn,,(718) 852-6503,243
837,667 TENTH AVENUE CORP,FAST EDDIES,Unenclosed Sidewalk Cafe,1424351,"667 10TH AVE, NEW YORK, NY 10036",667,10TH AVE,NEW YORK,NY,10036,Manhattan,,(212) 932-7566,389
206,"675 HUDSON VAULT, LLC",DOS CAMINOS,Unenclosed Sidewalk Cafe,1159248,"675 HUDSON ST, NEW YORK, NY 10014",675,HUDSON ST,NEW YORK,NY,10014,Manhattan,,(212) 513-1988,1300
867,"67 SECOND AVENUE, LLC",CALLIOPE,Unenclosed Sidewalk Cafe,1431274,"84 E 4TH ST, NEW YORK, NY 10003",84,E 4TH ST,NEW YORK,NY,10003,Manhattan,,(212) 260-8484,405
555,68TH ST CAFE INC.,,Unenclosed Sidewalk Cafe,1326142,"2014 BROADWAY, NEW YORK, NY 10023",2014,BROADWAY,NEW YORK,NY,10023,Bronx,,(212) 724-1400,285
430,701 W. 135TH CAFE INC.,COVO TRATTORIA,Unenclosed Sidewalk Cafe,1276674,"701 W 135TH ST, NEW YORK, NY 10031",701,W 135TH ST,NEW YORK,NY,10031,Manhattan,,(212) 234-9573,770
645,715 LORIMER RESTAURANT LLC,BECO,Unenclosed Sidewalk Cafe,1354387,"715 LORIMER ST, BROOKLYN, NY 11211",715,LORIMER ST,BROOKLYN,NY,11211,Brooklyn,,(917) 817-0877,165
314,71 WINE BAR CAFE OPERATING CORP.,BIN 71,Unenclosed Sidewalk Cafe,1219794,"237 COLUMBUS AVE, NEW YORK, NY 10023",237,COLUMBUS AVE,NEW YORK,NY,10023,Manhattan,,(917) 686-2081,130
740,72ND & COLUMBUS RESTAURANT LLC,AG KITCHEN,Enclosed Sidewalk Cafe,1392078,"269 COLUMBUS AVENUE, NEW YORK, NY 10023",269,COLUMBUS AVENUE,NEW YORK,NY,10023,Manhattan,,(212) 873-9400,416
834,72ND & COLUMBUS RESTAURANT LLC,COLUMBUS TAVERN,Unenclosed Sidewalk Cafe,1423787,"269 COLUMBUS AVE, NEW YORK, NY 10023",269,COLUMBUS AVE,NEW YORK,NY,10023,Manhattan,,(212) 579-3195,110
233,75TH & 3RD CORP.,BISTRO LE STEAK,Enclosed Sidewalk Cafe,1167600,"1309 3 AVENUE, NEW YORK, NY 10021",1309,3 AVENUE,NEW YORK,NY,10021,Manhattan,,(212) 517-3800,504
755,768 MAD RESTAURANT LLC,BAR ITALIA,Unenclosed Sidewalk Cafe,1401947,"768 MADISON AVE, NEW YORK, NY 10065",768,MADISON AVE,NEW YORK,NY,10065,Manhattan,,(917) 546-6676,53
670,"76TH STREET RESTAURANT, LLC",CAFE BOULUD,Unenclosed Sidewalk Cafe,1365172,"20 EAST   76 STREET, NEW YORK, NY 10021",20,EAST   76 STREET,NEW YORK,NY,10021,Manhattan,,(212) 794-2329,322
401,772 NINTH RESTAURANT CORP.,,Unenclosed Sidewalk Cafe,1253206,"772 9TH AVE, NEW YORK, NY 10019",772,9TH AVE,NEW YORK,NY,10019,Manhattan,,(212) 586-5005,120
376,"78 SECOND AVE. SANDWICH SHOP, INC",BISTRO NOMAD,Unenclosed Sidewalk Cafe,1244047,"78 2 AVENUE, NEW YORK, NY 10003",78,2 AVENUE,NEW YORK,NY,10003,Manhattan,,(212) 253-5410,182
836,7 EAST 54TH STREET ASSOCIATES LLC,BICE RISTORANTE,Unenclosed Sidewalk Cafe,1424031,"7 E 54TH ST, NEW YORK, NY 10022",7,E 54TH ST,NEW YORK,NY,10022,Manhattan,,(212) 688-1999,209
250,804 LEXINGTON AVENUE RESTAURANT INC.,BURGER HEAVEN,Unenclosed Sidewalk Cafe,1175917,"804 LEXINGTON AVE, NEW YORK, NY 10065",804,LEXINGTON AVE,NEW YORK,NY,10065,Manhattan,,(212) 838-3580,299
996,834 7TH AVENUE LLC,,Enclosed Sidewalk Cafe,1470771,"834 7 AVENUE, NEW YORK, NY 10019",834,   7 AVENUE,NEW YORK,NY,10019,Manhattan,,(908) 839-2062,
35,83/AMSTERDAM RESTAURANT CORP,HI LIFE BAR & GRILL,Unenclosed Sidewalk Cafe,0883095,"477 AMSTERDAM AVENUE, NEW YORK, NY 10024",477,AMSTERDAM AVENUE,NEW YORK,NY,10024,Manhattan,,(212) 787-7199,302
37,83/AMSTERDAM RESTAURANT CORP,HI-LIFE RESTAURANT,Enclosed Sidewalk Cafe,0885881,"477 AMSTERDAM AVE, NEW YORK, NY 10024",477,AMSTERDAM AVE,NEW YORK,NY,10024,Manhattan,,(212) 787-7199,212
231,8406 THIRD AVE REST CORP.,SOFIA,Unenclosed Sidewalk Cafe,1167396,"8406 3RD AVE, BROOKLYN, NY 11209",8406,3RD AVE,BROOKLYN,NY,11209,Brooklyn,,(718) 680-4242,174
751,"86 SOUTH PORTLAND,LLC",PEQUENA RESTAURANT,Enclosed Sidewalk Cafe,1397285,"86 SOUTH PORTLAND AVENUE, BROOKLYN, NY 11217",86,SOUTH PORTLAND AVENUE,BROOKLYN,NY,11217,Brooklyn,,(718) 643-0000,118
412,88 2ND AVE FOOD CORP.,,Enclosed Sidewalk Cafe,1258524,"88 2 AVENUE, NEW YORK, NY 10003",88,2 AVENUE,NEW YORK,NY,10003,Manhattan,,(212) 420-8050,364
343,8868 CORP.,VERMICELLI,Unenclosed Sidewalk Cafe,1224915,"1492 2ND AVE, NEW YORK, NY 10075",1492,2ND AVE,NEW YORK,NY,10075,Manhattan,,(212) 288-8868,177
334,92 ADRIANNA INC.,LOCAL 92,Unenclosed Sidewalk Cafe,1222193,"92 2ND AVE, NEW YORK, NY 10003",92,2ND AVE,NEW YORK,NY,10003,Manhattan,,(212) 529-2563,216
925,92ND AND 3RD REST CORP.,3RD AVE ALE HOUSE,Unenclosed Sidewalk Cafe,1453505,"1644 3RD AVE, NEW YORK, NY 10128",1644,3RD AVE,NEW YORK,NY,10128,Manhattan,,(917) 821-4654,468
979,949 COLUMBUS AVENUE INC,LURA,Unenclosed Sidewalk Cafe,1463073,"949 COLUMBUS AVE, NEW YORK, NY 10025",949,COLUMBUS AVE,NEW YORK,NY,10025,Manhattan,,(212) 866-7500,82
642,94 CORNER CAFE CORP.,,Unenclosed Sidewalk Cafe,1353701,"2518 BROADWAY, NEW YORK, NY 10025",2518,BROADWAY,NEW YORK,NY,10025,Manhattan,,(212) 875-2100,177
641,94 CORNER CAFE CORP.,,Enclosed Sidewalk Cafe,1353598,"2518 BROADWAY, NEW YORK, NY 10025",2518,BROADWAY,NEW YORK,NY,10025,Manhattan,,(212) 875-2100,186
301,99 SOUTH REST. CORP.,,Unenclosed Sidewalk Cafe,1217775,"97-99 7TH AVE S, NEW YORK, NY 10014",97-99,7TH AVE S,NEW YORK,NY,10014,Manhattan,,(212) 645-0600,518
550,A & A FOOD ENTERPRISES LLC,AGED,Unenclosed Sidewalk Cafe,1323151,"107-02 70 RD, QUEENS, NY 11375",107-02,70 RD,QUEENS,NY,11375,Queens,,(718) 544-2433,278
829,ABA TURKISH RESTAURANT LLC,,Unenclosed Sidewalk Cafe,1423305,"325 WEST   57 STREET, NEW YORK, NY 10019",325,WEST   57 STREET,NEW YORK,NY,10019,Manhattan,,(212) 969-1782,164
82,"A.B.C. HOME FURNISHINGS, INC.",THE PIPA,Unenclosed Sidewalk Cafe,0960499,"38 E 19TH ST, NEW YORK, NY 10003",38,E 19TH ST,NEW YORK,NY,10003,Manhattan,,(212) 473-3000,356
911,ABI GROUP LLC,VICOLO RISTORANTE & BAR,Enclosed Sidewalk Cafe,1449171,"8530 3RD AVE, BROOKLYN, NY 11209",8530,3RD AVE,BROOKLYN,NY,11209,Brooklyn,,(718) 234-4005,545
564,ABITINO'S PIZZA 49TH STREET CORP,,Enclosed Sidewalk Cafe,1338974,"936 2 AVENUE, NEW YORK, NY 10022",936,2 AVENUE,NEW YORK,NY,10022,Manhattan,,(347) 538-1465,200
327,ABRUZZO DOCG INC.,TARALLUCCI EVINO,Unenclosed Sidewalk Cafe,1221181,"15 EAST 18TH STREET, NEW YORK, NY 10003",15,EAST 18TH STREET,NEW YORK,NY,10003,Manhattan,,(212) 228-5400,230
935,ABV UNLIMITED LLC,TUTU'S,Unenclosed Sidewalk Cafe,1455725,"25 BOGART ST, BROOKLYN, NY 11206",25,BOGART ST,BROOKLYN,NY,11206,Brooklyn,,(718) 456-7898,264
141,ACROPOL REST. CORP.,RITZ DINER,Enclosed Sidewalk Cafe,1066538,"1133 1ST AVE, NEW YORK, NY 10065",1133,1ST AVE,NEW YORK,NY,10065,Manhattan,,(646) 522-6885,446
600,"ACUMEN GMAT, LLC",HAAGEN DAZS,Unenclosed Sidewalk Cafe,1346491,"2905 BROADWAY, NEW YORK, NY 10025",2905,BROADWAY,NEW YORK,NY,10025,Manhattan,,(212) 662-5265,98
580,A & D WINE CORP.,,Unenclosed Sidewalk Cafe,1344043,"65 2 AVENUE, NEW YORK, NY 10003",65,2 AVENUE,NEW YORK,NY,10003,Manhattan,,(212) 777-6965,190
588,"AHSHI GLOBAL, INC.",,Unenclosed Sidewalk Cafe,1345598,"623 GRAND ST, BROOKLYN, NY 11211",623,GRAND ST,BROOKLYN,NY,11211,Brooklyn,,(718) 963-0219,389
179,AJ EASTSIDE INC,FETCH,Unenclosed Sidewalk Cafe,1132655,"1649 THIRD AVE, NEW YORK, NY 10128",1649,THIRD AVE,NEW YORK,NY,10128,Manhattan,,(212) 423-9302,101
389,AKRAM RESTAURANT MANAGEMENT INC,DA GENNARO RISTORANTE,Unenclosed Sidewalk Cafe,1249523,"129 MULBERRY ST, NEW YORK, NY 10013",129,MULBERRY ST,NEW YORK,NY,10013,Manhattan,,(212) 343-9065,266
694,ALA TURK INC,ALA TURKA,Enclosed Sidewalk Cafe,1381393,"1417 2ND AVE, NEW YORK, NY 10021",1417,2ND AVE,NEW YORK,NY,10021,Manhattan,,(212) 744-2424,481
535,ALA TURK INC,ALA TURKA,Unenclosed Sidewalk Cafe,1315623,"1417 2ND AVE, NEW YORK, NY 10021",1417,2ND AVE,NEW YORK,NY,10021,Manhattan,,(212) 744-2424,297
281,"ALBACHIARA,LLC",ALBELLA,Unenclosed Sidewalk Cafe,1193773,"10 READE ST, NEW YORK, NY 10007",10,READE ST,NEW YORK,NY,10007,Manhattan,AKA 2 LAFAYETTE_STREET,(212) 267-5900,483
989,ALDER RESTAURANT LLC,,Unenclosed Sidewalk Cafe,1464810,"157 2ND AVE, NEW YORK, NY 10003",157,2ND AVE,NEW YORK,NY,10003,Manhattan,,(917) 535-9241,158
494,ALFIE COMPANY LLC,CAVATAPPO GRILL,Unenclosed Sidewalk Cafe,1292343,"1712 1 AVENUE, NEW YORK, NY 10128",1712,1 AVENUE,NEW YORK,NY,10128,Manhattan,,(212) 987-9260,175
974,AMBER 221 INC,,Enclosed Sidewalk Cafe,1462546,"221 COLUMBUS AVE, NEW YORK, NY 10023",221,COLUMBUS AVE,NEW YORK,NY,10023,Manhattan,,(212) 799-8100,252
912,AMBIANCE WINE LLC,VELLA WINE BAR,Unenclosed Sidewalk Cafe,1449418,"1480 2ND AVE, NEW YORK, NY 10075",1480,2ND AVE,NEW YORK,NY,10075,Manhattan,,(917) 304-8626,342
841,AMELIA B 1 CORP.,ISLAND BURGERS & SHAKES,Unenclosed Sidewalk Cafe,1424906,"422 AMSTERDAM AVE, NEW YORK, NY 10024",422,AMSTERDAM AVE,NEW YORK,NY,10024,Manhattan,,(212) 877-7934,70
307,"AMERICAN SPECIALTY FOODS, INC.",JOSIE RESTAURANT,Enclosed Sidewalk Cafe,1218880,"300 AMSTERDAM AVENUE, NEW YORK, NY 10023",300,AMSTERDAM AVENUE,NEW YORK,NY,10023,Manhattan,,(212) 769-1212,311
137,"AMSTERDAM AVENUE BROTHER JIMMY'S, LLC",BROTHER JIMMY'S WEST,Unenclosed Sidewalk Cafe,1039396,"428 AMSTERDAM AVE, NEW YORK, NY 10024",428,AMSTERDAM AVE,NEW YORK,NY,10024,Manhattan,,(212) 244-3503,211
610,AMSTERDAM AVENUE RESTAURANT LLC,VILLAGE POURHOUSE,Unenclosed Sidewalk Cafe,1347879,"982-988 AMSTERDAM AVE, NEW YORK, NY 10025",982-988,AMSTERDAM AVE,NEW YORK,NY,10025,Manhattan,,(212) 979-2337,265
68,ANDIKIANA CORP.,SILVER SPURS EATERY,Unenclosed Sidewalk Cafe,0941701,"490 LA GUARDIA PL, NEW YORK, NY 10012",490,LA GUARDIA PL,NEW YORK,NY,10012,Manhattan,,(212) 228-2333,408
786,ANEJO LLC,ANEJO TEQUILERIA,Unenclosed Sidewalk Cafe,1419380,"668 10TH AVE, NEW YORK, NY 10036",668,10TH AVE,NEW YORK,NY,10036,Manhattan,,(212) 290-4770,335
824,ANEMONAS REST CORP,AMSTERDAM DINER,Unenclosed Sidewalk Cafe,1422698,"447 AMSTERDAM AVE, NEW YORK, NY 10024",447,AMSTERDAM AVE,NEW YORK,NY,10024,Manhattan,,(917) 526-9653,140
769,ANFIELD ROAD INC,BANTER,Unenclosed Sidewalk Cafe,1417866,"132 HAVEMEYER ST, BROOKLYN, NY 11211",132,HAVEMEYER ST,BROOKLYN,NY,11211,Brooklyn,,(718) 599-5200,260
40,ANGELO VIVOLO RESTAURANT ASSOCIATES INC,VIVOLO,Enclosed Sidewalk Cafe,0895577,"140 E 74TH ST, NEW YORK, NY 10021",140,E 74TH ST,NEW YORK,NY,10021,Manhattan,,(212) 737-3533,86
952,"ANGELO VIVOLO RESTAURANT ASSOC., INC",CUCINA VIVOLO,Unenclosed Sidewalk Cafe,1458548,"138 E 74TH ST, NEW YORK, NY 10021",138,E 74TH ST,NEW YORK,NY,10021,Manhattan,,(212) 717-4700,81
920,"ANTIKA PIZZERIA ASTORIA, INC",ANTIKA PIZZERIA,Unenclosed Sidewalk Cafe,1451259,"36-08 30TH AVE, ASTORIA, NY 11103",36-08,30TH AVE,ASTORIA,NY,11103,Queens,,(718) 938-5845,129
726,ANTIKA PIZZERIA INC,ANTIKA,Unenclosed Sidewalk Cafe,1388443,"3924 BROADWAY, NEW YORK, NY 10032",3924,BROADWAY,NEW YORK,NY,10032,Manhattan,,(212) 781-9100,204
948,ANZUELO CORP,IL VINO CITY WINE,Unenclosed Sidewalk Cafe,1458113,"1728 2ND AVE, NEW YORK, NY 10128",1728,2ND AVE,NEW YORK,NY,10128,Manhattan,,(212) 426-0919,72
832,A.O. CAFE AND RESTAURANT LLC,CORNERSTONE CAFE,Unenclosed Sidewalk Cafe,1423768,"17 AVE B, NEW YORK, NY 10009",17,AVE B,NEW YORK,NY,10009,Manhattan,,(212) 228-1260,126
759,APICIO LLC,TERTULIA,Unenclosed Sidewalk Cafe,1414241,"359 6TH AVE, NEW YORK, NY 10014",359,6TH AVE,NEW YORK,NY,10014,Manhattan,,(917) 723-2191,124
239,APPLEJACK COFFEE SHOP INC.,APPLEJACK COFFEE SHOP,Unenclosed Sidewalk Cafe,1170662,"230 W 55TH ST, NEW YORK, NY 10019",230,W 55TH ST,NEW YORK,NY,10019,Manhattan,,(212) 586-6075,250
714,APR RESTAURANT LLC,HAVANA CAFE,Unenclosed Sidewalk Cafe,1385221,"3151 E TREMONT AVE, BRONX, NY 10461",3151,E TREMONT AVE,BRONX,NY,10461,Other,,(718) 518-1800,390
480,ARDIAN CORP,TAVERNA KLYCLADES,Unenclosed Sidewalk Cafe,1285652,"3307 DITMARS BLVD, QUEENS, NY 11105",3307,DITMARS BLVD,QUEENS,NY,11105,Queens,,(718) 545-8666,338
98,ARECAT REST. CORP.,LA GIARA,Unenclosed Sidewalk Cafe,0983511,"501 3 AVE, NEW YORK, NY 10016",501,3 AVE,NEW YORK,NY,10016,Manhattan,,(212) 726-9855,124
33,AREO RESTAURANT CORP,,Unenclosed Sidewalk Cafe,0858542,"8420 3RD AVE, BROOKLYN, NY 11209",8420,3RD AVE,BROOKLYN,NY,11209,Brooklyn,8424 3 AVE,(718) 238-0079,116
657,"ARGO TEA, INC",ARGO TEA CAFE,Unenclosed Sidewalk Cafe,1357194,"949 BROADWAY, NEW YORK, NY 10010",949,BROADWAY,NEW YORK,NY,10010,Manhattan,,(646) 502-7250,362
656,"ARGO TEA, INC",ARGO TEA CAFE,Unenclosed Sidewalk Cafe,1357184,"1792 BROADWAY, NEW YORK, NY 10019",1792,BROADWAY,NEW YORK,NY,10019,Manhattan,,(646) 502-7250,118
166,ARKADY INC.,AL FORNO,Unenclosed Sidewalk Cafe,1103699,"1484 SECOND AVENUE, NEW YORK, NY 10075",1484,SECOND AVENUE,NEW YORK,NY,10075,Manhattan,,(212) 249-5103,188
291,"ASC, INC.",LA NONNA,Unenclosed Sidewalk Cafe,1208521,"134 MULBERRY ST, NEW YORK, NY 10013",134,MULBERRY ST,NEW YORK,NY,10013,Manhattan,,(212) 343-1212,136
830,ASTORIA RESTAURANT GROUP INC,WILLIAM HALLET,Unenclosed Sidewalk Cafe,1423540,"3610 30TH AVE, ASTORIA, NY 11103",3610,30TH AVE,ASTORIA,NY,11103,Queens,,(718) 269-3443,118
418,"ATLANTIC STAR RESTAURANTS, LLC",THE BLACK DUCK RESTAURANT,Unenclosed Sidewalk Cafe,1266587,"120 E 28TH ST, NEW YORK, NY 10016",120,E 28TH ST,NEW YORK,NY,10016,Manhattan,,(212) 448-0888,125
75,"A.T. WEST 16TH ENTERPRISES,LTD.",STEAK FRITES,Unenclosed Sidewalk Cafe,0954589,"9 E 16TH ST, NEW YORK, NY 10003",9,E 16TH ST,NEW YORK,NY,10003,Manhattan,,(212) 675-4700,218
807,"AURA,LLC.",MICKEY SPILLANE'S KITCHEN,Unenclosed Sidewalk Cafe,1421245,"350 W 49TH ST, NEW YORK, NY 10020",350,W 49TH ST,NEW YORK,NY,10020,Manhattan,,(212) 920-9370,209
586,AVE B BUON GUSTO CORP.,,Unenclosed Sidewalk Cafe,1345431,"76 AVENUE B, NEW YORK, NY 10009",76,AVENUE B,NEW YORK,NY,10009,Manhattan,,(212) 420-8400,235
190,A. VENIERO INC.,VENIERO'S PASTICCERIA & CAFE,Unenclosed Sidewalk Cafe,1136223,"342 E 11TH ST, NEW YORK, NY 10003",342,E 11TH ST,NEW YORK,NY,10003,Manhattan,,(212) 674-7070,170
440,AVENTURA RESTAURANT LLC,VAMOS,Unenclosed Sidewalk Cafe,1277655,"348 1 AVENUE, NEW YORK, NY 10010",348,1 AVENUE,NEW YORK,NY,10010,Manhattan,,(212) 727-3565,320
765,AYZA UPPER WEST SIDE INC,AYZA WINE & CHOCOLATE BAR,Unenclosed Sidewalk Cafe,1416689,"1 7TH AVE S, NEW YORK, NY 10014",1,7TH AVE S,NEW YORK,NY,10014,Manhattan,,(212) 365-2992,296
100,A & Z RESTAURANT CORP.,WINEBAR,Unenclosed Sidewalk Cafe,0987074,"65 2ND AVE, NEW YORK, NY 10003",65,2ND AVE,NEW YORK,NY,10003,Manhattan,NORTH STORE,(212) 777-1608,202
823,B5 LLC,BAREBURGER,Unenclosed Sidewalk Cafe,1422684,"2301 31ST ST, ASTORIA, NY 11105",2301,31ST ST,ASTORIA,NY,11105,Queens,,(917) 784-1416,346
894,BABALU LLC,,Unenclosed Sidewalk Cafe,1438451,"3233 E TREMONT AVE, BRONX, NY 10461",3233,E TREMONT AVE,BRONX,NY,10461,Bronx,,(646) 594-0091,266
202,"BABU FOODS, INC.",HUDSON DINER,Unenclosed Sidewalk Cafe,1157473,"468 HUDSON ST, NEW YORK, NY 10014",468,HUDSON ST,NEW YORK,NY,10014,Manhattan,,(212) 627-9191,298
383,"BAC BARS GROUP, LLC.",BAYARD'S ALEHOUSE,Enclosed Sidewalk Cafe,1248153,"533 HUDSON STREET, NEW YORK, NY 10014",533,HUDSON STREET,NEW YORK,NY,10014,Manhattan,A/K/A 116 CHARLES STREET,(646) 245-5843,397
934,"BAKERS DOZEN ASSOCIATES, LLC",THE GENERAL,Unenclosed Sidewalk Cafe,1455183,"199 BOWERY, NEW YORK, NY 10002",199,BOWERY,NEW YORK,NY,10002,Manhattan,,(212) 271-7107,311
675,"BALILO DELI, INC",,Enclosed Sidewalk Cafe,1372571,"837 11TH AVE, NEW YORK, NY 10019",837,11TH AVE,NEW YORK,NY,10019,Manhattan,A.K.A 600 W. 57TH STREET,(212) 582-1851,401
598,"BALLARO,INC.",BALLARO CAFFE PROSCITTERIA,Unenclosed Sidewalk Cafe,1346433,"77 2ND AVE, NEW YORK, NY 10003",77,2ND AVE,NEW YORK,NY,10003,Manhattan,,(212) 228-3069,145
390,BANCONE LLC,PETRARCA,Unenclosed Sidewalk Cafe,1249567,"34 WHITE ST, NEW YORK, NY 10013",34,WHITE ST,NEW YORK,NY,10013,Manhattan,,(212) 625-2800,369
297,"BARAONDA RESTAURANT, INC.",,Unenclosed Sidewalk Cafe,1215929,"1439 2ND AVE, NEW YORK, NY 10021",1439,2ND AVE,NEW YORK,NY,10021,Manhattan,,(212) 288-8555,524
969,BARAWINE LLC,BARAWINE,Unenclosed Sidewalk Cafe,1461789,"27 W 120 ST, NEW YORK, NY 10027",27,W 120 ST,NEW YORK,NY,10027,Manhattan,AKA: 200 LENOX AVE,(917) 703-5039,641
310,BARBUTO LLC,BARBUTO,Unenclosed Sidewalk Cafe,1219498,"775 WASHINGTON ST, NEW YORK, NY 10014",775,WASHINGTON ST,NEW YORK,NY,10014,Manhattan,,(212) 513-1988,410
887,"BARE CITY TWO, LLC",BAREBURGER,Unenclosed Sidewalk Cafe,1435666,"85 2ND AVE, NEW YORK, NY 10003",85,2ND AVE,NEW YORK,NY,10003,Manhattan,,(212) 510-8610,131
54,"BARFLY, INC",BARFLY,Unenclosed Sidewalk Cafe,0920112,"244 THIRD AVENUE, NEW YORK, NY 10010",244,THIRD AVENUE,NEW YORK,NY,10010,Manhattan,,(212) 473-9660,186
159,BAR GIACOSA CORP,BAR PITTI,Unenclosed Sidewalk Cafe,1097155,"268 SIXTH AVENUE, NEW YORK, NY 10014",268,SIXTH AVENUE,NEW YORK,NY,10014,Manhattan,,(212) 982-2498,480
39,BARJER CORP,FIREHOUSE RESTAURANT,Unenclosed Sidewalk Cafe,0895505,"522 COLUMBUS AVENUE, NY, NY 10024",522,COLUMBUS AVENUE,NY,NY,10024,Manhattan,,(212) 787-3473,255
929,"BARNORTH GROUP, LLC",GREY LADY,Unenclosed Sidewalk Cafe,1454246,"77 DELANCEY ST, NEW YORK, NY 10002",77,DELANCEY ST,NEW YORK,NY,10002,Manhattan,,(646) 580-5239,254
335,BAROSA INC.,,Enclosed Sidewalk Cafe,1222376,"62-29 WOODHAVEN BOULEVARD, REGO PARK, NY 11374",62-29,WOODHAVEN BOULEVARD,REGO PARK,NY,11374,Queens,,(718) 424-1455,375
742,"BASIL, LLC",BASIL,Unenclosed Sidewalk Cafe,1392177,"268 KINGSTON AVE, BROOKLYN, NY 11213",268,KINGSTON AVE,BROOKLYN,NY,11213,Brooklyn,,(718) 285-8777,234
486,BB AT 55TH & 5TH LLC,BENOIT,Unenclosed Sidewalk Cafe,1287126,"60 W 55TH ST, NEW YORK, NY 10019",60,W 55TH ST,NEW YORK,NY,10019,Manhattan,,(646) 943-7340,176
464,"BELSTAR ICE CREAM CO, LLC",COLD STONE CREAMERY,Unenclosed Sidewalk Cafe,1281798,"34-20 BROADWAY, QUEENS, NY 11106",34-20,BROADWAY,QUEENS,NY,11106,Queens,,(516) 301-0943,196
142,"BENNY'S BURRITOS, INC",BENNY'S BURRITOS,Unenclosed Sidewalk Cafe,1067914,"111-113 GREENWICH AVE, NEW YORK, NY 10014",111-113,GREENWICH AVE,NEW YORK,NY,10014,Manhattan,,(212) 213-3332,345
462,BEN TAS CORP,OTHELLO DELI,Unenclosed Sidewalk Cafe,1281431,"26-19 24 AVENUE, QUEENS, NY 11102",26-19,24 AVENUE,QUEENS,NY,11102,Queens,,(718) 956-1337,185
955,"BERRY LIW I PS, LLC",PINKBERRY,Unenclosed Sidewalk Cafe,1458827,"161 7 AVENUE, BROOKLYN, NY 11215",161,7 AVENUE,BROOKLYN,NY,11215,Brooklyn,,(718) 788-0615,162
386,BIDOCHONS CORP,PROVENCE EN BOITE,Unenclosed Sidewalk Cafe,1248607,"263 SMITH ST, BROOKLYN, NY 11231",263,SMITH ST,BROOKLYN,NY,11231,Brooklyn,,(718) 797-0707,304
698,BIER INTERNATIONAL LLC,BIER INTERNATIONAL,Unenclosed Sidewalk Cafe,1382021,"2099 FREDERICK DOUGLASS BLVD, NEW YORK, NY 10026",2099,FREDERICK DOUGLASS BLVD,NEW YORK,NY,10026,Manhattan,8 AVENUE,(646) 221-1008,301
639,BIG DADDY'S III LLC,,Unenclosed Sidewalk Cafe,1353319,"2454 BROADWAY, NEW YORK, NY 10024",2454,BROADWAY,NEW YORK,NY,10024,Manhattan,,(212) 377-2004,296
712,BIG DUMPLING CORP,PLUMP DUMPLING,Unenclosed Sidewalk Cafe,1384627,"174 2ND AVE, NEW YORK, NY 10003",174,2ND AVE,NEW YORK,NY,10003,Manhattan,,(212) 254-5371,255
919,BIROTE CORPORATION,EL MITOTE,Unenclosed Sidewalk Cafe,1451239,"208 COLUMBUS AVE, NEW YORK, NY 10023",208,COLUMBUS AVE,NEW YORK,NY,10023,Manhattan,,(917) 664-5970,198
753,"BLEECKER SPAGHETTO, LLC",TRATTORIA SPAGHETTO,Unenclosed Sidewalk Cafe,1399534,"232 BLEECKER STREET, NEW YORK, NY 10014",232,BLEECKER STREET,NEW YORK,NY,10014,Manhattan,,(201) 819-2619,227
76,"BLOCKHEAD'S BURRITOS, INC.",BLOCKHEADS,Unenclosed Sidewalk Cafe,0954963,"499 3 AVENUE, NEW YORK, NY 10016",499,3 AVENUE,NEW YORK,NY,10016,Manhattan,,(212) 356-0006,83
542,BLOSSOM RESTAURANT & CAFE INC.,CAFE BLOSSOM,Unenclosed Sidewalk Cafe,1318895,"466 COLUMBUS AVE, NEW YORK, NY 10024",466,COLUMBUS AVE,NEW YORK,NY,10024,Manhattan,,(212) 875-2609,180
693,BLT BURGER 2ND AVENUE NYC LLC,GO BURGER,Unenclosed Sidewalk Cafe,1381146,"1450 2ND AVE, NEW YORK, NY 10021",1450,2ND AVE,NEW YORK,NY,10021,Manhattan,,(212) 513-1988,188
813,BLUE OCEAN GROUP INC.,CAFE AMRITA,Unenclosed Sidewalk Cafe,1421719,"301 W 110TH ST, NEW YORK, NY 10026",301,W 110TH ST,NEW YORK,NY,10026,Manhattan,,(212) 222-0683,296
808,BLUE SMOKE 102 NORTH END AVE LLC,BLUE SMOKE,Unenclosed Sidewalk Cafe,1421278,"255 VESEY ST, NEW YORK, NY 10282",255,VESEY ST,NEW YORK,NY,10282,Manhattan,,(212) 889-2005,311
805,BOGMAN LLC.,BEARDED LADY,Unenclosed Sidewalk Cafe,1421052,"686A WASHINGTON AVE, BROOKLYN, NY 11238",686A,WASHINGTON AVE,BROOKLYN,NY,11238,Brooklyn,,(347) 404-4361,201
503,BONARUE BLEU INDUSTRIES INC,FLORENCIA 13,Unenclosed Sidewalk Cafe,1301635,"185 SULLIVAN STREET, NEW YORK, NY 10012",185,SULLIVAN STREET,NEW YORK,NY,10012,Manhattan,,(212) 677-6830,61
404,"BOWERY F & B, LLC",GEMMA,Unenclosed Sidewalk Cafe,1254785,"335 BOWERY, NEW YORK, NY 10003",335,BOWERY,NEW YORK,NY,10003,Manhattan,A.K.A. 4 EAST 3RD STREET,(212) 505-7300,376
664,"BOWERY RESTAURANT, LLC",DBGB,Unenclosed Sidewalk Cafe,1360658,"299 BOWERY, NEW YORK, NY 10003",299,BOWERY,NEW YORK,NY,10003,Manhattan,,(212) 794-232,432
975,BRADGATE CORP.,OLIVERS,Unenclosed Sidewalk Cafe,1462682,"37-19 BROADWAY, QUEENS, NY 11103",37-19,BROADWAY,QUEENS,NY,11103,Queens,,(631) 424-8480,374
747,BRANDED CATTLE SALOON INC,BRANDED SALOON,Unenclosed Sidewalk Cafe,1396181,"603 VANDERBILT AVE, BROOKLYN, NY 11238",603,VANDERBILT AVE,BROOKLYN,NY,11238,Brooklyn,FLOOR,(718) 484-8704,261
848,BRATS UND BIER INC,MAX,Unenclosed Sidewalk Cafe,1426466,"4702 30TH AVE, ASTORIA, NY 11103",4702,30TH AVE,ASTORIA,NY,11103,Queens,,(718) 777-1635,324
149,"BROADWAY & 166TH, LLC",DALLAS BBQ,Enclosed Sidewalk Cafe,1075763,"3956 BROADWAY, NEW YORK, NY 10032",3956,BROADWAY,NEW YORK,NY,10032,Manhattan,,(212) 568-3700,411
977,BROCCOLINO CORP.,BROCCOLINO,Unenclosed Sidewalk Cafe,1462753,"446A DEAN STREET, BROOKLYN, NY 11217",446A,DEAN STREET,BROOKLYN,NY,11217,Brooklyn,,(718) 678-4200,53
484,BROOKLYN BAR NYC INC,EAST VILLAGE TAVERN,Unenclosed Sidewalk Cafe,1287121,"158 AVE C, NEW YORK, NY 10009",158,AVE C,NEW YORK,NY,10009,Manhattan,,(347) 837-6120,262
568,"BROOKLYN FOOD & DRINK, LLC.",THE VANDERBILT,Unenclosed Sidewalk Cafe,1342248,"570 VANDERBILT AVE, BROOKLYN, NY 11238",570,VANDERBILT AVE,BROOKLYN,NY,11238,Brooklyn,,(718) 623-0570,479
960,B&R SORRENTO CORP,INTERMEZZO,Unenclosed Sidewalk Cafe,1459360,"202 8 AVENUE, NEW YORK, NY 10011",202,8 AVENUE,NEW YORK,NY,10011,Manhattan,,(914) 632-6036,60
96,BSWR CORP.,SARA BETH'S,Unenclosed Sidewalk Cafe,0981250,"423 AMSTERDAM AVE, NEW YORK, NY 10024",423,AMSTERDAM AVE,NEW YORK,NY,10024,Manhattan,,(212) 496-6280,139
104,BUCKWHEAT AND ALFALFA INC,THE ROCKING HORSE MEXICAN CAFE,Unenclosed Sidewalk Cafe,1000917,"182 8TH AVE, NEW YORK, NY 10011",182,8TH AVE,NEW YORK,NY,10011,Manhattan,,(212) 463-9511,109
224,"BUFFANNA, INC.",IL PICOOLO BUFALO,Unenclosed Sidewalk Cafe,1165364,"141 MULBERRY ST, NEW YORK, NY 10013",141,MULBERRY ST,NEW YORK,NY,10013,Manhattan,,(212) 219-9068,52
367,BURKE'S BEAL BOCHT CORP.,AN BEAL BOCHT,Unenclosed Sidewalk Cafe,1234454,"445 W 238TH ST, BRONX, NY 10463",445,W 238TH ST,BRONX,NY,10463,Bronx,,(718) 884-7127,170
436,BURKINABE ENTERTAINMENT LLC,SHRINE,Unenclosed Sidewalk Cafe,1277455,"2271-2273 7TH AVE, NEW YORK, NY 10030",2271-2273,7TH AVE,NEW YORK,NY,10030,Manhattan,AKA ADAM CLAYTON POWELL JR BLVD,(212) 690-7807,173
593,BURKINABE ENTERTAINMENT LLC,,Unenclosed Sidewalk Cafe,1345817,"2269 ADAM CLAYTON POWELL JR. BLVD, NEW YORK, NY 10030",2269,ADAM CLAYTON POWELL JR. BLVD,NEW YORK,NY,10030,Manhattan,,(212) 690-0699,300
44,BURRITO JUNCTION INC.,HARRY'S BURRITO JUNCTION,Unenclosed Sidewalk Cafe,0895637,"241 COLUMBUS AVENUE, NEW YORK, NY 10023",241,COLUMBUS AVENUE,NEW YORK,NY,10023,Manhattan,,(212) 580-9494,328
273,BY THE GLASS INC.,UVA,Unenclosed Sidewalk Cafe,1190933,"1486 2 AVENUE, NEW YORK, NY 10075",1486,2 AVENUE,NEW YORK,NY,10075,Manhattan,,(212) 472-4552,135
51,"CABANA-70 ASSOCIATES,L.P.",CABANA RESTAURANT AND BAR,Unenclosed Sidewalk Cafe,0918521,"107-10 70 RD, FOREST HILLS, NY 11375",107-10,70 RD,FOREST HILLS,NY,11375,Queens,,(561) 278-0366,106
339,"CAFE 71, INC.",,Enclosed Sidewalk Cafe,1223566,"2061 BROADWAY, NEW YORK, NY 10023",2061,BROADWAY,NEW YORK,NY,10023,Manhattan,,(212) 875-2100,288
608,"CAFE ARGENTINO, INC.",CAFE ARGENTINO,Unenclosed Sidewalk Cafe,1347394,"499 GRAND STREET, BROOKLYN, NY 11211",499,GRAND STREET,BROOKLYN,NY,11211,Brooklyn,,(718) 782-9477,303
526,CAFE CASANO LLC,CAFE CASANO,Unenclosed Sidewalk Cafe,1312041,"38 WEST ST, NEW YORK, NY 10006",38,WEST ST,NEW YORK,NY,10006,Manhattan,,(212) 267-7000,204
87,"CAFE FOCACCIA, INC.",FELICE WINE BAR,Unenclosed Sidewalk Cafe,0976266,"1166 1ST AVE, NEW YORK, NY 10065",1166,1ST AVE,NEW YORK,NY,10065,Manhattan,,(212) 683-0371,290
570,"CAFE MOCHA, INC.",,Unenclosed Sidewalk Cafe,1342712,"116 2ND AVE, NEW YORK, NY 10003",116,2ND AVE,NEW YORK,NY,10003,Manhattan,,(212) 253-2050,230
790,"CAFE PUSHKIN CENTRAL, LLC",BETONY,Unenclosed Sidewalk Cafe,1419761,"41 W 57T ST, NEW YORK, NY 10019",41,W 57T ST,NEW YORK,NY,10019,Manhattan,,(917) 969-5091,168
750,CAFE TALLULAH LLC,CAFE TALLULAH,Enclosed Sidewalk Cafe,1397232,"240 COLUMBUS AVENUE, NEW YORK, NY 10023",240,COLUMBUS AVENUE,NEW YORK,NY,10023,Manhattan,,(917) 693-2870,570
17,CAFFE DANTE INC,CAFE DANTE,Unenclosed Sidewalk Cafe,0768933,"81 MACDOUGAL ST, NEW YORK, NY 10012",81,MACDOUGAL ST,NEW YORK,NY,10012,Manhattan,,(212) 982-5275,148
3,CAFFE ISLE OF CAPRI INC,ISLE OF CAPRI,Enclosed Sidewalk Cafe,0578810,"1028 3 AVENUE, NEW YORK, NY 10065",1028,3 AVENUE,NEW YORK,NY,10065,Manhattan,,(212) 758-1828,407
80,CAFFE SILVESTRI INC.,CAFFE NAPOLI,Unenclosed Sidewalk Cafe,0956923,"191 HESTER ST, NEW YORK, NY 10013",191,HESTER ST,NEW YORK,NY,10013,Manhattan,A/K/A 130 MULBERRY ST,(212) 226-8705,380
380,"CAFFE VETRO, INC.",EPISTROPHY CAFE,Unenclosed Sidewalk Cafe,1245908,"200 MOTT ST, NEW YORK, NY 10012",200,MOTT ST,NEW YORK,NY,10012,Manhattan,,(212) 966-0904,97
771,CAJUN BROOKLYN LLC,BOURGEOIS PIG,Unenclosed Sidewalk Cafe,1418022,"387 COURT ST, BROOKLYN, NY 11231",387,COURT ST,BROOKLYN,NY,11231,Brooklyn,,(212) 777-2017,171
6,CALIENTE CAB REST. CO INC,CALIENTE CAB CO,Unenclosed Sidewalk Cafe,0670525,"61 7TH AVE SOUTH, NEW YORK, NY 10014",61,7TH AVE SOUTH,NEW YORK,NY,10014,Manhattan,,(212) 513-1988,752
458,CALOUNE CORP.,TOURNESOL RESTAURANT,Unenclosed Sidewalk Cafe,1280217,"5012 VERNON BLVD, QUEENS, NY 11101",5012,VERNON BLVD,QUEENS,NY,11101,Queens,,(718) 472-4355,112
803,"CAMELIAS, LLC",THE FRENCH COAST,Unenclosed Sidewalk Cafe,1421013,"473 AMSTERDAM AVE, NEW YORK, NY 10024",473,AMSTERDAM AVE,NEW YORK,NY,10024,Manhattan,,(212) 362-8555,182
415,CANTALOUPE LLC,LOVELY DAY,Unenclosed Sidewalk Cafe,1260966,"196 ELIZABETH ST, NEW YORK, NY 10012",196,ELIZABETH ST,NEW YORK,NY,10012,Manhattan,,(212) 925-3310,53
707,CANTEEN 82 INC,BLUE CARAVAN,Unenclosed Sidewalk Cafe,1384273,"467 COLUMBUS AVENUE, NEW YORK, NY 10024",467,COLUMBUS AVENUE,NEW YORK,NY,10024,Manhattan,,(212) 595-4300,221
679,CANZ SUFFOLK 1 INC.,,Unenclosed Sidewalk Cafe,1375729,"40-11 30 AVENUE, ASTORIA, NY 11103",40-11,30 AVENUE,ASTORIA,NY,11103,Queens,,(631) 707-1710,186
708,CAPODIMONTE LLC,APERITIVO,Unenclosed Sidewalk Cafe,1384347,"279 5TH AVE, BROOKLYN, NY 11215",279,5TH AVE,BROOKLYN,NY,11215,Brooklyn,,(917) 885-1223,240
151,C.A.P. RESTAURANT CORP.,SOMBRERO MEXICAN RESTAURANT,Unenclosed Sidewalk Cafe,1079412,"303 WEST   48 STREET, NY, NY 10036",303,WEST   48 STREET,NY,NY,10036,Manhattan,,(212) 586-4853,195
566,CARABEAN LLC,DOWNTOWN GALWAY HOOKER,Enclosed Sidewalk Cafe,1341044,"133 7TH AVE S, NEW YORK, NY 10014",133,7TH AVE S,NEW YORK,NY,10014,Manhattan,,(212) 675-6220,268
214,CARMINE RESTAURANT INC.,IL CORTILE RESTAURANT,Unenclosed Sidewalk Cafe,1161434,"125 MULBERRY STREET, NEW YORK, NY 10013",125,MULBERRY STREET,NEW YORK,NY,10013,Manhattan,,(212) 226-6060,170
257,"CASWELL/PEARSON ENTERPRISES, LTD.",,Unenclosed Sidewalk Cafe,1186385,"202 W 14TH ST, NEW YORK, NY 10011",202,W 14TH ST,NEW YORK,NY,10011,Manhattan,,(212) 255-2060,130
171,C & C FIRST AVE CORP.,BAR COASTAL,Enclosed Sidewalk Cafe,1110042,"1495 1ST AVE, NEW YORK, NY 10075",1495,1ST AVE,NEW YORK,NY,10075,Manhattan,,(212) 288-6635,280
274,"CDGP, LLC",FLO,Unenclosed Sidewalk Cafe,1190996,"37-20 30TH AVE, ASTORIA, NY 11103",37-20,30TH AVE,ASTORIA,NY,11103,Queens,,(718) 204-6096,703
575,CERELI INC,MOLE',Unenclosed Sidewalk Cafe,1343516,"57 JANE STREET, NEW YORK, NY 10014",57,JANE STREET,NEW YORK,NY,10014,Manhattan,,(212) 206-7559,138
287,CEVICHERIA GROVE INC,MERCADITO GROVE,Unenclosed Sidewalk Cafe,1202961,"100 7TH AVE S, NEW YORK, NY 10014",100,7TH AVE S,NEW YORK,NY,10014,Manhattan,,(212) 388-0162,407
677,"CHELSEA PARK, LLC",THE PARK,Unenclosed Sidewalk Cafe,1375358,"118 10TH AVE, NEW YORK, NY 10011",118,10TH AVE,NEW YORK,NY,10011,Manhattan,,(212) 352-3313,267
704,"CHERRY LANE, INC",THE RANDOLPH AT BROOME,Unenclosed Sidewalk Cafe,1383186,"349 BROOME STREET, NEW YORK, NY 10013",349,BROOME STREET,NEW YORK,NY,10013,Manhattan,,(212) 274-0667,149
253,CHEZ JOSEPHINE LTD.,,Unenclosed Sidewalk Cafe,1180070,"414 W 42ND ST, NEW YORK, NY 10036",414,W 42ND ST,NEW YORK,NY,10036,Manhattan,,(212) 594-1925,168
579,CHEZ OSKAR INC.,CHEZ OSKAR,Unenclosed Sidewalk Cafe,1343834,"211 DEKALB AVE, BROOKLYN, NY 11205",211,DEKALB AVE,BROOKLYN,NY,11205,Brooklyn,,(718) 852-6250,450
139,CHINA 1221 INC,CHINA FUN,Unenclosed Sidewalk Cafe,1063397,"1221 2ND AVE, NEW YORK, NY 10065",1221,2ND AVE,NEW YORK,NY,10065,Manhattan,,(212) 752-0810,320
513,CHOW DOWN INC,EL CENTRO,Unenclosed Sidewalk Cafe,1309603,"824 9TH AVE, NEW YORK, NY 10019",824,9TH AVE,NEW YORK,NY,10019,Manhattan,,(212) 765-4842,275
720,CHRISTOS RESTAURANT LLC,BOUKIES,Unenclosed Sidewalk Cafe,1386147,"29 E 2ND ST, NEW YORK, NY 10003",29,E 2ND ST,NEW YORK,NY,10003,Manhattan,,(212) 777-2502,256
688,CHURCH & LOUIS INC.,NINTH WARD,Unenclosed Sidewalk Cafe,1379381,"180 2ND AVE, NEW YORK, NY 10003",180,2ND AVE,NEW YORK,NY,10003,Manhattan,,(212) 513-1988,175
248,"CIA CAFE, INC.",ARTHUR AVENUE CAFE,Unenclosed Sidewalk Cafe,1173865,"2329 ARTHUR AVE, BRONX, NY 10458",2329,ARTHUR AVE,BRONX,NY,10458,Bronx,,(718) 295-5033,180
279,CIELI PARTNERS LP,TRATTORIA DELL'ARTE,Unenclosed Sidewalk Cafe,1192416,"900 7TH AVE, NEW YORK, NY 10019",900,7TH AVE,NEW YORK,NY,10019,Manhattan,,(212) 245-9800,268
391,CILANTRO WEST LLC,,Unenclosed Sidewalk Cafe,1249725,"485 COLUMBUS AVE, NEW YORK, NY 10024",485,COLUMBUS AVE,NEW YORK,NY,10024,Manhattan,,(212) 513-1988,190
154,CINQUE FRATELLI INC,ACQUISTA TRATTORIA,Unenclosed Sidewalk Cafe,1095291,"178-01 UNION TURNPIKE, FLUSHING, NY 11366",178-01,UNION TURNPIKE,FLUSHING,NY,11366,Queens,,(718) 969-1411,204
605,"CLAY FARM, LLC",THE BELL HOUSE,Unenclosed Sidewalk Cafe,1347119,"149 7TH ST, BROOKLYN, NY 11215",149,7TH ST,BROOKLYN,NY,11215,Brooklyn,,(718) 369-3310,180
871,CLEW Z ANGUS (USA) INC,NIU NOODLE,Enclosed Sidewalk Cafe,1432061,"15 GREENWICH AVE, NEW YORK, NY 10014",15,GREENWICH AVE,NEW YORK,NY,10014,Manhattan,,(212) 608-8100,136
821,"CLGM, INC",YEFSI ESTAIATORIO,Unenclosed Sidewalk Cafe,1422663,"1481 YORK AVE, NEW YORK, NY 10075",1481,YORK AVE,NEW YORK,NY,10075,Manhattan,,(917) 608-6770,171
289,"CLIRKAT DONUTS, INC",ANGELO'S QUALITY DONUT SHOP,Enclosed Sidewalk Cafe,1204822,"2944 WESTCHESTER AVE, BRONX, NY 10461",2944,WESTCHESTER AVE,BRONX,NY,10461,Bronx,,(718) 792-5534,241
114,"CLUB AMERICA, INC.",BISTRO CITRON,Unenclosed Sidewalk Cafe,1008999,"473 COLUMBUS AVE, NEW YORK, NY 10024",473,COLUMBUS AVE,NEW YORK,NY,10024,Manhattan,,(212) 400-9401,155
994,"CMH BBQ HOLDINGS, LLC",MIGHTY QUINN'S BARBEQUE,Unenclosed Sidewalk Cafe,1466561,"103 2ND AVE, NEW YORK, NY 10003",103,2ND AVE,NEW YORK,NY,10003,Manhattan,,(212) 677-3733,247
187,"COBRA CATERERS, INC",DUBLIN 6,Unenclosed Sidewalk Cafe,1135398,"575 HUDSON ST, NEW YORK, NY 10014",575,HUDSON ST,NEW YORK,NY,10014,Manhattan,,(646) 638-2900,185
446,C & O COFFEE SHOP INC.,LA BONBONNIERE RESTAURANT,Unenclosed Sidewalk Cafe,1277859,"28 8 AVENUE, NEW YORK, NY 10014",28,8 AVENUE,NEW YORK,NY,10014,Manhattan,,(212) 741-9266,163
629,COLOMBIA CHICKEN CORP.,LA FONDA ANTIOQUENA,Unenclosed Sidewalk Cafe,1350797,"32-25 STEINWAY ST, QUEENS, NY 11103",32-25,STEINWAY ST,QUEENS,NY,11103,Queens,,(718) 726-9857,96
795,COLUMBUS ALE HOUSE INC,,Unenclosed Sidewalk Cafe,1420062,"190 GRAHAM AVE, BROOKLYN, NY 11206",190,GRAHAM AVE,BROOKLYN,NY,11206,Brooklyn,AKA 151 MESEROLE ST,(319) 331-5276,706
835,COOLJAG CORP,THE DOG & DUCK,Unenclosed Sidewalk Cafe,1424004,"4520 SKILLMAN AVE, SUNNYSIDE, NY 11104",4520,SKILLMAN AVE,SUNNYSIDE,NY,11104,Queens,,(718) 406-9048,285
576,COPEL 2007 INC,BOCCA,Unenclosed Sidewalk Cafe,1343613,"39 E 19TH ST, NEW YORK, NY 10003",39,E 19TH ST,NEW YORK,NY,10003,Manhattan,,(212) 582-3000,61
628,"CORNED BEEF EXPRESS, LLC",ARTIE'S DELICATESSEN,Enclosed Sidewalk Cafe,1350796,"2290 BROADWAY, NEW YORK, NY 10024",2290,BROADWAY,NEW YORK,NY,10024,Manhattan,,(212) 579-5959,526
648,CORNER 47 RESTAURANT CORP,PIETRA SANTA,Unenclosed Sidewalk Cafe,1355112,"683 9 AVENUE, NEW YORK, NY 10036",683,9 AVENUE,NEW YORK,NY,10036,Manhattan,,(212) 265-9471,153
127,"COSI, INC.",COSI #50,Unenclosed Sidewalk Cafe,1027305,"841 BROADWAY, NEW YORK, NY 10003",841,BROADWAY,NEW YORK,NY,10003,Manhattan,,(212) 614-8544,626
125,COSITAS RICAS CORP.,COSITAS RICAS,Enclosed Sidewalk Cafe,1026947,"7919 ROOSEVELT AVE, JACKSON HEIGHTS, NY 11372",7919,ROOSEVELT AVE,JACKSON HEIGHTS,NY,11372,Queens,,(718) 478-8136,294
666,COVADONGA INC.,EMPANADA MAMA,Unenclosed Sidewalk Cafe,1360911,"763 9 AVENUE, NEW YORK, NY 10019",763,9 AVENUE,NEW YORK,NY,10019,Manhattan,,(212) 698-9008,75
990,COVE LOUNGE INC.,COVE LOUNGE,Unenclosed Sidewalk Cafe,1465351,"325 LENOX AVE, NEW YORK, NY 10027",325,LENOX AVE,NEW YORK,NY,10027,Manhattan,,(212) 663-8497,357
53,"COWGIRL, INC",COWGIRL AND BARK,Unenclosed Sidewalk Cafe,0919917,"519 HUDSON ST, NEW YORK, NY 10014",519,HUDSON ST,NEW YORK,NY,10014,Manhattan,,(212) 633-1133,206
845,CREDENCE LLC,BAREBURGER,Unenclosed Sidewalk Cafe,1425933,"170 7 AVENUE, BROOKLYN, NY 11215",170,7 AVENUE,BROOKLYN,NY,11215,Brooklyn,,(718) 768-2273,380
25,CROISSANT CONSORTIUM LIMITED,THE HUNGARIAN PASTRY SHOP,Unenclosed Sidewalk Cafe,0814506,"1030 AMSTERDAM AVE, NEW YORK, NY 10025",1030,AMSTERDAM AVE,NEW YORK,NY,10025,Manhattan,,(212) 866-4230,356
860,CROW AND CHICK LLC,LIGHTHOUSE,Unenclosed Sidewalk Cafe,1429644,"145 BORINQUEN PL, BROOKLYN, NY 11211",145,BORINQUEN PL,BROOKLYN,NY,11211,Brooklyn,,(646) 684-0808,419
84,C.S.L.L. REST. CORP,EJ'S LUNCHEONETTE,Enclosed Sidewalk Cafe,0970343,"1271 THIRD AVENUE, NEW YORK, NY 10021",1271,THIRD AVENUE,NEW YORK,NY,10021,Manhattan,,(212) 472-0600,380
260,"CULINARY CONCEPTS HOSPITALITY GROUP, LLC",SPICE MARKET,Unenclosed Sidewalk Cafe,1187891,"29-35 9TH AVE, NEW YORK, NY 10014",29-35,9TH AVE,NEW YORK,NY,10014,Manhattan,,(212) 675-3110,600
910,CURRY LEAF OF NY INC,CURRY LEAF,Unenclosed Sidewalk Cafe,1448091,"99 LEXINGTON AVE, NEW YORK, NY 10016",99,LEXINGTON AVE,NEW YORK,NY,10016,Manhattan,,(212) 725-5558,149
454,C & V 77 ENTERPRISES LLC,GREEN KITCHEN,Enclosed Sidewalk Cafe,1278587,"1475-77 1ST AVE, NEW YORK, NY 10075",1475-77,1ST AVE,NEW YORK,NY,10075,Manhattan,,(212) 988-4163,501
711,DA FOLLIA LLC,,Unenclosed Sidewalk Cafe,1384481,"226 3RD AVE, NEW YORK, NY 10003",226,3RD AVE,NEW YORK,NY,10003,Manhattan,,(212) 477-4100,220
868,DAILY BREAD INC,DEB'S CATERING,Unenclosed Sidewalk Cafe,1431295,"200 VARICK ST, NEW YORK, NY 10014",200,VARICK ST,NEW YORK,NY,10014,Manhattan,,(212) 675-4550,183
739,DALE RESTAURANT INC.,,Enclosed Sidewalk Cafe,1391747,"189 WEST  231 STREET, BRONX, NY 10463",189,WEST  231 STREET,BRONX,NY,10463,Bronx,,(718) 549-4445,178
259,DA SILVANO CORP.,DA SILVANO,Unenclosed Sidewalk Cafe,1187717,"260 6TH AVE, NEW YORK, NY 10014",260,6TH AVE,NEW YORK,NY,10014,Manhattan,AKA: AVENUE OF THE AMERICAS,(212) 982-2498,610
567,D & D THAI RESTAURANT CORP,LAND,Unenclosed Sidewalk Cafe,1341925,"450 AMSTERDAM AVENUE, NEW YORK, NY 10024",450,AMSTERDAM AVENUE,NEW YORK,NY,10024,Manhattan,,(212) 501-8121,85
417,DEAN'S REST. CORP.,DEAN'S,Unenclosed Sidewalk Cafe,1262376,"349 GREENWICH ST, NEW YORK, NY 10013",349,GREENWICH ST,NEW YORK,NY,10013,Manhattan,,(212) 688-5916,219
545,"DEFONTE'S OF NEW YORK, INC.",DEFONTE'S OF BROOKLYN,Unenclosed Sidewalk Cafe,1320327,"261 3RD AVE, NEW YORK, NY 10010",261,3RD AVE,NEW YORK,NY,10010,Manhattan,,(718) 317-6413,268
674,DELILLO PASTRY SHOP INC.,DELILLO PASTRY SHOP,Unenclosed Sidewalk Cafe,1371798,"610 E 187TH ST, BRONX, NY 10458",610,E 187TH ST,BRONX,NY,10458,Bronx,,(718) 367-8198,185
277,D.E.L. INC,ALEXANDRA,Unenclosed Sidewalk Cafe,1192285,"455 HUDSON ST, NEW YORK, NY 10014",455,HUDSON ST,NEW YORK,NY,10014,Manhattan,,(212) 255-3838,145
102,"DELUXE ON BROADWAY, INC.",DELUXE,Unenclosed Sidewalk Cafe,0999448,"2896 BROADWAY, NEW YORK, NY 10025",2896,BROADWAY,NEW YORK,NY,10025,Manhattan,,(212) 513-1988,306
93,DE PALINO RESTAURANT CORP.,CITY CRAB & SEAFOOD CO.,Unenclosed Sidewalk Cafe,0979463,"235 PARK AVE S, NEW YORK, NY 10003",235,PARK AVE S,NEW YORK,NY,10003,Manhattan,,(212) 529-3800,169
869,DESSYN BAKERY CORP,MILLEFEUILLE BAKERY CAFE,Unenclosed Sidewalk Cafe,1431733,"552 LAGUARDIA PL, NEW YORK, NY 10012",552,LAGUARDIA PL,NEW YORK,NY,10012,Manhattan,,(212) 533-4698,83
583,"DINOSAUR RESTAURANTS,LLC",DINOSAUR BAR-B-QUE,Unenclosed Sidewalk Cafe,1345179,"2276 12 AVENUE, NEW YORK, NY 10027",2276,12 AVENUE,NEW YORK,NY,10027,Manhattan,,(212) 694-1777,349
936,"DINOSAUR RESTAURANTS, LLC",DINOSAUR BAR-B-QUE,Unenclosed Sidewalk Cafe,1455729,"604 UNION ST, BROOKLYN, NY 11215",604,UNION ST,BROOKLYN,NY,11215,Brooklyn,,(212) 486-6000,517
381,DLS CHICKEN CORP,,Unenclosed Sidewalk Cafe,1246104,"355 AMSTERDAM AVE, NEW YORK, NY 10024",355,AMSTERDAM AVE,NEW YORK,NY,10024,Manhattan,,(212) 787-6631,305
1,DMF GRAMERCY ENTERPRISES INC,PETE'S TAVERN       S/C #111,Unenclosed Sidewalk Cafe,0293907,"129 EAST   18 STREET, NEW YORK, NY 10003",129,EAST   18 STREET,NEW YORK,NY,10003,Manhattan,,(212) 473-7676,611
877,DONATO'S ITALIAN BISTRO INC,DONATO'S ITALIAN BISTRO,Unenclosed Sidewalk Cafe,1433268,"3402 BROADWAY, ASTORIA, NY 11106",3402,BROADWAY,ASTORIA,NY,11106,Queens,,(718) 507-4591,154
284,DONATO'S PIZZERIA RESTAURANT CORP,DONATO'S PIZZERIA,Unenclosed Sidewalk Cafe,1199111,"50-22 39 AVE, QUEENS, NY 11377",50-22,39 AVE,QUEENS,NY,11377,Queens,,(718) 507-9049,263
582,"DON PABLO, INC.",,Unenclosed Sidewalk Cafe,1344183,"1725 2ND AVE, NEW YORK, NY 10128",1725,2ND AVE,NEW YORK,NY,10128,Manhattan,,(212) 289-8944,207
900,DUCKS EATERY EV LLC,DUCKS EATERY,Unenclosed Sidewalk Cafe,1440801,"351 E 12TH ST, NEW YORK, NY 10003",351,E 12TH ST,NEW YORK,NY,10003,Manhattan,,(212) 375-8483,134
405,DULJO CORP.,BROTHERS PIZZA,Unenclosed Sidewalk Cafe,1255149,"30-50 14 STREET, QUEENS, NY 11102",30-50,14 STREET,QUEENS,NY,11102,Queens,,(718) 777-1111,126
468,"DUMONT BURGER, LLC",DUMONT BURGER,Unenclosed Sidewalk Cafe,1282391,"314 BEDFORD AVE, BROOKLYN, NY 11249",314,BEDFORD AVE,BROOKLYN,NY,11249,Brooklyn,,(718) 384-6128,288
196,"DUNMORE NEW YORK, INC.",JAKE'S SALOON,Unenclosed Sidewalk Cafe,1139506,"875 TENTH AVENUE, NEW YORK, NY 10019",875,TENTH AVENUE,NEW YORK,NY,10019,Manhattan,,(212) 333-3100,219
23,DYNAMIC MUSIC CORP,OLIVE TREE CAFE,Unenclosed Sidewalk Cafe,0807555,"117 MACDOUGAL ST, NEW YORK, NY 10012",117,MACDOUGAL ST,NEW YORK,NY,10012,Manhattan,,(212) 254-7533,46
150,"EAE, CORP",SIDEWALK BAR & RESTAURANT,Unenclosed Sidewalk Cafe,1076706,"94 AVE A, NEW YORK, NY 10009",94,AVE A,NEW YORK,NY,10009,Manhattan,,(212) 473-7373,482
652,"EAST COUNTY LOUTH, INC",THE PENNY FARTHING,Unenclosed Sidewalk Cafe,1356675,"103 3RD AVE, NEW YORK, NY 10003",103,3RD AVE,NEW YORK,NY,10003,Manhattan,,(212) 358-1902,291
276,EAST PUB INC,PHEBE'S,Enclosed Sidewalk Cafe,1192051,"359-361 BOWERY, NEW YORK, NY 10003",359-361,BOWERY,NEW YORK,NY,10003,Manhattan,,(212) 358-1902,808
797,EAST SIDE BURGERS LLC,BARE BURGER,Unenclosed Sidewalk Cafe,1420350,"1370 1ST AVE, NEW YORK, NY 10021",1370,1ST AVE,NEW YORK,NY,10021,Manhattan,,(347) 419-2285,326
478,EAST SIDE DD 113 LLC,DUNKIN DONUTS / BASKIN ROBBINS,Enclosed Sidewalk Cafe,1283854,"567 3RD AVE, NEW YORK, NY 10016",567,3RD AVE,NEW YORK,NY,10016,Manhattan,FL 5,(212) 532-5003,113
874,EATER EATS CROW LLC,SEL ET GRAS,Unenclosed Sidewalk Cafe,1432786,"131 7TH AVE S, NEW YORK, NY 10014",131,7TH AVE S,NEW YORK,NY,10014,Manhattan,,(718) 689-4722,248
242,E. A. T. IS OWNED BY ELI ZABAR INC.,EAT,Unenclosed Sidewalk Cafe,1172157,"1064 MADISON AVE, NEW YORK, NY 10028",1064,MADISON AVE,NEW YORK,NY,10028,Manhattan,,(212) 772-2011,127
983,EFTIHIA REST INC.,TOM'S RESTAURANT,Unenclosed Sidewalk Cafe,1463606,"2880 BROADWAY, NEW YORK, NY 10025",2880,BROADWAY,NEW YORK,NY,10025,Manhattan,,(212) 864-6137,453
120,EGG WHITE INC,BLOCKHEADS,Unenclosed Sidewalk Cafe,1023023,"1563 2ND AVE, NEW YORK, NY 10028",1563,2ND AVE,NEW YORK,NY,10028,Manhattan,,(212) 356-0006,175
729,EIGHTY THIRD AND FIRST LLC,,Unenclosed Sidewalk Cafe,1388781,"1593 1ST AVE, NEW YORK, NY 10028",1593,1ST AVE,NEW YORK,NY,10028,Manhattan,,(212) 207-6680,429
288,EKD TAVERN INC,,Unenclosed Sidewalk Cafe,1204137,"450 AMSTERDAM AVE, NEW YORK, NY 10024",450,AMSTERDAM AVE,NEW YORK,NY,10024,Manhattan,,(212) 595-5670,99
921,EL CONDE NUEVO BAR & RESTAURANT CORP,EL CONDE RESTAURANT,Enclosed Sidewalk Cafe,1451389,"4139 BROADWAY, NEW YORK, NY 10033",4139,BROADWAY,NEW YORK,NY,10033,Bronx,,(212) 781-3231,280
619,ELEVATED ENTERTAINMENT RESTAURANTS LLC,CORNERSTONE TAVERN/THE STAG'S HEAD,Unenclosed Sidewalk Cafe,1349184,"961 2ND AVE, NEW YORK, NY 10022",961,2ND AVE,NEW YORK,NY,10022,Manhattan,,(212) 888-7403,219
727,"ELI-LILLA, INC.",CAFFE ROMA,Unenclosed Sidewalk Cafe,1388457,"385 BROOME ST, NEW YORK, NY 10013",385,BROOME ST,NEW YORK,NY,10013,Manhattan,,(212) 226-8413,175
208,ELI'S MANHATTAN WAREHOUSE INC.,ELI'S MANHATTAN,Unenclosed Sidewalk Cafe,1159625,"1411 3RD AVE, NEW YORK, NY 10028",1411,3RD AVE,NEW YORK,NY,10028,Manhattan,,(212) 717-8100,87
514,ELORA SPANISH MEXICAN RESTAURANT INC.,ELORA'S RESTAURANT,Unenclosed Sidewalk Cafe,1309926,"272 PROSPECT PARK W, BROOKLYN, NY 11215",272,PROSPECT PARK W,BROOKLYN,NY,11215,Brooklyn,,(646) 256-8987,202
422,EL SAYED 1 CORP.,HORUS KABAB HOUSE,Enclosed Sidewalk Cafe,1272901,"93 AVENUE B, NEW YORK, NY 10009",93,AVENUE B,NEW YORK,NY,10009,Manhattan,AKA 601 EAST 6 STREET,(212) 777-9199,290
360,ELSAYED III CORP.,HORUS CORP,Unenclosed Sidewalk Cafe,1230537,"293 E 10TH ST, NEW YORK, NY 10009",293,E 10TH ST,NEW YORK,NY,10009,Manhattan,,(212) 228-4774,401
230,EMPORIUM BRASIL INC.,EMPORIUM BRASIL CAFE & RESTAURANT,Unenclosed Sidewalk Cafe,1167146,"15 WEST   46 STREET, NEW YORK, NY 10036",15,WEST   46 STREET,NEW YORK,NY,10036,Manhattan,,(212) 764-4545,173
362,ENID'S CORPORATION,ENID'S,Unenclosed Sidewalk Cafe,1233115,"560 MANHATTAN AVENUE, BROOKLYN, NY 11222",560,MANHATTAN AVENUE,BROOKLYN,NY,11222,Brooklyn,,(718) 349-3859,284
815,"ENOLOGO, INC",ENOLOGO,Unenclosed Sidewalk Cafe,1421925,"857 9TH AVE, NEW YORK, NY 10019",857,9TH AVE,NEW YORK,NY,10019,Manhattan,,(212) 956-,44
240,"ENTERPRISE RESTAURANT, LLC.",AMARANTH,Unenclosed Sidewalk Cafe,1170995,"21 E  62ND ST, NEW YORK, NY 10065",21,E  62ND ST,NEW YORK,NY,10065,Manhattan,,(212) 980-6700,102
873,EPHESUS NYC CORP.,BELLINI RESTAURANT,Unenclosed Sidewalk Cafe,1432318,"483 COLUMBUS AVE, NEW YORK, NY 10024",483,COLUMBUS AVE,NEW YORK,NY,10024,Manhattan,,(212) 724-4615,81
318,EP PROPERTIES LTD.,PER LEI RESTAURANT,Unenclosed Sidewalk Cafe,1220381,"1347 2 AVENUE, NEW YORK, NY 10021",1347,2 AVENUE,NEW YORK,NY,10021,Manhattan,,(212) 439-9200,448
282,EROS RESTAURANT CORP,LA MEDITERRANEE,Unenclosed Sidewalk Cafe,1194128,"947 2ND AVE, NEW YORK, NY 10022",947,2ND AVE,NEW YORK,NY,10022,Manhattan,,(212) 755-4155,86
356,ERS ENTERPRISES INC.,,Enclosed Sidewalk Cafe,1229629,"44 WEST   63 STREET, NEW YORK, NY 10023",44,WEST   63 STREET,NEW YORK,NY,10023,Manhattan,,(212) 957-9700,880
905,ETHOS GALLERY 51 LLC,ETHOS,Enclosed Sidewalk Cafe,1444217,"905 1 AVENUE, NEW YORK, NY 10022",905,1 AVENUE,NEW YORK,NY,10022,Manhattan,,(212) 888-4060,292
746,FABLES INC,SCOPELLO,Unenclosed Sidewalk Cafe,1396047,"63 LAFAYETTE AVE, BROOKLYN, NY 11217",63,LAFAYETTE AVE,BROOKLYN,NY,11217,Brooklyn,,(718) 852-1100,143
299,FAITH E.F.I. CORP.,EFFY'S CAFE,Unenclosed Sidewalk Cafe,1217336,"1638 THIRD AVENUE, NEW YORK, NY 10128",1638,THIRD AVENUE,NEW YORK,NY,10128,Manhattan,BETWEEN 91 & 92 STREET,(212) 427-8900,132
801,F-C LLC,CALYER,Unenclosed Sidewalk Cafe,1420945,"90-92 CALYER ST, BROOKLYN, NY 11222",90-92,CALYER ST,BROOKLYN,NY,11222,Brooklyn,,(718) 938-2661,192
32,FEENJON CORP,,Unenclosed Sidewalk Cafe,0855696,"103-105 MACDOUGAL STREET, NEW YORK, NY 10012",103-105,MACDOUGAL STREET,NEW YORK,NY,10012,Manhattan,,(212) 674-6968,175
885,"FELUCCIO, LLC",,Unenclosed Sidewalk Cafe,1434961,"364 PROSPECT AVENUE, BROOKLYN, NY 11215",364,PROSPECT AVENUE,BROOKLYN,NY,11215,Brooklyn,,(718) 232-2667,223
184,FIDDLESTICKS LLC,FIDDLESTICKS,Unenclosed Sidewalk Cafe,1133898,"54-56 GREENWICH AVE, NEW YORK, NY 10011",54-56,GREENWICH AVE,NEW YORK,NY,10011,Manhattan,,(212) 463-0516,323
573,FIG & OLIVE THIRTEEN STREET LLC,FIG & OLIVE,Unenclosed Sidewalk Cafe,1343247,"420 W 13TH ST, NEW YORK, NY 10014",420,W 13TH ST,NEW YORK,NY,10014,Manhattan,,(917) 512-6998,600
226,"FILLIP'S CATERING, INC.",CAFE CHAMPIGNON,Unenclosed Sidewalk Cafe,1165611,"200 7TH AVE, NEW YORK, NY 10011",200,7TH AVE,NEW YORK,NY,10011,Manhattan,,(212) 366-4410,154
192,"FIORELLO'S ROMAN CAFE, INC.",FIORELLO'S ROMAN CAFE,Unenclosed Sidewalk Cafe,1137714,"1 LINCOLN PLAZA, NEW YORK, NY 10023",1,LINCOLN PLAZA,NEW YORK,NY,10023,Manhattan,,(212) 595-5330,575
18,FIRST 69TH ST REALTY CORP,WESTSIDE RESTAURANT E/S/C #417,Enclosed Sidewalk Cafe,0769760,"2020 BROADWAY, NEW YORK, NY 10023",2020,BROADWAY,NEW YORK,NY,10023,Manhattan,,(212) 724-4000,422
143,"FIRST AVENUE BROTHER JIMMY'S, LLC",BROTHER JIMMY'S BBQ,Enclosed Sidewalk Cafe,1067948,"1485 2ND AVE, NEW YORK, NY 10075",1485,2ND AVE,NEW YORK,NY,10075,Manhattan,,(212) 288-0999,346
738,FIRST DACIA CORPORATION,ROMANIAN GARDEN,Unenclosed Sidewalk Cafe,1391233,"4306 43RD AVE, SUNNYSIDE, NY 11104",4306,43RD AVE,SUNNYSIDE,NY,11104,Queens,43-02-28 43RD AVE GRND FLOOR,(718) 786-7894,213
806,FIVE LAMPS CORP,FIVE LAMPS TAVERN,Unenclosed Sidewalk Cafe,1421212,"2756 BROADWAY, NEW YORK, NY 10025",2756,BROADWAY,NEW YORK,NY,10025,Manhattan,,(646) 465-1111,341
749,"FLAGSHIP S B AMSTERDAM NY, LLC",SARAVANA BHAVAN,Unenclosed Sidewalk Cafe,1396587,"413 AMSTERDAM AVE, NEW YORK, NY 10024",413,AMSTERDAM AVE,NEW YORK,NY,10024,Manhattan,,(212) 721-7755,198
913,FLB VIKTORIA CORP,FRATELLI LA BUFALA,Enclosed Sidewalk Cafe,1449525,"2161 BROADWAY, NEW YORK, NY 10024",2161,BROADWAY,NEW YORK,NY,10024,Manhattan,,(212) 496-5303,308
256,FLEJ INC.,POMODORO ROSSO,Unenclosed Sidewalk Cafe,1186113,"229 COLUMBUS AVE, NEW YORK, NY 10023",229,COLUMBUS AVE,NEW YORK,NY,10023,Manhattan,,(212) 721-3009,162
16,FOODS FOR JUNIORS INC,JUNIORS RESTAURANT,Enclosed Sidewalk Cafe,0767745,"386 FLATBUSH AVE EXTENSION, BROOKLYN, NY 11201",386,FLATBUSH AVE EXTENSION,BROOKLYN,NY,11201,Brooklyn,,(718) 852-5257,123
853,FORCELLA EATERY INC,,Unenclosed Sidewalk Cafe,1427807,"334 BOWERY, NEW YORK, NY 10012",334,BOWERY,NEW YORK,NY,10012,Manhattan,,(212) 466-3300,144
14,FORTUNATO BROS.CAFE & BAKERY CORP,,Enclosed Sidewalk Cafe,0761576,"289 MANHATTAN AVENUE, BROOKLYN, NY 11211",289,MANHATTAN AVENUE,BROOKLYN,NY,11211,Brooklyn,E/S/C #357,(718) 387-2281,422
178,FOUR GREEN FIELDS LLC,AGAVE,Enclosed Sidewalk Cafe,1131159,"140 7 AVENUE SOUTH, NEW YORK, NY 10014",140,7 AVENUE SOUTH,NEW YORK,NY,10014,Manhattan,,(212) 989-2100,240
320,FOUR GREEN FIELDS LLC.,AGAVE,Unenclosed Sidewalk Cafe,1220688,"140 7TH AVE S, NEW YORK, NY 10014",140,7TH AVE S,NEW YORK,NY,10014,Manhattan,,(212) 989-2100,430
632,FRANCESCA MERCHANTS LLC,PRIME MEAT,Unenclosed Sidewalk Cafe,1352460,"465 COURT ST, BROOKLYN, NY 11231",465,COURT ST,BROOKLYN,NY,11231,Brooklyn,,(718) 403-0033,301
722,"FRANCIS LOUIS, LLC",FRANKIE'S 570 SPUNTINO,Unenclosed Sidewalk Cafe,1387557,"570 HUDSON ST, NEW YORK, NY 10014",570,HUDSON ST,NEW YORK,NY,10014,Manhattan,,(718) 403-0033,324
702,FRANCO-AMERICAN RESTAURANT INVESTMENT GROUP INC,THE TEA SET,Unenclosed Sidewalk Cafe,1383038,"235 WEST   12 STREET, NEW YORK, NY 10014",235,WEST   12 STREET,NEW YORK,NY,10014,Manhattan,,(646) 894-0511,41
45,FRENCH ROAST INC,,Unenclosed Sidewalk Cafe,0907203,"78 WEST   11 STREET, MANHATTAN, NY 10011",78,WEST   11 STREET,MANHATTAN,NY,10011,Manhattan,A/K/A 456 6 AVENUE,(212) 505-7570,157
504,"FRESCO BAGEL, LLC",,Enclosed Sidewalk Cafe,1301779,"1239 1 AVENUE, NEW YORK, NY 10065",1239,1 AVENUE,NEW YORK,NY,10065,Manhattan,,(212) 513-1988,345
725,"FRIEDFIELD BRESLIN, LLC",THE JOHN DORY OYSTER BAR,Unenclosed Sidewalk Cafe,1388245,"1186 BROADWAY, NEW YORK, NY 10001",1186,BROADWAY,NEW YORK,NY,10001,Manhattan,AKA: 16 WEST 29TH ST,(646) 246-,432
572,FRIENDLY FOODS LLC,PULINO'S BAR & PIZZERIA,Unenclosed Sidewalk Cafe,1343045,"282 BOWERY, NEW YORK, NY 10012",282,BOWERY,NEW YORK,NY,10012,Manhattan,,(212) 925-5340,306
686,FULTONGRAND BAR INC,FULTON GRAND,Unenclosed Sidewalk Cafe,1379033,"1011 FULTON STREET, BROOKLYN, NY 11238",1011,FULTON STREET,BROOKLYN,NY,11238,Brooklyn,,(718) 399-8840,365
681,FUSHA 58 INC.,,Unenclosed Sidewalk Cafe,1376636,"1065 1ST AVE, NEW YORK, NY 10022",1065,1ST AVE,NEW YORK,NY,10022,Manhattan,A.K.A 357 E. 58TH ST,(212) 752-8883,107
254,GADBERRY PIZZA INC.,BLEECKER STREET PIZZA,Unenclosed Sidewalk Cafe,1183527,"69-71 7 AVENUE SOUTH, NEW YORK, NY 10014",69-71,7 AVENUE SOUTH,NEW YORK,NY,10014,Manhattan,,(631) 754-6857,70
562,GARI INTERNATIONAL INC.,GARI,Unenclosed Sidewalk Cafe,1337067,"370 COLUMBUS AVE, NEW YORK, NY 10024",370,COLUMBUS AVE,NEW YORK,NY,10024,Manhattan,,(212) 362-4816,191
508,GAT 35 CORP.,DA ANDREA,Unenclosed Sidewalk Cafe,1307585,"35 WEST   13 STREET, NEW YORK, NY 10011",35,WEST   13 STREET,NEW YORK,NY,10011,Manhattan,,(212) 367-1979,168
346,"G.D.P. ENTERPRISES, INC.",AGOZAR,Unenclosed Sidewalk Cafe,1225841,"324 BOWERY, NEW YORK, NY 10012",324,BOWERY,NEW YORK,NY,10012,Manhattan,,(212) 677-6773,111
428,GENINO INC,VICO,Unenclosed Sidewalk Cafe,1276520,"1302 MADISON AVE, NEW YORK, NY 10128",1302,MADISON AVE,NEW YORK,NY,10128,Manhattan,,(212) 867-2222,102
962,GEOGURT LLC,VANILLA SKY,Unenclosed Sidewalk Cafe,1459753,"70-35 AUSTIN ST, QUEENS, NY 11375",70-35,AUSTIN ST,QUEENS,NY,11375,Queens,,(212) 626-6767,245
409,"GEORGE'S SCC, INC",GEORGES RESTAURANT,Enclosed Sidewalk Cafe,1257387,"3000 BUHRE AVENUE, BRONX, NY 10461",3000,BUHRE AVENUE,BRONX,NY,10461,Bronx,,(718) 863-5256,511
278,GIANNINO'S PIZZA CORP.,SAL'S PIZZERIA,Unenclosed Sidewalk Cafe,1192327,"305 COURT ST, BROOKLYN, NY 11231",305,COURT ST,BROOKLYN,NY,11231,Brooklyn,,(718) 852-6890,416
251,"GIGINO, INC.",GIGINO TRATTORIA,Unenclosed Sidewalk Cafe,1177240,"323 GREENWICH ST, NEW YORK, NY 10013",323,GREENWICH ST,NEW YORK,NY,10013,Manhattan,,(212) 431-1112,115
754,G & J CAFE INC.,CAFE CON LECHE,Unenclosed Sidewalk Cafe,1400049,"424 AMSTERDAM AVENUE, NEW YORK, NY 10024",424,AMSTERDAM AVENUE,NEW YORK,NY,10024,Manhattan,,(212) 595-7000,146
88,G.K. RESTAURANT & BAGELS CORP.,BAGEL BOB'S ON YORK,Enclosed Sidewalk Cafe,0976336,"1638 YORK AVE, NEW YORK, NY 10028",1638,YORK AVE,NEW YORK,NY,10028,Manhattan,,(212) 535-3838,185
701,GMT NEW YORK LLC,GMT TAVERN,Unenclosed Sidewalk Cafe,1382861,"142 BLEECKER ST, NEW YORK, NY 10012",142,BLEECKER ST,NEW YORK,NY,10012,Manhattan,,(646) 863-3825,500
596,GNSY LLC,PATISSERIE DES AMBASSASES,Unenclosed Sidewalk Cafe,1346231,"2200-02 FREDERICK DOUGLASS BLVD, NEW YORK, NY 10026",2200-02,FREDERICK DOUGLASS BLVD,NEW YORK,NY,10026,Manhattan,,(212) 666-0078,203
730,GOTHAM YARD CORP,,Unenclosed Sidewalk Cafe,1389433,"1359 1ST AVE, NEW YORK, NY 10021",1359,1ST AVE,NEW YORK,NY,10021,Manhattan,,(212) 517-4445,272
748,GRAHAM CENTRAL CAFE LTD,LA PIAZZETTA,Unenclosed Sidewalk Cafe,1396407,"442 GRAHAM AVE, BROOKLYN, NY 11211",442,GRAHAM AVE,BROOKLYN,NY,11211,Brooklyn,,(718) 349-1627,117
444,GRAMERCY THAI. INC,LANTERN,Unenclosed Sidewalk Cafe,1277779,"311 2 AVENUE, NEW YORK, NY 10003",311,2 AVENUE,NEW YORK,NY,10003,Manhattan,,(212) 529-9819,285
198,"GRAND ENDEAVORS, INC",CLEM'S,Unenclosed Sidewalk Cafe,1145629,"264 GRAND ST, BROOKLYN, NY 11211",264,GRAND ST,BROOKLYN,NY,11211,Brooklyn,,(718) 387-9617,264
501,GREEK KITCHEN INC.,THE GREEK KITCHEN,Enclosed Sidewalk Cafe,1299629,"885-889 10TH AVE, NEW YORK, NY 10019",885-889,10TH AVE,NEW YORK,NY,10019,Manhattan,,(212) 581-4300,447
543,GREENWICH HOTEL RESTURANT LLC,LOCANDA VERDE,Unenclosed Sidewalk Cafe,1319263,"377 GREENWICH ST, NEW YORK, NY 10013",377,GREENWICH ST,NEW YORK,NY,10013,Manhattan,,(212) 533-7000,570
132,GREENWICH VILLAGE BISTRO LTD,GREENWICH VILLAGE BISTRO,Unenclosed Sidewalk Cafe,1030835,"13 CARMINE ST, NEW YORK, NY 10014",13,CARMINE ST,NEW YORK,NY,10014,Manhattan,,(212) 206-9777,130
322,GRILL 21 LLC,GRILL 21,Unenclosed Sidewalk Cafe,1221004,"346 E 21ST ST, NEW YORK, NY 10010",346,E 21ST ST,NEW YORK,NY,10010,Manhattan,,(212) 473-5950,108
717,GRILLADE LLC,,Unenclosed Sidewalk Cafe,1385577,"28 7TH AVE SOUTH, NEW YORK, NY 10014",28,7TH AVE SOUTH,NEW YORK,NY,10014,Manhattan,,(212) 969-3822,197
122,"GRILLO, LTD",HENRY'S,Unenclosed Sidewalk Cafe,1025180,"2745 BROADWAY, NEW YORK, NY 10025",2745,BROADWAY,NEW YORK,NY,10025,Manhattan,,(212) 866-0600,680
505,"GROOVE ENTERPRISES,INC.",GROOVE,Unenclosed Sidewalk Cafe,1305277,"125 MACDOUGAL ST, NEW YORK, NY 10012",125,MACDOUGAL ST,NEW YORK,NY,10012,Manhattan,,(212) 254-9393,77
200,GROTTA AZZURRA INN INC.,,Unenclosed Sidewalk Cafe,1150943,"177 MULBERRY ST, NEW YORK, NY 10013",177,MULBERRY ST,NEW YORK,NY,10013,Manhattan,,(212) 925-8775,326
906,GUEROS RESTAURANT INC.,,Unenclosed Sidewalk Cafe,1444657,"605 PROSPECT PLACE, BROOKLYN, NY 11238",605,PROSPECT PLACE,BROOKLYN,NY,11238,Brooklyn,,(718) 488-7253,184
549,GULLUOGLU LLC,,Unenclosed Sidewalk Cafe,1323044,"982 2ND AVE, NEW YORK, NY 10022",982,2ND AVE,NEW YORK,NY,10022,Manhattan,,(212) 813-0500,163
700,"GUSTO GRILLED ORGANICS, INC",GUSTO ORGANICS,Unenclosed Sidewalk Cafe,1382533,"519-523 6 AVENUE, NEW YORK, NY 10011",519-523,6 AVENUE,NEW YORK,NY,10011,Manhattan,,(212) 202-0861,240
459,G.V.S BAKERY INC,MARTHA'S COUNTRY BAKERY,Unenclosed Sidewalk Cafe,1280485,"3621 DITMARS BLVD, ASTORIA, NY 11105",3621,DITMARS BLVD,ASTORIA,NY,11105,Queens,,(718) 726-6969,453
927,G.V.S. BAKERY INC.,MARTHA'S BAKERY,Enclosed Sidewalk Cafe,1454223,"3621 DITMARS BOULEVARD, ASTORIA, NY 11105",3621,DITMARS BOULEVARD,ASTORIA,NY,11105,Queens,,(718) 726-6969,285
117,GYRO KING FOODS CORP.,,Unenclosed Sidewalk Cafe,1015214,"50 E FORDHAM RD, BRONX, NY 10468",50,E FORDHAM RD,BRONX,NY,10468,Bronx,A/K/A 2450 WALTON AVE,(718) 489-8050,127
308,HAILEY GRACE CORP,GENISIS BAR & RESTAURANT,Unenclosed Sidewalk Cafe,1219287,"1708 2ND AVE, NEW YORK, NY 10128",1708,2ND AVE,NEW YORK,NY,10128,Manhattan,,(212) 348-5500,227
394,"HAIRY MONK,CORP.",JOHNNY FOXES,Unenclosed Sidewalk Cafe,1251443,"1546 2 AVENUE, NEW YORK, NY 10028",1546,2 AVENUE,NEW YORK,NY,10028,Manhattan,,(917) 676-7817,180
455,"HALF PINT ON THOMPSON, LLC",THE HALF PINT,Unenclosed Sidewalk Cafe,1279573,"234 THOMPSON STREET, NEW YORK, NY 10012",234,THOMPSON STREET,NEW YORK,NY,10012,Manhattan,,(212) 260-1088,148
961,HARLEM HOSPITALITIES LLC.,JADO SUSHI,Unenclosed Sidewalk Cafe,1459433,"2110 FREDERICK DOUGLASS BOULEVARD, NEW YORK, NY 10026",2110,FREDERICK DOUGLASS BOULEVARD,NEW YORK,NY,10026,Manhattan,,(212) 866-2118,273
156,HARRISON GREENWICH LLC,THE HARRISON,Unenclosed Sidewalk Cafe,1096353,"355 GREENWICH ST, NEW YORK, NY 10013",355,GREENWICH ST,NEW YORK,NY,10013,Manhattan,,(917) 415-7030,467
126,HARU AMSTERDAM AVENUE CORP.,HARU,Unenclosed Sidewalk Cafe,1027125,"433 AMSTERDAM AVE, NEW YORK, NY 10024",433,AMSTERDAM AVE,NEW YORK,NY,10024,Manhattan,,(212) 579-5655,291
169,"HARU TOO, INC.",HARU SAKE BAR,Unenclosed Sidewalk Cafe,1106426,"1327 3RD AVE, NEW YORK, NY 10021",1327,3RD AVE,NEW YORK,NY,10021,Manhattan,,() -,360
345,HAVANA CENTRAL NY 3 LLC,HAVANA CENTRAL AT THE WEST END,Unenclosed Sidewalk Cafe,1225525,"2911 BROADWAY, NEW YORK, NY 10025",2911,BROADWAY,NEW YORK,NY,10025,Manhattan,,(212) 662-8830,349
118,HAVELI RESTAURANT INC.,HAVELI,Unenclosed Sidewalk Cafe,1020216,"100 2ND AVE, NEW YORK, NY 10003",100,2ND AVE,NEW YORK,NY,10003,Manhattan,,(212) 982-0533,179
563,"H.B RESTAURANT GROUP, INC.",,Enclosed Sidewalk Cafe,1338515,"2596 BROADWAY, NEW YORK, NY 10025",2596,BROADWAY,NEW YORK,NY,10025,Manhattan,,(212) 865-0400,344
915,HEAVY WOODS LLC,HEAVEY WOODS,Unenclosed Sidewalk Cafe,1450583,"50 WYCKOFF AVE, BROOKLYN, NY 11237",50,WYCKOFF AVE,BROOKLYN,NY,11237,Brooklyn,,(929) 234-3500,245
99,"HELEDONA, INC",OLYMPIC FLAME DINER,Enclosed Sidewalk Cafe,0984345,"200 W 60TH ST, NEW YORK, NY 10023",200,W 60TH ST,NEW YORK,NY,10023,Manhattan,,(212) 581-5259,328
590,HELL'S KITCHEN CREAM & SUGAR INC,,Unenclosed Sidewalk Cafe,1345738,"626 10 AVE, NEW YORK, NY 10036",626,10 AVE,NEW YORK,NY,10036,Manhattan,,(212) 399-4450,153
736,HERSHA HOSPITALITY MANAGEMENT LP,NU HOTEL,Unenclosed Sidewalk Cafe,1390391,"85 SMITH ST, BROOKLYN, NY 11201",85,SMITH ST,BROOKLYN,NY,11201,Brooklyn,,(718) 468-3473,416
420,HI-LIFE SECOND AVE. LLC,HI-LIFE RESTAURANT & LOUNGE,Enclosed Sidewalk Cafe,1270176,"1503 2ND AVE, NEW YORK, NY 10075",1503,2ND AVE,NEW YORK,NY,10075,Manhattan,,(917) 562-9424,481
655,"HILL COUNTRY CHICKEN NY, LLC",HILL COUNTRY CHICKEN,Unenclosed Sidewalk Cafe,1357169,"1123 BROADWAY, NEW YORK, NY 10010",1123,BROADWAY,NEW YORK,NY,10010,Manhattan,,(212) 367-3784,293
382,"HILL COUNTRY NY, LLC",,Unenclosed Sidewalk Cafe,1247606,"30 WEST   26 STREET, NEW YORK, NY 10010",30,WEST   26 STREET,NEW YORK,NY,10010,Manhattan,,(212) 255-4544,180
199,HILLVIEW SPECIALITY FOOD INC,107 WEST RESTAURANT,Enclosed Sidewalk Cafe,1147364,"2787 BROADWAY, NEW YORK, NY 10025",2787,BROADWAY,NEW YORK,NY,10025,Manhattan,,(212) 864-1555,369
584,HL KOELN CORP,DER SCHWARZE KOELNER,Unenclosed Sidewalk Cafe,1345353,"710 FULTON STREET, BROOKLYN, NY 11217",710,FULTON STREET,BROOKLYN,NY,11217,Brooklyn,,(347) 841-4495,333
269,"HORSESHOES, NY INC.",DALTON'S BAR & GRILL,Unenclosed Sidewalk Cafe,1190049,"611 9 AVENUE, NEW YORK, NY 10036",611,9 AVENUE,NEW YORK,NY,10036,Manhattan,,(212) 245-5511,91
658,HPA RESTAURANT LLC,BEN & JACK'S STEAKHOUSE,Unenclosed Sidewalk Cafe,1357424,"255 5TH AVE, NEW YORK, NY 10016",255,5TH AVE,NEW YORK,NY,10016,Manhattan,,(212) 532-7600,286
309,"HUDSON FALAFEL, INC.",HUDSON FALAFEL RESTAURANT,Unenclosed Sidewalk Cafe,1219470,"516 HUDSON ST, NEW YORK, NY 10014",516,HUDSON ST,NEW YORK,NY,10014,Manhattan,,(212) 242-3939,139
794,HUMMUS KITCHEN AMSTERDAM AVENUE INC.,HUMMUS KITCHEN,Unenclosed Sidewalk Cafe,1420049,"416 AMSTERDAM AVE, NEW YORK, NY 10024",416,AMSTERDAM AVE,NEW YORK,NY,10024,Manhattan,,(917) 731-9367,188
697,HUMMUS KITCHEN MURRAY HILL INC,HUMMUS KITCHEN,Unenclosed Sidewalk Cafe,1382017,"444 3RD AVE, NEW YORK, NY 10016",444,3RD AVE,NEW YORK,NY,10016,Manhattan,,(917) 731-9367,76
597,HURRICANE STRAUSS INC,WESTVILLE,Unenclosed Sidewalk Cafe,1346238,"246 W 18TH ST, NEW YORK, NY 10011",246,W 18TH ST,NEW YORK,NY,10011,Manhattan,,(212) 741-7971,92
48,HUSSIEN ENVIRONMENT INC.,CLEOPATRAS NEEDLE.,Enclosed Sidewalk Cafe,0916146,"2483 BROADWAY, NEW YORK, NY 10025",2483,BROADWAY,NEW YORK,NY,10025,Manhattan,,(212) 769-6969,228
442,IANO CORP,ACQUA,Unenclosed Sidewalk Cafe,1277777,"718 AMSTERDAM AVENUE, NEW YORK, NY 10025",718,AMSTERDAM AVENUE,NEW YORK,NY,10025,Manhattan,,(212) 349-4433,324
766,IDG SEAPORT CORP,ACQUA RESTAURANT,Unenclosed Sidewalk Cafe,1416725,"21-23 PECK SLIP, NEW YORK, NY 10038",21-23,PECK SLIP,NEW YORK,NY,10038,Manhattan,,(212) 349-4433,116
238,IGUANA NEW YORK LTD.,IGUANA,Unenclosed Sidewalk Cafe,1170078,"240 W 54TH ST, NEW YORK, NY 10019",240,W 54TH ST,NEW YORK,NY,10019,Manhattan,,(212) 765-5454,294
825,"IL BARETTO, LLC",,Unenclosed Sidewalk Cafe,1422759,"750 11TH AVE, NEW YORK, NY 10019",750,11TH AVE,NEW YORK,NY,10019,Manhattan,,(212) 757-2270,172
822,IL BUCO VINERIA LLC,IL BUCO ALIMENTARI & VINERIA,Unenclosed Sidewalk Cafe,1422675,"53 GREAT JONES ST, NEW YORK, NY 10012",53,GREAT JONES ST,NEW YORK,NY,10012,Manhattan,,(212) 837-2622,105
292,ILION INC.,V.I.P.'S CAFE,Enclosed Sidewalk Cafe,1210814,"131 EAST GUNHILL ROAD, BRONX, NY 10467",131,EAST GUNHILL ROAD,BRONX,NY,10467,Bronx,,(718) 655-8500,169
445,IL MELOGRANO LLC,,Unenclosed Sidewalk Cafe,1277785,"501 W 51ST ST, NEW YORK, NY 10019",501,W 51ST ST,NEW YORK,NY,10019,Manhattan,,(212) 757-9290,120
519,IL PORTO LLC,IL PORTO,Unenclosed Sidewalk Cafe,1310867,"37 WASHINGTON AVE, BROOKLYN, NY 11205",37,WASHINGTON AVE,BROOKLYN,NY,11205,Brooklyn,,(718) 624-0954,207
964,IM FOOD LLC,ZIZI LEMONA,Unenclosed Sidewalk Cafe,1460536,"129 HAVEMEYER ST, BROOKLYN, NY 11211",129,HAVEMEYER ST,BROOKLYN,NY,11211,Brooklyn,,(646) 267-6001,71
324,"IRIDIUM RESTAURANT, CORP.",,Unenclosed Sidewalk Cafe,1221130,"20 SPRING STREET, NEW YORK, NY 10012",20,SPRING STREET,NEW YORK,NY,10012,Manhattan,,(917) 324-9637,47
846,ISLAND REST I CORP,ISLAND BURGERS & SHAKES,Unenclosed Sidewalk Cafe,1426156,"766 9TH AVE, NEW YORK, NY 10019",766,9TH AVE,NEW YORK,NY,10019,Manhattan,,(212) 307-7934,60
294,"ITM GARDEN,INC.",,Unenclosed Sidewalk Cafe,1214291,"10 LITTLE WEST 12 ST, NEW YORK, NY 10014",10,LITTLE WEST 12 ST,NEW YORK,NY,10014,Manhattan,,(212) 226-1844,280
741,IXHEL CORPORATION,CAFE FRIDA,Enclosed Sidewalk Cafe,1392090,"368 COLUMBUS AVE, NEW YORK, NY 10024",368,COLUMBUS AVE,NEW YORK,NY,10024,Manhattan,,(914) 235-7050,285
131,JADA RESTAURANT INC.,PETITE ABEILLE,Unenclosed Sidewalk Cafe,1029004,"134 W BROADWAY, NEW YORK, NY 10013",134,W BROADWAY,NEW YORK,NY,10013,Manhattan,,(212) 727-1505,214
411,JAMES-ZAC CORP.,BRUNO THE KING OF RAVIOLI,Unenclosed Sidewalk Cafe,1258099,"282-284 1ST AVE, NEW YORK, NY 10009",282-284,1ST AVE,NEW YORK,NY,10009,Manhattan,,(201) 646-0505,205
644,JAN CO CENTRAL INC,BURGER KING,Enclosed Sidewalk Cafe,1354338,"3451 BROADWAY, NY, NY 10031",3451,BROADWAY,NY,NY,10031,Manhattan,,(401) 946-4000,290
36,"JAPONICA-U.S.A.,INC.",JAPONICA,Enclosed Sidewalk Cafe,0885853,"100 UNIVERSITY PLACE, NEW YORK, NY 10003",100,UNIVERSITY PLACE,NEW YORK,NY,10003,Manhattan,,(212) 243-7752,226
880,JASPER HOSPITALITY LLC,EAST END BAR & GIRLL,Unenclosed Sidewalk Cafe,1433632,"1664 1ST AVE, NEW YORK, NY 10028",1664,1ST AVE,NEW YORK,NY,10028,Manhattan,,(212) 348-3783,105
893,JBB BAR & GRILL INC,THE PITCH & FORK,Unenclosed Sidewalk Cafe,1438163,"1606 1ST AVE, NEW YORK, NY 10028",1606,1ST AVE,NEW YORK,NY,10028,Manhattan,,(646) 234-7752,120
216,"JEC II,LLC",BAGATELLE,Unenclosed Sidewalk Cafe,1161856,"1 LITTLE W 12 ST, NEW YORK, NY 10014",1,LITTLE W 12 ST,NEW YORK,NY,10014,Manhattan,,(212) 255-9717,655
558,JEMANYA CORP,MISS FAVELA,Unenclosed Sidewalk Cafe,1331625,"57 SOUTH 5TH ST, BROOKLYN, NY 11249",57,SOUTH 5TH ST,BROOKLYN,NY,11249,Brooklyn,,(718) 230-4040,168
713,JESSICA CHELSEA CORP,TELLO'S,Unenclosed Sidewalk Cafe,1384661,"198 8TH AVE, NEW YORK, NY 10011",198,8TH AVE,NEW YORK,NY,10011,Manhattan,,(212) 691-8696,332
450,"JL MEGRE CO., INC.",,Unenclosed Sidewalk Cafe,1278108,"120 MONTAGUE ST, BROOKLYN, NY 11201",120,MONTAGUE ST,BROOKLYN,NY,11201,Brooklyn,,(718) 797-3700,172
348,J.M.M.T. CAFE INC,,Unenclosed Sidewalk Cafe,1225897,"360 3RD AVE, NEW YORK, NY 10016",360,3RD AVE,NEW YORK,NY,10016,Manhattan,,(212) 696-2122,103
26,"J.N.P.K.,INC",ARMONDO'S,Enclosed Sidewalk Cafe,0832521,"74-27 37TH AVE, JACKSON HEIGHTS, NY 11372",74-27,37TH AVE,JACKSON HEIGHTS,NY,11372,Queens,,(718) 898-0113,307
313,JOHN-PHIL TAVERN CORP,PARNELLS,Unenclosed Sidewalk Cafe,1219526,"350 E 53RD ST, NEW YORK, NY 10022",350,E 53RD ST,NEW YORK,NY,10022,Manhattan,,(212) 753-1761,322
671,JPD RESTAURANT LLC,PIG N' WHISTLE,Unenclosed Sidewalk Cafe,1368233,"202 WEST   36 STREET, NEW YORK, NY 10018",202,WEST   36 STREET,NEW YORK,NY,10018,Manhattan,,(212) 239-4820,47
109,J.P.G. LLC,PHILIP MARIE,Unenclosed Sidewalk Cafe,1003313,"569 HUDSON STREET, NEW YORK, NY 10014",569,HUDSON STREET,NEW YORK,NY,10014,Manhattan,,(212) 242-6200,169
475,JPS VENTURES INC.,ST. JAMES GATE,Enclosed Sidewalk Cafe,1283643,"441 AMSTERDAM AVE, NEW YORK, NY 10024",441,AMSTERDAM AVE,NEW YORK,NY,10024,Manhattan,,(212) -,224
516,JTN RIVIERA CORP,BISTRO 61,Unenclosed Sidewalk Cafe,1310081,"1113 1ST AVE, NEW YORK, NY 10065",1113,1ST AVE,NEW YORK,NY,10065,Manhattan,,(212) 223-6220,169
889,JUICERIE LLC,JUICERIE,Unenclosed Sidewalk Cafe,1437537,"19 KENMARE ST, NEW YORK, NY 10012",19,KENMARE ST,NEW YORK,NY,10012,Manhattan,,(917) 400-3050,378
939,JUNOON NYC LLC,JUNOON RESTAURANT,Unenclosed Sidewalk Cafe,1455979,"27 W 24TH ST, NEW YORK, NY 10010",27,W 24TH ST,NEW YORK,NY,10010,Manhattan,,(917) 622-7020,376
527,KANG YUE USA CORP.,MOCA ASIAN BISTRO,Unenclosed Sidewalk Cafe,1312716,"107-18 70TH RD, FOREST HILLS, NY 11375",107-18,70TH RD,FOREST HILLS,NY,11375,Queens,,(718) 263-3333,184
634,KARABINIS DINER CORP,OASIS DINER,Enclosed Sidewalk Cafe,1352645,"2132 FLATBUSH AVE, BROOKLYN, NY 11234",2132,FLATBUSH AVE,BROOKLYN,NY,11234,Brooklyn,,(718) 258-0043,473
106,KARAVAS FOOD LTD,KARAVAS PLACE TAVERN,Enclosed Sidewalk Cafe,1001562,"162 W 4TH ST, NY, NY 10014",162,W 4TH ST,NY,NY,10014,Manhattan,,(212) 243-8007,236
453,KATOUNA INC,PERFECTO PIZZERIA,Unenclosed Sidewalk Cafe,1278350,"2479 BROADWAY, NEW YORK, NY 10025",2479,BROADWAY,NEW YORK,NY,10025,Manhattan,,(212) 721-6130,400
816,KAZO INC,PIERRE LOTI,Unenclosed Sidewalk Cafe,1422033,"300 1/2 E 52ND ST, NEW YORK, NY 10022",300 1/2,E 52ND ST,NEW YORK,NY,10022,Manhattan,,(212) 755-5684,230
262,KEDROS LTD,,Enclosed Sidewalk Cafe,1188845,"1505 3RD AVE, NEW YORK, NY 10028",1505,3RD AVE,NEW YORK,NY,10028,Manhattan,,(212) 249-6505,233
46,KHYBER PASS CORP,BAMIYAN RESTAURANT,Enclosed Sidewalk Cafe,0907217,"358 THIRD AVENUE, NEW YORK, NY 10016",358,THIRD AVENUE,NEW YORK,NY,10016,Manhattan,,(212) 481-3232,381
812,KIKU ASIAN BISTRO CORP.,,Unenclosed Sidewalk Cafe,1421584,"2 LINCOLN PL, BROOKLYN, NY 11217",2,LINCOLN PL,BROOKLYN,NY,11217,Brooklyn,,(718) 638-3366,305
219,KING LUKE INC,MARLOW AND SONS,Unenclosed Sidewalk Cafe,1163028,"81 BROADWAY, BROOKLYN, NY 11249",81,BROADWAY,BROOKLYN,NY,11249,Brooklyn,,(718) 486-3077,199
283,KIWI'S HISTORICAL BUILDING LTD,HALLO BERLIN,Unenclosed Sidewalk Cafe,1198845,"626 10TH AVE, NEW YORK, NY 10036",626,10TH AVE,NEW YORK,NY,10036,Manhattan,,(212) 977-1944,179
241,K.K.& D. OF 79TH ST. REST. CORP.,,Unenclosed Sidewalk Cafe,1171759,"1022 MADISON AVENUE, NEW YORK, NY 10075",1022,MADISON AVENUE,NEW YORK,NY,10075,Manhattan,,(212) 535-4115,163
536,KON CAFE' CORP.,ROMA CAFE,Unenclosed Sidewalk Cafe,1315645,"2001 STILLWELL AVE, BROOKLYN, NY 11223",2001,STILLWELL AVE,BROOKLYN,NY,11223,Brooklyn,,(718) 676-4816,374
164,"KRILIC ENTERPRISES, INC.",BRICK CAFE,Unenclosed Sidewalk Cafe,1103683,"3095 33RD ST, ASTORIA, NY 11102",3095,33RD ST,ASTORIA,NY,11102,Queens,,(718) 267-2735,394
800,KRINIS RESTAURANT CORP,LYRIC RESTAURANT,Unenclosed Sidewalk Cafe,1420823,"283 3RD AVE, NEW YORK, NY 10010",283,3RD AVE,NEW YORK,NY,10010,Manhattan,,(212) 213-2222,331
866,KY & YL INC,SPICE,Unenclosed Sidewalk Cafe,1430586,"104 2ND AVE, NEW YORK, NY 10003",104,2ND AVE,NEW YORK,NY,10003,Manhattan,,(212) 533-8900,205
775,LA BOCA WINE BAR LLC,THE BODEGA,Unenclosed Sidewalk Cafe,1418171,"24 SAINT NICHOLAS AVE, BROOKLYN, NY 11237",24,SAINT NICHOLAS AVE,BROOKLYN,NY,11237,Brooklyn,,(646) 924-8488,270
349,LADL LLC.,JACK'S,Unenclosed Sidewalk Cafe,1226076,"80 UNIVERSITY PLACE, NEW YORK, NY 10003",80,UNIVERSITY PLACE,NEW YORK,NY,10003,Manhattan,,(212) 627-3706,288
951,"LAFAYETTE STREET PARTNERS II, LLC",LAFAYETTE,Unenclosed Sidewalk Cafe,1458496,"380 LAFAYETTE ST, NEW YORK, NY 10003",380,LAFAYETTE ST,NEW YORK,NY,10003,Manhattan,,(212) 533-3000,962
30,LAMARCA INC,LAMARCA CHEESE SHOP,Enclosed Sidewalk Cafe,0852766,"161 E 22ND ST, NEW YORK, NY 10010",161,E 22ND ST,NEW YORK,NY,10010,Manhattan,,(212) 673-7920,142
425,LA MELA RISTORANTE ITALIANO INC,LA MELA RISTORANTE,Unenclosed Sidewalk Cafe,1274929,"167-171 MULBERRY ST, NEW YORK, NY 10013",167-171,MULBERRY ST,NEW YORK,NY,10013,Manhattan,,(212) 431-9493,133
551,LA MERIDIANA 2 LTD.,NUMERO 28,Unenclosed Sidewalk Cafe,1323159,"176 2ND AVE, NEW YORK, NY 10003",176,2ND AVE,NEW YORK,NY,10003,Manhattan,,(917) 865-9278,173
180,"LA MERIDIANA, LTD",NUMERO 28,Unenclosed Sidewalk Cafe,1133014,"26-28 CARMINE STREET, NEW YORK, NY 10014",26-28,CARMINE STREET,NEW YORK,NY,10014,Manhattan,,(212) 242-1196,185
884,LANA RESTAURANT LLC,,Unenclosed Sidewalk Cafe,1434425,"686 9TH AVE, NEW YORK, NY 10036",686,9TH AVE,NEW YORK,NY,10036,Manhattan,,(212) 245-6060,179
285,LA PALA LLC,,Unenclosed Sidewalk Cafe,1200156,"198 ALLEN STREET, NEW YORK, NY 10002",198,ALLEN STREET,NEW YORK,NY,10002,Manhattan,,(212) 475-1251,198
654,LA PASTA PRESTO GRILL INC.,FIGARO BISTRO GRILL,Unenclosed Sidewalk Cafe,1357151,"959 2 AVENUE, NEW YORK, NY 10022",959,2 AVENUE,NEW YORK,NY,10022,Manhattan,,(212) 207-4795,84
115,LA RIPAILLE CORP,LA RIPAILLE RESTAURANT,Unenclosed Sidewalk Cafe,1010686,"605 HUDSON ST, NEW YORK, NY 10014",605,HUDSON ST,NEW YORK,NY,10014,Manhattan,,(212) 255-4406,129
431,LARRY KEVIN K CORP,THE SNUG,Unenclosed Sidewalk Cafe,1277071,"751 9TH AVE, NEW YORK, NY 10019",751,9TH AVE,NEW YORK,NY,10019,Manhattan,,(646) 763-8924,60
388,LASAGNA RESTAURANT INC.,LASAGNA RESTAURANT,Unenclosed Sidewalk Cafe,1249445,"941 2ND AVE, NEW YORK, NY 10022",941,2ND AVE,NEW YORK,NY,10022,Manhattan,,(212) 308-5853,353
447,"LA SCALA RESTAURANT, LLC",FIVE NAPKIN BURGER,Unenclosed Sidewalk Cafe,1277876,"630 9 AVENUE, NEW YORK, NY 10036",630,9 AVENUE,NEW YORK,NY,10036,Manhattan,,(212) 333-23,455
207,"L'ATRE ENTERPRISES, INC",,Unenclosed Sidewalk Cafe,1159486,"314 BLEECKER STREET, NEW YORK, NY 10014",314,BLEECKER STREET,NEW YORK,NY,10014,Manhattan,,(212) 675-9463,64
904,LA VILLETTE LLC,LA VILLETTE,Unenclosed Sidewalk Cafe,1443856,"10 DOWNING ST, NEW YORK, NY 10014",10,DOWNING ST,NEW YORK,NY,10014,Manhattan,,(212) 255-0300,410
986,LBELLA PIZZERIA & RESTAURANT INC,,Enclosed Sidewalk Cafe,1464184,"6926 MAIN ST, QUEENS, NY 11367",6926,MAIN ST,QUEENS,NY,11367,Queens,,(718) 261-0196,508
218,LCN CAFE CORP.,THEATER CAFE,Unenclosed Sidewalk Cafe,1162474,"106-03 METROPOLITAN AVE, QUEENS, NY 11375",106-03,METROPOLITAN AVE,QUEENS,NY,11375,Queens,,(718) 261-0014,528
323,"LEAHLALA, LLC",ABILENE,Unenclosed Sidewalk Cafe,1221041,"442 COURT STREET, BROOKLYN, NY 11231",442,COURT STREET,BROOKLYN,NY,11231,Brooklyn,,(718) 522-6900,351
295,"L.E. GLOBE, LLC",CAFE D' ALSACE,Unenclosed Sidewalk Cafe,1214833,"1695 2ND AVE, NEW YORK, NY 10128",1695,2ND AVE,NEW YORK,NY,10128,Manhattan,A/K/A: 238 E 88TH ST,(212) 722-5133,565
611,LEITRIM PUB INC,DJ REYNOLD'S,Unenclosed Sidewalk Cafe,1347910,"351 W 57TH ST, NEW YORK, NY 10019",351,W 57TH ST,NEW YORK,NY,10019,Manhattan,,(212) 245-2912,136
55,LEKKAS RESTAURANT CORPORATION,GREEK CORNER,Enclosed Sidewalk Cafe,0920314,"322 SEVENTH AVENUE, NEW YORK, NY 10001",322,SEVENTH AVENUE,NEW YORK,NY,10001,Manhattan,,(212) 239-0760,159
669,LE MAGNIFIQUE LLC,,Unenclosed Sidewalk Cafe,1362784,"138-140 EAST 73 STREET, NEW YORK, NY 10022",138-140,EAST 73 STREET,NEW YORK,NY,10022,Manhattan,A.K.A 1022 LEXINGTON AVENUE,(917) 945-3768,253
365,LENNY'S 54TH STREET LLC,,Enclosed Sidewalk Cafe,1233427,"1024 SECOND AVENUE, NEW YORK, NY 10022",1024,SECOND AVENUE,NEW YORK,NY,10022,Manhattan,,(212) 355-5700,418
565,LENNY'S 74TH STREET LLC,LENNY'S,Unenclosed Sidewalk Cafe,1339241,"302 COLUMBUS AVE, NEW YORK, NY 10023",302,COLUMBUS AVE,NEW YORK,NY,10023,Manhattan,,(212) 580-8300,181
370,LENNY'S 77TH STREET LLC,LENNY'S,Unenclosed Sidewalk Cafe,1237547,"1481 2ND AVE, NEW YORK, NY 10075",1481,2ND AVE,NEW YORK,NY,10075,Manhattan,,(212) 760-2700,256
372,LENNY'S 77TH STREET LLC,LENNYS,Enclosed Sidewalk Cafe,1239318,"1481 2ND AVE, NEW YORK, NY 10075",1481,2ND AVE,NEW YORK,NY,10075,Manhattan,,(212) 760-2700,272
189,LENOX ROOM CORP,TBAR STEAK & LOUNGE,Unenclosed Sidewalk Cafe,1136163,"1278 3RD AVE, NEW YORK, NY 10021",1278,3RD AVE,NEW YORK,NY,10021,Manhattan,,(212) 772-0404,85
818,"LETTA #1, LLC.",NICOLETTA,Unenclosed Sidewalk Cafe,1422450,"160 2ND AVE, NEW YORK, NY 10003",160,2ND AVE,NEW YORK,NY,10003,Manhattan,,(347) 854-0150,349
414,LEX90 CORP,CORRADO BAKERY,Unenclosed Sidewalk Cafe,1259291,"1361 LEXINGTON AVE, NEW YORK, NY 10128",1361,LEXINGTON AVE,NEW YORK,NY,10128,Manhattan,,(212) 361-6164,158
496,"LEXINGTON AVENUE BBQ, LLC",,Unenclosed Sidewalk Cafe,1293466,"181 LEXINGTON AVE, NEW YORK, NY 10016",181,LEXINGTON AVE,NEW YORK,NY,10016,Manhattan,,(212) 860-6466,268
477,LIC SEAFOOD INC.,OFF THE HOOK,Unenclosed Sidewalk Cafe,1283835,"3210 36TH AVE, LIC, NY 11106",3210,36TH AVE,LIC,NY,11106,Queens,,(718) 786-6015,123
809,LIGNORANTI LLC,OFICINA LATINA,Unenclosed Sidewalk Cafe,1421348,"24 PRINCE ST, NEW YORK, NY 10012",24,PRINCE ST,NEW YORK,NY,10012,Manhattan,,(646) 381-2555,29
34,LIRA OF NEW YORK INC,LUKE'S BAR & GRILL,Unenclosed Sidewalk Cafe,0882869,"1394 3 AVENUE, NEW YORK, NY 10075",1394,3 AVENUE,NEW YORK,NY,10075,Manhattan,,(212) 249-7070,98
988,LITE BITES ASTORIA INC,LITE BITES CAFE & GRILL,Enclosed Sidewalk Cafe,1464788,"3191 STEINWAY ST, ASTORIA, NY 11103",3191,STEINWAY ST,ASTORIA,NY,11103,Queens,,(718) 728-1133,
319,LITTLE CUPCAKE CORP.,LITTLE CUPCAKE CORP BAKESHOP,Unenclosed Sidewalk Cafe,1220615,"9102 3RD AVE, BROOKLYN, NY 11209",9102,3RD AVE,BROOKLYN,NY,11209,Brooklyn,,(718) 680-4127,123
416,LITTLE MOROCCO RESTAURANT CORP.,,Unenclosed Sidewalk Cafe,1261303,"24-39 STEINWAY ST, ASTORIA, NY 11103",24-39,STEINWAY ST,ASTORIA,NY,11103,Queens,,(718) 204-8118,420
441,LITTLE SIAM CORP,YUM YUM BANGKOK,Unenclosed Sidewalk Cafe,1277774,"658 9TH AVE, NEW YORK, NY 10036",658,9TH AVE,NEW YORK,NY,10036,Manhattan,,(212) 956-0639,219
155,LIVING BREAD LLC,CILANTRO,Unenclosed Sidewalk Cafe,1095967,"1321 1 AVE, NEW YORK, NY 10021",1321,1 AVE,NEW YORK,NY,10021,Manhattan,,(212) 722-4242,360
393,L & J BRAZIL RESTAURANT INC,VIA BRAZIL,Unenclosed Sidewalk Cafe,1251386,"34 W 46TH ST, NEW YORK, NY 10036",34,W 46TH ST,NEW YORK,NY,10036,Manhattan,,(212) 643-9271,127
140,"L&L FOODS OF FIRST AVENUE, LLC",MCDONALD'S RESTAURANT,Enclosed Sidewalk Cafe,1066226,"104 1ST AVE, NEW YORK, NY 10009",104,1ST AVE,NEW YORK,NY,10009,Manhattan,,(203) 656-3661,281
965,LOBEL'S RESTAURANT GROUP LLC,LOBEL'S KITCHEN,Unenclosed Sidewalk Cafe,1460946,"1030 3RD AVE, NEW YORK, NY 10065",1030,3RD AVE,NEW YORK,NY,10065,Manhattan,,(212) 317-0200,268
357,"LOCO 111, INC.",SAN LOCO,Unenclosed Sidewalk Cafe,1229855,"111 STANTON ST, NEW YORK, NY 10002",111,STANTON ST,NEW YORK,NY,10002,Manhattan,,(212) 253-9671,92
482,LOKAL RESTAURANT CORP,LOKAL RESTAURANT,Unenclosed Sidewalk Cafe,1285810,"905 LORIMER STREET, BROOKLYN, NY 11222",905,LORIMER STREET,BROOKLYN,NY,11222,Brooklyn,,(718) 599-7007,401
777,LOS CUATES LLC,ROSARITO FISH SHACK,Unenclosed Sidewalk Cafe,1418335,"168-170 WYTHE AVE, BROOKLYN, NY 11211",168-170,WYTHE AVE,BROOKLYN,NY,11211,Brooklyn,,(631) 424-8480,804
247,LOUYA CORP,JACQUE'S BISTRO,Unenclosed Sidewalk Cafe,1173625,"204-206 EAST   85 STREET, NEW YORK, NY 10028",204-206,EAST   85 STREET,NEW YORK,NY,10028,Manhattan,,(212) 327-2272,260
604,L PLUS L PRODUCTIONS LLC,OFRENDA,Unenclosed Sidewalk Cafe,1347094,"113 7TH AVE S, NEW YORK, NY 10014",113,7TH AVE S,NEW YORK,NY,10014,Manhattan,,(646) 318-1847,207
116,"L. SZECHUAN EAST, LTD",PIG HEAVEN RESTAURANT,Unenclosed Sidewalk Cafe,1013335,"1540 2 AVE, NEW YORK, NY 10028",1540,2 AVE,NEW YORK,NY,10028,Manhattan,,(212) 744-4333,166
15,LU-ANN BAKERY SHOP INC,BRUNO BAKERY        S/C #362,Unenclosed Sidewalk Cafe,0762511,"506 LA GUARDIA PL, NEW YORK, NY 10012",506,LA GUARDIA PL,NEW YORK,NY,10012,Manhattan,,(212) 982-5894,162
353,LUCKY 13 LLC,SCARPETTA,Unenclosed Sidewalk Cafe,1227073,"355 WEST   14 STREET, NEW YORK, NY 10014",355,WEST   14 STREET,NEW YORK,NY,10014,Manhattan,,(212) 691-0555,229
855,LUKES LOBSTER III LLC,LUKE'S LOBSTER,Unenclosed Sidewalk Cafe,1428051,"426 AMSTERDAM AVE, NEW YORK, NY 10024",426,AMSTERDAM AVE,NEW YORK,NY,10024,Manhattan,,(212) 877-8800,92
928,LULU AND PO LLC,LULU & PO,Unenclosed Sidewalk Cafe,1454243,"154 CARLTON AVE, BROOKLYN, NY 11205",154,CARLTON AVE,BROOKLYN,NY,11205,Brooklyn,,(917) 514-8167,140
938,LULU & ME LLC,LULU & ME,Unenclosed Sidewalk Cafe,1455973,"253 5TH AVE, NEW YORK, NY 10016",253,5TH AVE,NEW YORK,NY,10016,Manhattan,,(212) 290-,84
879,LUNDY'S CAFE CORPORATION,,Unenclosed Sidewalk Cafe,1433590,"3156 OCEAN AVENUE, BROOKLYN, NY 11235",3156,OCEAN AVENUE,BROOKLYN,NY,11235,Brooklyn,,(718) 616-9100,1080
146,LUNELLA RISTORANTE INC,LUNELLA RISTORANTE,Unenclosed Sidewalk Cafe,1072629,"173 MULBERRY ST, NEW YORK, NY 10013",173,MULBERRY ST,NEW YORK,NY,10013,Manhattan,,(212) 966-6639,110
548,"LUPE'S EAST L.A. KITCHEN, INC",,Unenclosed Sidewalk Cafe,1321335,"110 SIXTH AVENUE, NEW YORK, NY 10013",110,SIXTH AVENUE,NEW YORK,NY,10013,Manhattan,,(212) 966-1326,200
525,LX AVENUE BAGELS INC.,TAI BAGELS,Unenclosed Sidewalk Cafe,1312021,"1228 LEXINGTON AVE, NEW YORK, NY 10028",1228,LEXINGTON AVE,NEW YORK,NY,10028,Manhattan,,(917) 523-4972,35
264,MACELLERIA RESTAURANT INC,MACELLERIA,Unenclosed Sidewalk Cafe,1188887,"48 GANSEVOORT ST, NEW YORK, NY 10014",48,GANSEVOORT ST,NEW YORK,NY,10014,Manhattan,,(212) 741-2555,179
326,MADIBA CORPORATION,MADIBA,Unenclosed Sidewalk Cafe,1221167,"195 DEKALB AVENUE, BROOKLYN, NY 11205",195,DEKALB AVENUE,BROOKLYN,NY,11205,Brooklyn,,(718) 855-9190,457
624,MADISON ENTERTAINMENT ASSOCIATES LLC.,LAVO,Unenclosed Sidewalk Cafe,1349641,"625 MADISON AVE, NEW YORK, NY 10022",625,MADISON AVE,NEW YORK,NY,10022,Manhattan,,(631) 424-8480,198
560,MADISON GLOBAL LLC,NELLO'S,Unenclosed Sidewalk Cafe,1334619,"696 MADISON AVENUE, NEW YORK, NY 10065",696,MADISON AVENUE,NEW YORK,NY,10065,Manhattan,,(212) 736-8700,126
43,MAFRA RESTAURANT CORP,IL VIOLINO,Enclosed Sidewalk Cafe,0895625,"180 COLUMBUS AVE, NEW YORK, NY 10023",180,COLUMBUS AVE,NEW YORK,NY,10023,Manhattan,,(212) 873-2500,411
421,MAGNOLIA COLUMBUS AVENUE LLC.,,Enclosed Sidewalk Cafe,1271565,"200 COLUMBUS AVENUE, NEW YORK, NY 10023",200,COLUMBUS AVENUE,NEW YORK,NY,10023,Manhattan,,(212) 757-1177,365
316,"M AND G TOGETHER 4 EVER, LLC.",BURRITO BAR & KITCHEN,Unenclosed Sidewalk Cafe,1219900,"307 FLATBUSH AVE, BROOKLYN, NY 11217",307,FLATBUSH AVE,BROOKLYN,NY,11217,Brooklyn,,(718) 230-8646,390
94,MANEKEN CORP.,PETITE ABEILLE,Unenclosed Sidewalk Cafe,0979768,"466 HUDSON STREET, MANHATTAN, NY 10014",466,HUDSON STREET,MANHATTAN,NY,10014,Manhattan,,(212) 727-1505,140
358,MANETTA'S FINE FOOD CORP.,MANETTA'S RISTORANTE,Unenclosed Sidewalk Cafe,1229988,"1076 JACKSON AVE, QUEENS, NY 11101",1076,JACKSON AVE,QUEENS,NY,11101,Queens,,(718) 786-6171,242
317,"MANGARONI, LLC",IL BASTARDO,Unenclosed Sidewalk Cafe,1219992,"191 SEVENTH AVENUE, NEW YORK, NY 10011",191,SEVENTH AVENUE,NEW YORK,NY,10011,Manhattan,,(212) 513-1988,375
371,MANGIA RESTAURANT CORP,OVELIA RESTAURANT,Unenclosed Sidewalk Cafe,1238509,"34-01 30 AVENUE, ASTORIA, NY 11103",34-01,30 AVENUE,ASTORIA,NY,11103,Queens,,(718) 721-7217,480
350,"MANHATTAN ISLAND GROUP, LLC.",FRESH SALT,Unenclosed Sidewalk Cafe,1226371,"146 BEEKMAN ST, NEW YORK, NY 10038",146,BEEKMAN ST,NEW YORK,NY,10038,Manhattan,,(212) 962-0053,162
511,MANNA 2ND AVENUE LLC,GINA LA FORNARINA,Unenclosed Sidewalk Cafe,1308601,"1575 2ND AVE, NEW YORK, NY 10028",1575,2ND AVE,NEW YORK,NY,10028,Manhattan,,(212) 535-3300,170
672,MANNA AMSTERDAM AVENUE LLC,GINA LA FORNARINA,Unenclosed Sidewalk Cafe,1369548,"279 AMSTERDAM AVE, NEW YORK, NY 10023",279,AMSTERDAM AVE,NEW YORK,NY,10023,Manhattan,,(212) 595-6900,194
165,"MANNAGGIA, INC.",,Unenclosed Sidewalk Cafe,1103693,"163 1ST  AVE, NEW YORK, NY 10003",163,1ST  AVE,NEW YORK,NY,10003,Manhattan,,(212) 388-1190,235
385,MANNA KITCHEN INC,,Unenclosed Sidewalk Cafe,1248596,"28 EAST   18 STREET, NEW YORK, NY 10003",28,EAST   18 STREET,NEW YORK,NY,10003,Manhattan,,(212) 228-1044,167
788,MANNA MADISON AVENUE LLC,GINA LA FORNARINA,Unenclosed Sidewalk Cafe,1419681,"26 E 91ST ST, NEW YORK, NY 10128",26,E 91ST ST,NEW YORK,NY,10128,Manhattan,,(212) 348-8811,130
984,MANON LLC.,MANON,Unenclosed Sidewalk Cafe,1464019,"407 W 14TH ST, NEW YORK, NY 10014",407,W 14TH ST,NEW YORK,NY,10014,Manhattan,,(347) 713-1153,236
97,MARE MARE INC.,BISTRO CASSIS,Unenclosed Sidewalk Cafe,0982077,"225 COLUMBUS AVE, NEW YORK, NY 10023",225,COLUMBUS AVE,NEW YORK,NY,10023,Manhattan,,(631) 367-1156,168
272,MARIA LOUISA RESTAURANT INC,RESTAURANT 101,Unenclosed Sidewalk Cafe,1190559,"10018 4TH AVE, BROOKLYN, NY 11209",10018,4TH AVE,BROOKLYN,NY,11209,Brooklyn,,(718) 833-1313,254
128,"MARLOW, INC.",THE DINER,Unenclosed Sidewalk Cafe,1027923,"85 BROADWAY, BROOKLYN, NY 11249",85,BROADWAY,BROOKLYN,NY,11249,Brooklyn,,(718) 486-3077,337
638,MAROLLES LLC,BXL EAST,Unenclosed Sidewalk Cafe,1353195,"210 E 51TH ST, NEW YORK, NY 10022",210,E 51TH ST,NEW YORK,NY,10022,Manhattan,,(917) 582-3016,77
647,MARYANN'S 353 MEX. INC,MARYANN'S,Unenclosed Sidewalk Cafe,1354785,"353 GREENWICH ST, NEW YORK, NY 10013",353,GREENWICH ST,NEW YORK,NY,10013,Manhattan,,(212) 766-0911,446
375,MASANIELLO RESTAURANT CORP.,PEPERONCINO,Unenclosed Sidewalk Cafe,1243143,"72 5TH AVE, BROOKLYN, NY 11217",72,5TH AVE,BROOKLYN,NY,11217,Brooklyn,,(718) 638-4760,157
193,MA. VI. DO. REST. INC.,MEDITERRANEO,Unenclosed Sidewalk Cafe,1138459,"1260 2ND AVE, NEW YORK, NY 10065",1260,2ND AVE,NEW YORK,NY,10065,Manhattan,,(212) 715-0701,688
255,MAVIMA RESTAURANT INC.,BRIO,Unenclosed Sidewalk Cafe,1184384,"786 LEXINGTON AVENUE, NEW YORK, NY 10065",786,LEXINGTON AVENUE,NEW YORK,NY,10065,Manhattan,A/K/A 137 EAST 61 STREET,(212) 980-2300,135
520,MAZ MEZCAL INC.,,Unenclosed Sidewalk Cafe,1311123,"316 EAST   86 STREET, NEW YORK, NY 10028",316,EAST   86 STREET,NEW YORK,NY,10028,Manhattan,,(631) 424-8480,208
41,M.B.R.P. REST. INC.,THE STUMBLE INN,Enclosed Sidewalk Cafe,0895586,"1454 2ND AVE, NEW YORK, NY 10021",1454,2ND AVE,NEW YORK,NY,10021,Manhattan,,(212) 650-0561,265
78,M.B.R.P.REST.INC.,THE STUMBLE INN,Unenclosed Sidewalk Cafe,0955674,"1454 2ND AVE, NEW YORK, NY 10021",1454,2ND AVE,NEW YORK,NY,10021,Manhattan,,(212) 737-9391,212
470,MEATH TRAILS INC.,DEMPSEYS PUB,Unenclosed Sidewalk Cafe,1282650,"61 2ND AVE, NEW YORK, NY 10003",61,2ND AVE,NEW YORK,NY,10003,Manhattan,,(212) 388-0662,149
315,"MEATPACKING RESTAURANT,LLC.",THE DINER,Unenclosed Sidewalk Cafe,1219795,"44 9TH AVE, NEW YORK, NY 10011",44,9TH AVE,NEW YORK,NY,10011,Manhattan,,(917) 282-2843,442
944,MEDI WINEBAR LLC,MEDI WINEBAR,Unenclosed Sidewalk Cafe,1457455,"811 9TH AVE, NEW YORK, NY 10019",811,9TH AVE,NEW YORK,NY,10019,Manhattan,,(212) 586-1201,135
643,MEDPARK 30 LLC,WINE 30,Unenclosed Sidewalk Cafe,1354206,"41 E 30TH ST, NEW YORK, NY 10016",41,E 30TH ST,NEW YORK,NY,10016,Manhattan,,(212) 481-0197,102
64,"M.E.G.RESTAURANT ENTERPRISES,LTD.",NOVITA,Unenclosed Sidewalk Cafe,0931051,"102 E 22ND ST, NEW YORK, NY 10010",102,E 22ND ST,NEW YORK,NY,10010,Manhattan,,(212) 677-2222,163
732,MEM REST CORP,WICKED WOLF,Unenclosed Sidewalk Cafe,1389775,"4029 EAST TREMONT AVE, BRONX, NY 10465",4029,EAST TREMONT AVE,BRONX,NY,10465,Bronx,,(718) 829-4400,225
646,MENDARED LLC,LE SOUK HAREM,Unenclosed Sidewalk Cafe,1354717,"510 LAGUARDIA PLACE, NEW YORK, NY 10012",510,LAGUARDIA PLACE,NEW YORK,NY,10012,Manhattan,,(212) 677-1120,368
423,"MERMAID 88, LLC",THE MERMAID INN,Unenclosed Sidewalk Cafe,1273996,"568 AMSTERDAM AVENUE, NEW YORK, NY 10024",568,AMSTERDAM AVENUE,NEW YORK,NY,10024,Manhattan,,(212) 799-7400,160
210,MESTIZO INC,GOOD RESTAURANT,Unenclosed Sidewalk Cafe,1160579,"89 GREENWICH AVE, NEW YORK, NY 10014",89,GREENWICH AVE,NEW YORK,NY,10014,Manhattan,,(212) 691-8080,189
136,"MESTRE, INC",LE ZIE 2000,Unenclosed Sidewalk Cafe,1035729,"172 SEVENTH AVENUE, NEW YORK, NY 10011",172,SEVENTH AVENUE,NEW YORK,NY,10011,Manhattan,,(212) 206-8686,153
980,MEXIBBQ KITCHEN & DRAUGHT LLC,,Unenclosed Sidewalk Cafe,1463488,"1631-1633 2ND AVE, NEW YORK, NY 10028",1631-1633,2ND AVE,NEW YORK,NY,10028,Manhattan,,(212) ???-????,288
77,MEXICALI ENTERPRISES LTD,RODEO BAR AND GRILL,Enclosed Sidewalk Cafe,0955462,"375 3 AVENUE, NEW YORK, NY 10016",375,3 AVENUE,NEW YORK,NY,10016,Manhattan,,(212) 683-6500,420
19,MEXICO LINDO RESTAURANT INC,MEXICO LINDO        E/S/C #431,Enclosed Sidewalk Cafe,0782187,"459 2 AVENUE, NEW YORK, NY 10010",459,2 AVENUE,NEW YORK,NY,10010,Manhattan,,(212) 679-3665,227
220,MEZCALS OF 5TH AVE REST CORP.,MESCALS REST.,Unenclosed Sidewalk Cafe,1163793,"223 5TH AVE, BROOKLYN, NY 11215",223,5TH AVE,BROOKLYN,NY,11215,Brooklyn,,(718) 783-3276,318
24,MEZZALUNA ASSOCIATES,MEZZALUNA,Unenclosed Sidewalk Cafe,0811193,"1295 3RD AVE, NEW YORK, NY 10021",1295,3RD AVE,NEW YORK,NY,10021,Manhattan,,(212) 535-9600,63
653,MHBK ASSOCIATES INC.,THE TANGLED VINE,Unenclosed Sidewalk Cafe,1357136,"434 AMSTERDAM AVE, NEW YORK, NY 10024",434,AMSTERDAM AVE,NEW YORK,NY,10024,Manhattan,,(646) 863-3896,346
842,MICADO BROOKLYN LLC,THE ANCHORED INN,Unenclosed Sidewalk Cafe,1425047,"57 WATERBURY ST, BROOKLYN, NY 11206",57,WATERBURY ST,BROOKLYN,NY,11206,Brooklyn,,(718) 576-3927,242
66,MICHAEL KING INC.,FINNEGANS WAKE,Unenclosed Sidewalk Cafe,0935481,"1361 1 AVE, NEW YORK, NY 10021",1361,1 AVE,NEW YORK,NY,10021,Manhattan,GR.FL,(212) 737-3664,180
479,"MICKEY'S PLACE ON 43RD ST., LTD",BAR 43,Unenclosed Sidewalk Cafe,1284057,"4306 43RD ST, SUNNYSIDE, NY 11104",4306,43RD ST,SUNNYSIDE,NY,11104,Queens,,(718) 361-3090,204
943,MIDTOWN HOSPITALITY LLC,,Unenclosed Sidewalk Cafe,1457312,"945 2ND AVE, NEW YORK, NY 10022",945,2ND AVE,NEW YORK,NY,10022,Manhattan,,(646) 895-9585,105
8,MIMI'S RESTAURANT CORP.,                    E/S/C #255,Enclosed Sidewalk Cafe,0697987,"984 2ND AVE, NEW YORK, NY 10022",984,2ND AVE,NEW YORK,NY,10022,Manhattan,,(212) 688-4692,429
728,MJAJ FOOD CORP,EATS,Enclosed Sidewalk Cafe,1388513,"1055 LEXINGTON AVE, NEW YORK, NY 10021",1055,LEXINGTON AVE,NEW YORK,NY,10021,Manhattan,,(212) 396-3287,371
490,M & M 28TH ST RESTAURANT LLC,,Unenclosed Sidewalk Cafe,1289251,"382 8 AVENUE, NEW YORK, NY 10001",382,8 AVENUE,NEW YORK,NY,10001,Manhattan,,(917) 705-5119,147
213,MNY CHELSEA LLC,MERCHANTS NY,Unenclosed Sidewalk Cafe,1160931,"112 SEVENTH AVENUE, NEW YORK, NY 10011",112,SEVENTH AVENUE,NEW YORK,NY,10011,Manhattan,,(212) 366-7267,140
148,"MNY HOLDINGS ASSOCIATES, LLC",BAKER STREET,Enclosed Sidewalk Cafe,1074420,"1152 1 AVENUE, NEW YORK, NY 10065",1152,1 AVENUE,NEW YORK,NY,10065,Manhattan,,(212) 871-4000,333
81,"MOHECO,INC.",CAFE-BAR,Unenclosed Sidewalk Cafe,0959237,"32-90 36TH ST, QUEENS, NY 11106",32-90,36TH ST,QUEENS,NY,11106,Queens,,(718) 204-5273,289
849,MOLLY PICON LLC,JACK'S WIFE FREDA,Unenclosed Sidewalk Cafe,1426863,"224 LAFAYETTE ST, NEW YORK, NY 10012",224,LAFAYETTE ST,NEW YORK,NY,10012,Manhattan,,(212) 510-8550,124
680,MOTTSU CUISINE INC,MOTTSU,Unenclosed Sidewalk Cafe,1376493,"285 MOTT ST, NEW YORK, NY 10012",285,MOTT ST,NEW YORK,NY,10012,Manhattan,,(646) 479-8384,86
160,"MOULINAS, LLC",BAR TABAC,Unenclosed Sidewalk Cafe,1101185,"128 SMITH ST, BROOKLYN, NY 11201",128,SMITH ST,BROOKLYN,NY,11201,Brooklyn,,(718) 923-0918,384
347,"MOUQUINHO ENTERPRISES,INC.",PJ CHARLTON,Unenclosed Sidewalk Cafe,1225847,"549 GREENWICH STREET, NEW YORK, NY 10013",549,GREENWICH STREET,NEW YORK,NY,10013,Manhattan,,(212) 924-9532,110
606,MOZ RESTAURANT INC,MEME,Unenclosed Sidewalk Cafe,1347167,"581 HUDSON STREET, NEW YORK, NY 10014",581,HUDSON STREET,NEW YORK,NY,10014,Manhattan,,(646) 692-8450,160
592,MR. BIGGS BAR & GRILL INC.,MR. BIGGS BAR & GRILL,Unenclosed Sidewalk Cafe,1345747,"596 10TH AVE, NEW YORK, NY 10036",596,10TH AVE,NEW YORK,NY,10036,Manhattan,,(212) 246-4744,472
633,M&R MEDITERRANEAN CORP,MAYAHUEL,Enclosed Sidewalk Cafe,1352482,"304 E 6TH ST, NEW YORK, NY 10003",304,E 6TH ST,NEW YORK,NY,10003,Manhattan,,(212) 777-2017,132
79,"MSD ENTERPRISES,INC",VIRAGE,Unenclosed Sidewalk Cafe,0955847,"118 2ND AVE, NEW YORK, NY 10003",118,2ND AVE,NEW YORK,NY,10003,Manhattan,,(212) 253-0425,379
663,MS RESTAURANT CORP,AGNANTI,Unenclosed Sidewalk Cafe,1360424,"19-06 DITMARS BLVD, ASTORIA, NY 11105",19-06,DITMARS BLVD,ASTORIA,NY,11105,Queens,,(718) 545-4554,254
762,MS RESTAURANT OWNERS LLC,MORNING STAR RESTAURANT,Enclosed Sidewalk Cafe,1415773,"879 9 AVENUE, NEW YORK, NY 10019",879,9 AVENUE,NEW YORK,NY,10019,Manhattan,AKA: 401 WEST 57TH STREET,(718) 274-4300,191
687,"M STAR HONG KONG CAFE, INC",JIN JIN HONG KONG CAFE,Enclosed Sidewalk Cafe,1379042,"6224 18 AVENUE, BROOKLYN, NY 11204",6224,18 AVENUE,BROOKLYN,NY,11204,Brooklyn,,(718) 232-6222,244
222,MULBERRY STREET BAR LLC,MULBERRY STREET BAR,Unenclosed Sidewalk Cafe,1164852,"176 1/2 MULBERRY STREET, NEW YORK, NY 10013",176 1/2,MULBERRY STREET,NEW YORK,NY,10013,Manhattan,,(212) 226-9345,199
665,MUSSELS & MORE LTD.,,Unenclosed Sidewalk Cafe,1360728,"510 80TH ST, BROOKLYN, NY 11209",510,80TH ST,BROOKLYN,NY,11209,Brooklyn,,(718) 680-4500,432
709,"MXCO CAFE, LLC",,Enclosed Sidewalk Cafe,1384455,"1491 2ND AVE, NEW YORK, NY 10075",1491,2ND AVE,NEW YORK,NY,10075,Manhattan,,(212) 765-4842,390
689,MY MOST FAVORITE 72ND ST. CORP.,MY MOST FAVORITE FOOD,Enclosed Sidewalk Cafe,1379700,"247 WEST   72 STREET, NEW YORK, NY 10023",247,WEST   72 STREET,NEW YORK,NY,10023,Manhattan,,(212) 580-5130,350
772,"MZ RESTAURANT GROUP, LLC",BURGER CLUB,Unenclosed Sidewalk Cafe,1418049,"3202 30 AVE, ASTORIA, NY 11102",3202,30 AVE,ASTORIA,NY,11102,Queens,,(347) 556-3527,466
908,NACO NYC LLC,EL TORO BLANCO,Unenclosed Sidewalk Cafe,1446392,"10 DOWNING ST, NEW YORK, NY 10014",10,DOWNING ST,NEW YORK,NY,10014,Manhattan,,(212) 645-0193,496
518,"NAHM, INC.",ROOM SERVICE,Unenclosed Sidewalk Cafe,1310316,"690 NINTH AVENUE, NEW YORK, NY 10036",690,NINTH AVENUE,NEW YORK,NY,10036,Manhattan,,(646) 331-8738,84
472,NANOOSH BROADWAY L.L.C.,NANOOSH,Unenclosed Sidewalk Cafe,1282959,"2012 BROADWAY, NEW YORK, NY 10023",2012,BROADWAY,NEW YORK,NY,10023,Manhattan,,(212) 362-7922,143
487,NARGIS CORP,NARGIS CAFE,Unenclosed Sidewalk Cafe,1287835,"2818 CONEY ISLAND AVE, BROOKLYN, NY 11235",2818,CONEY ISLAND AVE,BROOKLYN,NY,11235,Brooklyn,,(718) 872-7888,143
959,"NARICHE, LLC",VINATERIA,Unenclosed Sidewalk Cafe,1459346,"2211 FREDERICK DOUGLAS BLVD, NEW YORK, NY 10026",2211,FREDERICK DOUGLAS BLVD,NEW YORK,NY,10026,Manhattan,,(631) 424-8480,467
188,NARITA JAPANESE RESTAURANT INC.,,Unenclosed Sidewalk Cafe,1135863,"107-08 70 ROAD, FOREST HILLS, NY 11375",107-08,70 ROAD,FOREST HILLS,NY,11375,Queens,,(718) 263-2999,220
883,NCNT CORP,BUBBA'S,Unenclosed Sidewalk Cafe,1433968,"3113A DITMARS BOULEVARD, ASTORIA, NY 11105",3113A,DITMARS BOULEVARD,ASTORIA,NY,11105,Queens,,(718) 728-2227,128
263,NECF INC.,MR. DENNEHY'S,Unenclosed Sidewalk Cafe,1188879,"63 CARMINE ST, NEW YORK, NY 10014",63,CARMINE ST,NEW YORK,NY,10014,Manhattan,,(212) 414-1223,249
10,NECTAR RESTAURANT CORP,,Enclosed Sidewalk Cafe,0699252,"1090 MADISON AVENUE, NEW YORK, NY 10028",1090,MADISON AVENUE,NEW YORK,NY,10028,Manhattan,,(212) 772-0916,170
83,NERA CORP.,CAFE PICK ME UP,Unenclosed Sidewalk Cafe,0960517,"145 AVENUE A, NEW YORK, NY 10009",145,AVENUE A,NEW YORK,NY,10009,Manhattan,,(212) 673-7231,61
481,NEW KO-SUSHI JAPANESE RESTAURANT INC,KOSUSHI JAPANAESE RESTAURANT,Enclosed Sidewalk Cafe,1285670,"1329 2ND AVE, NEW YORK, NY 10021",1329,2ND AVE,NEW YORK,NY,10021,Manhattan,,(212) 439-1678,497
368,NEW MEKONG RESTAURANT CORP.,,Unenclosed Sidewalk Cafe,1234468,"16-18 KING ST, NEW YORK, NY 10014",16-18,KING ST,NEW YORK,NY,10014,Manhattan,,(212) 343-8169,260
569,NEW RESTART INC,TAORMINA,Unenclosed Sidewalk Cafe,1342588,"145 MULBERRY STREET, NEW YORK, NY 10013",145,MULBERRY STREET,NEW YORK,NY,10013,Manhattan,,(646) 221-6545,98
918,NEW YORK BEER & BEVERAGE LLC,NEW YORK BEER COMPANY,Unenclosed Sidewalk Cafe,1451137,"321 W 44TH ST, NEW YORK, NY 10036",321,W 44TH ST,NEW YORK,NY,10036,Manhattan,,(212) 245-2337,165
767,NEW YORK BEER CO LLC.,JACOB'S PICKELS,Unenclosed Sidewalk Cafe,1416762,"509 AMSTERDAM AVE, NEW YORK, NY 10024",509,AMSTERDAM AVE,NEW YORK,NY,10024,Manhattan,,(212) 574-8181,207
626,"NEW YORK FAST GOURMET PREMIER, LLC",NEW YORK BURGER CO.,Enclosed Sidewalk Cafe,1350374,"470 W 23RD ST, NEW YORK, NY 10011",470,W 23RD ST,NEW YORK,NY,10011,Manhattan,,(347) 495-6777,762
400,NICA RESTAURANT CORP,NICA TRATTORIA,Unenclosed Sidewalk Cafe,1253201,"354 E 84TH ST, NEW YORK, NY 10028",354,E 84TH ST,NEW YORK,NY,10028,Manhattan,,(212) 472-5040,83
898,NIDAJA LLC,GASTRONOMIE 491,Unenclosed Sidewalk Cafe,1440354,"491 COLUMBUS AVE, NEW YORK, NY 10024",491,COLUMBUS AVE,NEW YORK,NY,10024,Manhattan,1ST FLR,(212) 974-7871,182
27,NILO INC.& VIOLA CONSULTING LLC,MEZZOGIORNO ASSOC.,Unenclosed Sidewalk Cafe,0832737,"195 SPRING ST, NEW YORK, NY 10012",195,SPRING ST,NEW YORK,NY,10012,Manhattan,,(212) 334-2112,175
138,NINO'S TRIBECA RESTAURANT LTD,OSSO BUCO,Unenclosed Sidewalk Cafe,1057301,"1662 3 AVE, NEW YORK, NY 10128",1662,3 AVE,NEW YORK,NY,10128,Manhattan,,(212) 426-5422,154
552,NINTH AVE. KITCHEN CORP.,YUM YUM TOO,Unenclosed Sidewalk Cafe,1323532,"662 9TH AVE, NEW YORK, NY 10036",662,9TH AVE,NEW YORK,NY,10036,Manhattan,,(212) 247-228,237
589,NIPA THAI RESTAURANT CORP.,THAI SEASON,Unenclosed Sidewalk Cafe,1345730,"612 AMSTERDAM AVENUE, NEW YORK, NY 10024",612,AMSTERDAM AVENUE,NEW YORK,NY,10024,Manhattan,,(212) 721-0566,210
733,N & J OTTO BROS CORP,OTTOMANELLI GRILL,Unenclosed Sidewalk Cafe,1389811,"1325 5TH AVE, NEW YORK, NY 10029",1325,5TH AVE,NEW YORK,NY,10029,Manhattan,,(212) 772-8423,132
783,NKLG CAFE CORP.,ALIADA,Unenclosed Sidewalk Cafe,1419088,"2919 BROADWAY, ASTORIA, NY 11106",2919,BROADWAY,ASTORIA,NY,11106,Queens,,(718) 932-240,185
793,NO MOORE OYSTERS LLC,SMITH & MILLS,Unenclosed Sidewalk Cafe,1420047,"71 N MOORE ST, NEW YORK, NY 10013",71,N MOORE ST,NEW YORK,NY,10013,Manhattan,,(212) ???-????,81
341,NOOR EL HADA CORP,,Unenclosed Sidewalk Cafe,1224578,"24-25 STEINWAY STREET, QUEENS, NY 11103",24-25,STEINWAY STREET,QUEENS,NY,11103,Queens,,(718) 721-9010,228
258,NOTEWORTHY CAFE CORP,,Enclosed Sidewalk Cafe,1187200,"200 ALLEN ST, NEW YORK, NY 10002",200,ALLEN ST,NEW YORK,NY,10002,Manhattan,,(212) 260-1122,340
377,NPK DONUT INC,COURT DELI,Enclosed Sidewalk Cafe,1244698,"96 E 161TH ST, BRONX, NY 10451",96,E 161TH ST,BRONX,NY,10451,Bronx,,(718) 993-1380,556
954,NY 2178 BROADWAY OPERATING LLC,NYLO NEW YORK CITY,Unenclosed Sidewalk Cafe,1458748,"2170-2178 BROADWAY, NEW YORK, NY 10024",2170-2178,BROADWAY,NEW YORK,NY,10024,Manhattan,,(212) 362-1100,119
47,"N.Y. RESTAURANT SUPPLIES,INC.",AROUND THE CLOCK CAFE,Unenclosed Sidewalk Cafe,0911530,"8 STUYVESANT ST, NEW YORK, NY 10003",8,STUYVESANT ST,NEW YORK,NY,10003,Manhattan,1ST FLOOR,(212) 674-2516,202
819,NYS LEE INCORPORATED,SKINNY'S CANTINA,Unenclosed Sidewalk Cafe,1422486,"4705 CENTER BLVD, QUEENS, NY 11109",4705,CENTER BLVD,QUEENS,NY,11109,Queens,,(917) 613-2058,405
607,O'FLYNN ENTERPRISES LLC,LE GRAINNE CAFE,Unenclosed Sidewalk Cafe,1347356,"183 NINTH AVENUE, NEW YORK, NY 10011",183,NINTH AVENUE,NEW YORK,NY,10011,Manhattan,,(203) 246-7806,122
581,OLIO RESTAURANTS LLC,OLIO,Unenclosed Sidewalk Cafe,1344146,"3 GREENWICH AVENUE, NEW YORK, NY 10014",3,GREENWICH AVENUE,NEW YORK,NY,10014,Manhattan,,(212) 243-6546,449
112,"OLIVER KING ENTERPRISES, INC.",EMPIRE SZECHUAN VILLAGE,Enclosed Sidewalk Cafe,1007220,"173 7TH AVE S, NEW YORK, NY 10014",173,7TH AVE S,NEW YORK,NY,10014,Manhattan,,(212) 243-6046,272
631,OLIVIA AVA CORP,EDGAR'S II,Unenclosed Sidewalk Cafe,1352255,"650 AMSTERDAM AVENUE, NEW YORK, NY 10025",650,AMSTERDAM AVENUE,NEW YORK,NY,10025,Manhattan,,(212) 595-6261,117
211,OLYMPIAN SUMMIT INC.,STEINWAY BILLARDS & CAFE,Unenclosed Sidewalk Cafe,1160619,"35-25 STEINWAY STREET, LONG ISLND CITY, NY 11101",35-25,STEINWAY STREET,LONG ISLND CITY,NY,11101,Queens,,(718) 472-2124,241
968,OMNITY CONSULTING LLC,HARLEM SHAKE,Unenclosed Sidewalk Cafe,1461536,"100 WEST  124 ST, NEW YORK, NY 10027",100,WEST  124 ST,NEW YORK,NY,10027,Manhattan,,(631) 424-8480,805
145,OMONIA CAFE INC.,OMONIA CAFE,Enclosed Sidewalk Cafe,1072286,"32-20 BROADWAY, QUEENS, NY 11106",32-20,BROADWAY,QUEENS,NY,11106,Queens,,(718) 274-6650,497
706,"ONE 29 PARK, LLC",ASELLINA,Unenclosed Sidewalk Cafe,1384241,"420 PARK AVE SOUTH, NEW YORK, NY 10016",420,PARK AVE SOUTH,NEW YORK,NY,10016,Manhattan,,(212) 513-1988,318
651,OSTERIA LAGUNA LLC,OSTERIA LAGUNA,Unenclosed Sidewalk Cafe,1356304,"209 E 42ND ST, NEW YORK, NY 10017",209,E 42ND ST,NEW YORK,NY,10017,Manhattan,,(212) 557-0001,155
373,PAESANO REST. CORP.,PAESANO OF MULBERRY STREET,Unenclosed Sidewalk Cafe,1240086,"136 MULBERRY ST, NEW YORK, NY 10013",136,MULBERRY ST,NEW YORK,NY,10013,Manhattan,,(212) 965-1188,97
229,PANDBAKERY INC,LEFKOS PIRGOS COFFEE,Unenclosed Sidewalk Cafe,1166911,"22-85 31 STREET, QUEENS, NY 11105",22-85,31 STREET,QUEENS,NY,11105,Queens,,(718) 932-4423,475
914,PANERA LLC,,Unenclosed Sidewalk Cafe,1449817,"330 7TH AVE, NEW YORK, NY 10001",330,7TH AVE,NEW YORK,NY,10001,Manhattan,,(646) 473-0204,226
585,PANINI RESOURCES LLC,CORSINO,Unenclosed Sidewalk Cafe,1345390,"637 HUDSON ST, NEW YORK, NY 10014",637,HUDSON ST,NEW YORK,NY,10014,Manhattan,,(212) 242-3093,185
530,PAOLA'S RESTAURANT GROUP LLC,PAOLA'S RESTAURANT,Unenclosed Sidewalk Cafe,1313851,"1295 MADISON AVE, NEW YORK, NY 10128",1295,MADISON AVE,NEW YORK,NY,10128,Manhattan,,(212) 794-1890,216
561,PARISIENNE CAFE INCORPORATED,,Unenclosed Sidewalk Cafe,1336537,"2339 ARTHUR AVE, BRONX, NY 10458",2339,ARTHUR AVE,BRONX,NY,10458,Bronx,,(646) 402-0758,104
452,"PARK SLOPE MP COMPANY, INC",TUTTA PASTA,Unenclosed Sidewalk Cafe,1278297,"160 7TH AVE, BROOKLYN, NY 11215",160,7TH AVE,BROOKLYN,NY,11215,Brooklyn,,(718) 788-9500,125
491,PASSIONE RISTORANTE LLC,,Unenclosed Sidewalk Cafe,1289261,"1590 LEXINGTON AVE, NEW YORK, NY 10029",1590,LEXINGTON AVE,NEW YORK,NY,10029,Manhattan,,(212) 643-2616,209
703,PASTABAR CAFE CORP,VERSO,Unenclosed Sidewalk Cafe,1383047,"127 AVE C, NEW YORK, NY 10009",127,AVE C,NEW YORK,NY,10009,Manhattan,,(212) 529-7747,163
522,PASTA BISTRO GRILL INC.,PASTA BISTRO GRILL,Unenclosed Sidewalk Cafe,1311319,"93 MACDOUGAL ST, NEW YORK, NY 10012",93,MACDOUGAL ST,NEW YORK,NY,10012,Manhattan,,(212) 260-5679,98
967,"PASTAI, INC",PASTAI,Unenclosed Sidewalk Cafe,1461129,"186 9TH AVE, NEW YORK, NY 10011",186,9TH AVE,NEW YORK,NY,10011,Manhattan,,(917) 544-3972,77
792,PAUL'S CORNER INC.,MON PETIT CAFE,Unenclosed Sidewalk Cafe,1420012,"801 LEXINGTON AVE, NEW YORK, NY 10065",801,LEXINGTON AVE,NEW YORK,NY,10065,Manhattan,,(212) 355-2233,108
460,PEARLSTONE BURGER CORPORATION,BURGER BURGER,Unenclosed Sidewalk Cafe,1280649,"77 PEARL STREET, NEW YORK, NY 10004",77,PEARL STREET,NEW YORK,NY,10004,Manhattan,,(212) 269-9100,87
121,P.E.C GROUP LTD.,PEPOLINO'S,Unenclosed Sidewalk Cafe,1023699,"281 WEST BROADWAY, NEW YORK, NY 10013",281,WEST BROADWAY,NEW YORK,NY,10013,Manhattan,,(212) 966-9983,99
379,PECKSLIP RESTAURANT CORP.,MEADE'S,Unenclosed Sidewalk Cafe,1245534,"22 PECK SLIP, NEW YORK, NY 10038",22,PECK SLIP,NEW YORK,NY,10038,Manhattan,,(212) 791-1818,234
778,"PEDRO'S BAR & RESTAURANT, INC",,Unenclosed Sidewalk Cafe,1418616,"73 JAY STREET, BROOKLYN, NY 11201",73,JAY STREET,BROOKLYN,NY,11201,Brooklyn,,(718) 797-2851,280
329,PEPE'S REST. GROUP LLC.,LAS RAMBLAS,Unenclosed Sidewalk Cafe,1221449,"170 W 4TH ST, NEW YORK, NY 10014",170,W 4TH ST,NEW YORK,NY,10014,Manhattan,,(646) 415-7924,33
266,PEPRICO INC.,CACIO & PEPE,Unenclosed Sidewalk Cafe,1189217,"182 2ND AVE, NEW YORK, NY 10003",182,2ND AVE,NEW YORK,NY,10003,Manhattan,,(212) 505-5931,116
831,"PERFECT TOUCH CUISINE II, INC",,Unenclosed Sidewalk Cafe,1423678,"1148 NOSTRAND AVE, BROOKLYN, NY 11225",1148,NOSTRAND AVE,BROOKLYN,NY,11225,Brooklyn,,(347) 915-2777,213
252,PER TAVERN CORP,THE KETTLE BLACK,Enclosed Sidewalk Cafe,1179946,"8622 3 AVENUE, BROOKLYN, NY 11209",8622,3 AVENUE,BROOKLYN,NY,11209,Brooklyn,,(718) 680-7862,346
173,"PGGS GOURMET, INC",COLUMBUS GOURMET FOOD,Unenclosed Sidewalk Cafe,1111397,"261 COLUMBUS AVE, NEW YORK, NY 10023",261,COLUMBUS AVE,NEW YORK,NY,10023,Manhattan,,(212) 721-7800,234
541,PGT REST. CORP.,SLAINTE,Unenclosed Sidewalk Cafe,1318806,"304 BOWERY, NEW YORK, NY 10012",304,BOWERY,NEW YORK,NY,10012,Manhattan,,(212) 253-7030,170
419,PHILLIES PIZZERIA II INC,PHILLIES PIZZA,Enclosed Sidewalk Cafe,1270105,"7402 ELIOT AVE, QUEENS, NY 11379",7402,ELIOT AVE,QUEENS,NY,11379,Queens,,(718) 397-1340,350
336,PHILLIPOS RESTAURANT INC.,BARKING DOG LUNCHEONETTE,Unenclosed Sidewalk Cafe,1222470,"1678 3 AVE, NEW YORK, NY 10128",1678,3 AVE,NEW YORK,NY,10128,Manhattan,,(212) 831-1800,451
949,"PIACERE ENTERPRISES, LLC",PIACERE,Unenclosed Sidewalk Cafe,1458267,"351 BROOME ST, NEW YORK, NY 10013",351,BROOME ST,NEW YORK,NY,10013,Manhattan,,(347) 595-4413,170
899,PIE FACE 507 LLC,PIE FACE,Unenclosed Sidewalk Cafe,1440763,"507A 3RD AVE, NEW YORK, NY 10016",507A,3RD AVE,NEW YORK,NY,10016,Manhattan,,(860) 961-7601,308
987,PIO PIO OCHO INC,PIO PIO,Unenclosed Sidewalk Cafe,1464672,"604 10TH AVE, NEW YORK, NY 10036",604,10TH AVE,NEW YORK,NY,10036,Manhattan,,(212) 459-2929,181
183,PISTICCI RESTAURANT CORP,PISTICCI RESTAURANT,Unenclosed Sidewalk Cafe,1133801,"125 LASALLE ST, NEW YORK, NY 10027",125,LASALLE ST,NEW YORK,NY,10027,Manhattan,,(212) 932-3500,295
635,PIZZERIA UNO OF FOREST HILLS INC,UNO CHICAGO GRILL,Unenclosed Sidewalk Cafe,1352650,"107-16 70TH RD, FOREST HILLS, NY 11375",107-16,70TH RD,FOREST HILLS,NY,11375,Queens,,(718) 793-6700,214
4,P.J.COFFEE SHOP INC,CLARKE'S RESTAURANT,Enclosed Sidewalk Cafe,0623018,"80 CLARK STREET, BROOKLYN, NY 11201",80,CLARK STREET,BROOKLYN,NY,11201,Brooklyn,,(718) 855-5484,479
577,PJ'S OF LITTLE ITALY INC,PELLEGRINOS,Unenclosed Sidewalk Cafe,1343750,"138 MULBERRY ST, NEW YORK, NY 10013",138,MULBERRY ST,NEW YORK,NY,10013,Manhattan,,(212) 343-7000,65
286,PK & SON LLC,MATCH 65,Unenclosed Sidewalk Cafe,1200796,"27 E 65TH ST, NEW YORK, NY 10065",27,E 65TH ST,NEW YORK,NY,10065,Manhattan,,(212) 737-4400,102
956,PLAN A GROUP LLC,FORGTMENOT,Unenclosed Sidewalk Cafe,1458966,"138 DIVISION ST, NEW YORK, NY 10002",138,DIVISION ST,NEW YORK,NY,10002,Manhattan,,(646) 707-3195,134
311,"PLAZA PATISSERIE, INC.",,Unenclosed Sidewalk Cafe,1219506,"29-20 30TH AVE, QUEENS, NY 11102",29-20,30TH AVE,QUEENS,NY,11102,Queens,,(718) 726-2447,476
716,"PLOUTARXOS, INC.",AGORA TAVERNA,Unenclosed Sidewalk Cafe,1385297,"70-09 AUSTIN ST, QUEENS, NY 11375",70-09,AUSTIN ST,QUEENS,NY,11375,Queens,,(718) 793-7300,481
271,PMC CORP,VERTIGO,Enclosed Sidewalk Cafe,1190138,"354 THIRD AVENUE, NEW YORK, NY 10010",354,THIRD AVENUE,NEW YORK,NY,10010,Manhattan,,(212) 696-1011,336
261,POINT JUDITH LLC,MERMAID INN,Unenclosed Sidewalk Cafe,1188827,"96 2ND AVE, NEW YORK, NY 10003",96,2ND AVE,NEW YORK,NY,10003,Manhattan,,(212) 465-9500,146
506,POLLOS MARIO WOODHAVEN CORP.,POLLOS MARIO,Enclosed Sidewalk Cafe,1305734,"6320 WOODHAVEN BLVD, QUEENS, NY 11374",6320,WOODHAVEN BLVD,QUEENS,NY,11374,Queens,,(718) 565-2055,412
384,PONENTE LLC,NIZZA,Unenclosed Sidewalk Cafe,1248301,"628 9TH AVENUE, NEW YORK, NY 10036",628,9TH AVENUE,NEW YORK,NY,10036,Manhattan,,(212) 956-1800,249
221,PORTICI RESTAURANT INC,44 SOUTHWEST,Unenclosed Sidewalk Cafe,1163815,"621 9TH AVE, NEW YORK, NY 10036",621,9TH AVE,NEW YORK,NY,10036,Manhattan,,(212) 315-4582,268
331,PORTO RESTAURANT INC.,HOLLYWOOD DINER,Unenclosed Sidewalk Cafe,1221677,"574 6TH AVE, NEW YORK, NY 10011",574,6TH AVE,NEW YORK,NY,10011,Manhattan,,(212) 691-8465,185
243,POSTO INC.,,Unenclosed Sidewalk Cafe,1172166,"310 SECOND AVENUE, NEW YORK, NY 10003",310,SECOND AVENUE,NEW YORK,NY,10003,Manhattan,,(212) 807-7800,273
840,"POUNDS & OUNCES, LLC",POUNDS & OUNCES,Unenclosed Sidewalk Cafe,1424891,"160 8TH AVE, NEW YORK, NY 10011",160,8TH AVE,NEW YORK,NY,10011,Manhattan,,(917) 957-1022,498
620,"POY LAUNG THAI RESTAURANT,INC.",TAI THAI,Unenclosed Sidewalk Cafe,1349191,"206 BEDFORD AVENUE, BROOKLYN, NY 11211",206,BEDFORD AVENUE,BROOKLYN,NY,11211,Brooklyn,,(718) 599-5556,52
695,PPB PUB LTD,MEXIBBQ,Unenclosed Sidewalk Cafe,1381569,"37-11/13 30TH AVE, ASTORIA, NY 11103",37-11/13,30TH AVE,ASTORIA,NY,11103,Queens,,(718) 626-0033,390
760,"PQ 53RD STREET, INC.",LE PAIN QUOTIDIEN,Unenclosed Sidewalk Cafe,1414267,"7 E 53RD ST, NEW YORK, NY 10022",7,E 53RD ST,NEW YORK,NY,10022,Manhattan,,(212) 359-9000,48
424,PQ 550 HUDSON INC,LE PAIN QUOTIDIEN,Unenclosed Sidewalk Cafe,1274769,"550 HUDSON ST, NEW YORK, NY 10014",550,HUDSON ST,NEW YORK,NY,10014,Manhattan,,(212) 359-9000,328
931,PQ 933 BROADWAY INC,LE PAIN QUOTIDIEN,Unenclosed Sidewalk Cafe,1454646,"929-933 BROADWAY, NEW YORK, NY 10010",929-933,BROADWAY,NEW YORK,NY,10010,Manhattan,,(212) 359-9024,126
991,"PQ EAST 83RD ST, INC",LE PAIN QUOTIDIEN,Unenclosed Sidewalk Cafe,1465870,"1592 1 AVENUE, NEW YORK, NY 10028",1592,1 AVENUE,NEW YORK,NY,10028,Manhattan,,(212) 359-9000,226
396,PQ FIRST INC,LE PAIN QUOTIDIEN,Unenclosed Sidewalk Cafe,1251803,"1270 1 AVENUE, NEW YORK, NY 10065",1270,1 AVENUE,NEW YORK,NY,10065,Manhattan,,(212) 359-9000,126
705,PQ MEATPACKING DISTRICT INC,LE PAIN QUOTIDIEN,Unenclosed Sidewalk Cafe,1384166,"52 9TH AVE, NEW YORK, NY 10011",52,9TH AVE,NEW YORK,NY,10011,Manhattan,,(212) 359-9000,102
985,"PQ PARK SLOPE, INC.",LE PAIN QUOTIDIEN,Unenclosed Sidewalk Cafe,1464033,"239 5TH AVE, BROOKLYN, NY 11215",239,5TH AVE,BROOKLYN,NY,11215,Brooklyn,,(212) 359-900,254
691,"PQ UNION SQUARE, INC",LE PAIN QUOTIDIEN,Unenclosed Sidewalk Cafe,1380933,"801 BROADWAY, NEW YORK, NY 10003",801,BROADWAY,NEW YORK,NY,10003,Manhattan,,(212) 359-9000,529
443,PQ UPPER WEST INC,LE PAIN QUOTIDIEN,Unenclosed Sidewalk Cafe,1277778,"2463 BROADWAY, NEW YORK, NY 10025",2463,BROADWAY,NEW YORK,NY,10025,Manhattan,,(212) 359-9000,171
290,"PQ WEST 84TH, INC.",LE PAIN QUOTIDIEN,Unenclosed Sidewalk Cafe,1207810,"494 AMSTERDAM AVE, NEW YORK, NY 10024",494,AMSTERDAM AVE,NEW YORK,NY,10024,Manhattan,,(212) 359-9000,202
978,PRET A MANGER (USA) LIMITED,PRET A MANGER,Unenclosed Sidewalk Cafe,1463006,"205 E 42ND ST, NEW YORK, NY 10017",205,E 42ND ST,NEW YORK,NY,10017,Manhattan,,(212) 867-1905,107
971,PRET A MANGER (USA) LTD,PRET A MANGER,Unenclosed Sidewalk Cafe,1462339,"350 HUDSON ST, NEW YORK, NY 10014",350,HUDSON ST,NEW YORK,NY,10014,Manhattan,,(212) 847-0421,421
972,PRET A MANGER (USA) LTD,PRET A MANGER,Unenclosed Sidewalk Cafe,1462355,"821 BROADWAY, NEW YORK, NY 10017",821,BROADWAY,NEW YORK,NY,10017,Manhattan,,(212) 673-6898,235
492,PROGETTO INC.,ETCETERA ETCETERA RESTAURANT,Unenclosed Sidewalk Cafe,1289268,"352 W 44TH ST, NEW YORK, NY 10036",352,W 44TH ST,NEW YORK,NY,10036,Manhattan,,(212) 399-4141,106
881,PROSPECT RESTAURANT LLC,PROSPECT,Unenclosed Sidewalk Cafe,1433784,"773 FULTON ST, BROOKLYN, NY 11217",773,FULTON ST,BROOKLYN,NY,11217,Brooklyn,,(917) 750-8760,109
495,PRY RESTAURANT CORP,DRESNERS,Enclosed Sidewalk Cafe,1292658,"1479 YORK AVENUE, NEW YORK, NY 10075",1479,YORK AVENUE,NEW YORK,NY,10075,Manhattan,,(212) 988-5153,189
236,"PS BROTHERS GOURMET, INC.",INDUS VALLEY,Enclosed Sidewalk Cafe,1169442,"2636 BROADWAY, NEW YORK, NY 10025",2636,BROADWAY,NEW YORK,NY,10025,Manhattan,,(212) 222-9222,200
799,QUALITY EDIBLES LLC,GELATO TI AMO,Unenclosed Sidewalk Cafe,1420814,"68 2ND AVE, NEW YORK, NY 10003",68,2ND AVE,NEW YORK,NY,10003,Manhattan,,(718) 607-8306,89
945,QUIMERA RESTAURANT GROUP LLC,BARRACA,Unenclosed Sidewalk Cafe,1457681,"81 GREENWICH AVE, NEW YORK, NY 10014",81,GREENWICH AVE,NEW YORK,NY,10014,Manhattan,,(631) 424-8480,339
95,RADIANTE LLC,CITY HALL RESTAURANT,Unenclosed Sidewalk Cafe,0980100,"131 DUANE ST, NEW YORK, NY 10013",131,DUANE ST,NEW YORK,NY,10013,Manhattan,,(212) 406-9038,382
69,R&A EAST 16TH ASSOCIATES,CHAT 'N CHEW,Unenclosed Sidewalk Cafe,0943587,"10 EAST   16 ST, NEW YORK, NY 10003",10,EAST   16 ST,NEW YORK,NY,10003,Manhattan,,(212) 661-1313,85
158,RAGUBOY CORP.,SUPPER,Unenclosed Sidewalk Cafe,1097153,"156 E 2ND ST, NEW YORK, NY 10009",156,E 2ND ST,NEW YORK,NY,10009,Manhattan,,(212) 477-7600,162
153,"RAJMAR HOLDINGS, INC.",HUDSON BAR AND BOOKS,Unenclosed Sidewalk Cafe,1092103,"636 HUDSON ST, NEW YORK, NY 10014",636,HUDSON ST,NEW YORK,NY,10014,Manhattan,,(212) 355-9888,80
280,RAMBLING HOUSE INC,TARA HILL,Unenclosed Sidewalk Cafe,1192697,"4292 KATONAH AVE, BRONX, NY 10470",4292,KATONAH AVE,BRONX,NY,10470,Bronx,,(718) 798-4510,300
449,RAM EATS LLC,BLOCKHEADS BURRITOS,Unenclosed Sidewalk Cafe,1277938,"951 AMSTERDAM AVE, NEW YORK, NY 10025",951,AMSTERDAM AVE,NEW YORK,NY,10025,Manhattan,,(212) 662-8226,137
833,"RANA USA, LLC",GIOVANNI RANA RESTAURANT,Unenclosed Sidewalk Cafe,1423785,"75 9TH AVE, NEW YORK, NY 10011",75,9TH AVE,NEW YORK,NY,10011,Manhattan,,(212) 370-0975,304
785,RANCHO VIDA LLC,,Unenclosed Sidewalk Cafe,1419343,"570-572 AMSTERDAM AVE, NEW YORK, NY 10024",570-572,AMSTERDAM AVE,NEW YORK,NY,10024,Manhattan,,(212) 362-1514,252
85,R ANGEL INC,MCDONALD'S,Enclosed Sidewalk Cafe,0970546,"5725 ROOSEVELT AVE, WOODSIDE, NY 11377",5725,ROOSEVELT AVE,WOODSIDE,NY,11377,Queens,,(631) 698-4788,176
787,RARO INC,RAFELE,Unenclosed Sidewalk Cafe,1419407,"29 7 AVE S, NEW YORK, NY 10014",29,7 AVE S,NEW YORK,NY,10014,Manhattan,,(212) 253-1373,351
465,RAYNICK CORP,MOLE,Unenclosed Sidewalk Cafe,1281981,"205 ALLEN ST, NEW YORK, NY 10002",205,ALLEN ST,NEW YORK,NY,10002,Manhattan,,(212) 289-8226,54
844,RAYRAY THAI INC.,NATIONAL THAI RESTAURANT,Unenclosed Sidewalk Cafe,1425803,"723 FULTON ST, BROOKLYN, NY 11217",723,FULTON ST,BROOKLYN,NY,11217,Brooklyn,,(718) 522-3510,160
300,RBG VILLAGE LLC,TAVERN ON 3RD,Unenclosed Sidewalk Cafe,1217616,"380 3RD AVE, NEW YORK, NY 10016",380,3RD AVE,NEW YORK,NY,10016,Manhattan,,(917) 589-7089,138
161,RDK RESTAURANT CORP.,BISTRO LES AMIS,Unenclosed Sidewalk Cafe,1101999,"180 SPRING ST, NEW YORK, NY 10012",180,SPRING ST,NEW YORK,NY,10012,Manhattan,,(212) 226-8645,298
174,REBA REALTY CORP.,WALKER'S,Unenclosed Sidewalk Cafe,1116343,"16 N MOORE ST, NEW YORK, NY 10013",16,N MOORE ST,NEW YORK,NY,10013,Manhattan,,(212) 941-0142,488
538,RECTOR STREET FOOD ENTERPRISES LTD.,GEORGE'S,Unenclosed Sidewalk Cafe,1315977,"11 RECTOR ST, NEW YORK, NY 10006",11,RECTOR ST,NEW YORK,NY,10006,Manhattan,87-89 GREENWICH STREET,(212) 269-8026,140
502,"RED BAMBOO ON 7TH AVENUE, INC",,Enclosed Sidewalk Cafe,1301309,"47-49 7 AVENUE SOUTH, NEW YORK, NY 10014",47-49,7 AVENUE SOUTH,NEW YORK,NY,10014,Manhattan,,(212) 255-2848,735
205,RED MULBERRY LTD,SAMBUCA'S,Unenclosed Sidewalk Cafe,1158751,"105 MULBERRY ST, NEW YORK, NY 10013",105,MULBERRY ST,NEW YORK,NY,10013,Manhattan,,(212) 431-0408,145
217,REMEDY BAR GROUP LLC,UPTOWN,Unenclosed Sidewalk Cafe,1161913,"1576 3RD AVE, NEW YORK, NY 10128",1576,3RD AVE,NEW YORK,NY,10128,Manhattan,,(212) 858-1388,190
176,RENOLTA LLC,NICE MATIN,Unenclosed Sidewalk Cafe,1125981,"201 WEST   79 ST, NEW YORK, NY 10024",201,WEST   79 ST,NEW YORK,NY,10024,Manhattan,,(212) 573-1988,820
461,RESTAURANT 101 INC.,DYCKMAN EXPRESS RESTAURANT,Unenclosed Sidewalk Cafe,1281025,"101B DYCKMAN ST, NEW YORK, NY 10040",101B,DYCKMAN ST,NEW YORK,NY,10040,Manhattan,,(212) 567-2288,311
50,RESTAURANT 597 INC.,BUS STOP,Unenclosed Sidewalk Cafe,0918358,"597 HUDSON ST, NEW YORK, NY 10014",597,HUDSON ST,NEW YORK,NY,10014,Manhattan,,(212) 206-1100,297
58,"RESTAURANT VENTURES OF NY,INC.",SAVORE RISTORANTE,Unenclosed Sidewalk Cafe,0920983,"200 SPRING ST, NEW YORK, NY 10012",200,SPRING ST,NEW YORK,NY,10012,Manhattan,,(212) 431-1212,293
650,RIGOLETTO LLC,5 NAPKIN BURGER,Unenclosed Sidewalk Cafe,1356065,"3501 36 STREET, L.I.C., NY 11106",3501,36 STREET,L.I.C.,NY,11106,Queens,,(212) 333-2323,778
108,RIOMAR CORP,KANA,Unenclosed Sidewalk Cafe,1003195,"324 SPRING ST, SOHO, NY 10013",324,SPRING ST,SOHO,NY,10013,Manhattan,,(212) 343-8180,119
603,RIVER BARREL INC,MRS. KIM'S,Unenclosed Sidewalk Cafe,1346892,"87 KENT ST, BROOKLYN, NY 11222",87,KENT ST,BROOKLYN,NY,11222,Brooklyn,,(718) 349-3263,175
398,RIZ BAGELS INC.,,Enclosed Sidewalk Cafe,1252836,"57-20 WOODSIDE AVENUE, WOODSIDE, NY 11377",57-20,WOODSIDE AVENUE,WOODSIDE,NY,11377,Queens,,(718) 803-3595,306
113,"ROCCO'S ITALIAN CAFETERIA,INC.",ROCCO'S ITALIAN CAFETERIA,Unenclosed Sidewalk Cafe,1008741,"6408 FORT HAMILTON PKWY, BROOKLYN, NY 11219",6408,FORT HAMILTON PKWY,BROOKLYN,NY,11219,Brooklyn,,(718) 833-2109,402
9,ROLL-N-ROASTER CORP.,,Enclosed Sidewalk Cafe,0698346,"2901 EMMONS AVENUE, BROOKLYN, NY 11235",2901,EMMONS AVENUE,BROOKLYN,NY,11235,Brooklyn,,(718) 769-5831,260
861,ROMAGICA CORP,CELESTE,Enclosed Sidewalk Cafe,1429718,"502 AMSTERDAM AVENUE, NEW YORK, NY 10024",502,AMSTERDAM AVENUE,NEW YORK,NY,10024,Manhattan,,(212) 874-4559,112
435,ROMANOS FAMOUS PIZZA CORP.,,Unenclosed Sidewalk Cafe,1277441,"32-21 BROADWAY, LIC, NY 11106",32-21,BROADWAY,LIC,NY,11106,Queens,,(718) 626-5292,423
615,"ROTHMANN'S 54TH STREET, LLC",ROTHMANN'S,Unenclosed Sidewalk Cafe,1348207,"3 EAST   54 STREET, NEW YORK, NY 10022",3,EAST   54 STREET,NEW YORK,NY,10022,Manhattan,,(212) 319-550,147
521,"SABOR LATINO I,CORP",SABOR LATINORESTAURANT,Unenclosed Sidewalk Cafe,1311161,"9535 40TH RD, QUEENS, NY 11373",9535,40TH RD,QUEENS,NY,11373,Queens,,(718) 457-3966,315
523,SABROSURA RESTAURANT INC.,SABROSURA RESTAURANT INC,Enclosed Sidewalk Cafe,1311514,"1200 CASTLE HILL AVE, BRONX, NY 10462",1200,CASTLE HILL AVE,BRONX,NY,10462,Bronx,,(718) 597-1344,603
86,SAC'S PIZZA PLACE INC.,SAC'S PLACE,Enclosed Sidewalk Cafe,0974443,"25-41 BROADWAY, ASTORIA, NY 11106",25-41,BROADWAY,ASTORIA,NY,11106,Queens,,(718) 204-5002,346
764,SAGI RESTAURANT CORP,FRANCESA LA VELA CUCINA ITALIANA,Unenclosed Sidewalk Cafe,1416326,"373 AMSTERDAM AVENUE, NEW YORK, NY 10024",373,AMSTERDAM AVENUE,NEW YORK,NY,10024,Manhattan,,(212) 877-7718,140
366,SALVATORE'S CORP.,COPPOLAS,Unenclosed Sidewalk Cafe,1233901,"378 THIRD AVENUE, NEW YORK, NY 10016",378,THIRD AVENUE,NEW YORK,NY,10016,Manhattan,,(212) 679-0070,109
682,SALVATORES OF SOHO INC,SALVATORES OF SOHO,Unenclosed Sidewalk Cafe,1377344,"3738 RIVERDALE AVE, BRONX, NY 10463",3738,RIVERDALE AVE,BRONX,NY,10463,Bronx,,(917) 578-5461,380
225,SAL & VIK CORP.,BELLA VIA RESTAURANT,Unenclosed Sidewalk Cafe,1165566,"47-46 VERNON BOULEVARD, LIC, NY 11101",47-46,VERNON BOULEVARD,LIC,NY,11101,Queens,,(718) 361-7510,392
7,SANGE REST. INC.,TIO PEPE            S/C #215,Enclosed Sidewalk Cafe,0693313,"168 WEST 4 ST, NEW YORK, NY 10014",168,WEST 4 ST,NEW YORK,NY,10014,Manhattan,,(212) 675-5097,129
946,SARABETH'S PAS LLC,SARABETH'S,Unenclosed Sidewalk Cafe,1457685,"381 PARK AVENUE S, NEW YORK, NY 10016",381,PARK AVENUE S,NEW YORK,NY,10016,Manhattan,,(917) 923-9995,547
457,S.A.V. ASSOCIATES INC.,TURKVAZ,Unenclosed Sidewalk Cafe,1280169,"2637 BROADWAY, NEW YORK, NY 10025",2637,BROADWAY,NEW YORK,NY,10025,Manhattan,,(212) 665-1141,264
696,SBAFO NYC LLC,LIEVITO PIZZERIA,Unenclosed Sidewalk Cafe,1381707,"581 HUDSON STREET, NEW YORK, NY 10014",581,HUDSON STREET,NEW YORK,NY,10014,Manhattan,,(212) 645-5811,188
267,"SBCPS,LLC",SARABETH'S,Unenclosed Sidewalk Cafe,1189655,"40 CENTRAL PARK S, NY, NY 10019",40,CENTRAL PARK S,NY,NY,10019,Manhattan,,(212) 826-5959,256
403,SCENIC ROUTE 66 CAFE INC,ROUTE 66 CAFE,Unenclosed Sidewalk Cafe,1254413,"858 9TH AVE, NEW YORK, NY 10019",858,9TH AVE,NEW YORK,NY,10019,Manhattan,,(212) 977-7600,115
408,SCHATZI CORP.,WALLSE,Unenclosed Sidewalk Cafe,1257073,"342-344 W 11TH ST, NEW YORK, NY 10014",342-344,W 11TH ST,NEW YORK,NY,10014,Manhattan,,(212) 352-2300,270
721,SCODITTI CONSULTING GROUP INC,BRIO DOWNTOWN NYC,Unenclosed Sidewalk Cafe,1387415,"920 BROADWAY, NEW YORK, NY 10010",920,BROADWAY,NEW YORK,NY,10010,Manhattan,,(212) 673-2121,380
743,"SDNY 19 MAD PARK, LLC",SD26,Unenclosed Sidewalk Cafe,1394111,"19 E 26TH ST, NEW YORK, NY 10010",19,E 26TH ST,NEW YORK,NY,10010,Manhattan,,(212) 265-5959,148
433,SENGUPTA FOOD SERVICES LLC,SOHO PARK,Unenclosed Sidewalk Cafe,1277362,"62 PRINCE ST, NEW YORK, NY 10012",62,PRINCE ST,NEW YORK,NY,10012,Manhattan,,(212) 219-2129,255
773,"SERAFINA 77 WEST, LLC",SERAFINA,Unenclosed Sidewalk Cafe,1418144,"2178 BROADWAY, NEW YORK, NY 10024",2178,BROADWAY,NEW YORK,NY,10024,Manhattan,,(631) 424-8480,847
237,SERAFINA BROADWAY LTD,,Unenclosed Sidewalk Cafe,1169547,"210 W 55TH ST, NEW YORK, NY 10019",210,W 55TH ST,NEW YORK,NY,10019,Manhattan,,(212) 315-1700,537
779,SERAFINA MEATPACKING LLC,,Unenclosed Sidewalk Cafe,1418637,"7 9TH AVE, NEW YORK, NY 10014",7,9TH AVE,NEW YORK,NY,10014,Manhattan,,(631) 424-8480,405
246,SERVICE CORP,JACQUES RESTAURANT,Unenclosed Sidewalk Cafe,1173208,"20 PRINCE ST, NEW YORK, NY 10012",20,PRINCE ST,NEW YORK,NY,10012,Manhattan,,(212) 966-8886,118
67,"SEVENTH AVENUE TOMATO,INC.",RESTIVO RISTORANTE,Unenclosed Sidewalk Cafe,0936261,"209 7 AVENUE, NEW YORK, NY 10011",209,7 AVENUE,NEW YORK,NY,10011,Manhattan,,(212) 366-4133,272
537,S. G. M. G. CORP.,FULL MOON PIZZERIA,Unenclosed Sidewalk Cafe,1315889,"600 E 187TH ST, BRONX, NY 10458",600,E 187TH ST,BRONX,NY,10458,Bronx,,(718) 584-3451,349
469,SHAKE SHACK 366 COLUMBUS LLC,SHAKE SHACK,Enclosed Sidewalk Cafe,1282506,"366 COLUMBUS AVE, NEW YORK, NY 10024",366,COLUMBUS AVE,NEW YORK,NY,10024,Manhattan,,(212) 227-1771,431
731,"SHAKE SHACK FULTON STREET BROOKLYN, LLC",SHAKE SHACK,Enclosed Sidewalk Cafe,1389508,"409 FULTON ST, BROOKLYN, NY 11201",409,FULTON ST,BROOKLYN,NY,11201,Brooklyn,,(646) 747-7212,613
667,SHALIZAR LLC,PERSEPOLIS,Unenclosed Sidewalk Cafe,1361517,"1407 2ND AVE, NEW YORK, NY 10021",1407,2ND AVE,NEW YORK,NY,10021,Manhattan,,(212) 535-1100,195
397,SHANGRILA DELI CORP,SHANGRILA DELI,Enclosed Sidewalk Cafe,1251807,"228 FORT WASHINGTON AVE, NEW YORK, NY 10032",228,FORT WASHINGTON AVE,NEW YORK,NY,10032,Manhattan,,(212) 927-6685,262
434,SHANNON CAFE LLC,PIG N WHISTLE ON 2ND,Unenclosed Sidewalk Cafe,1277414,"951 2ND AVE, NEW YORK, NY 10022",951,2ND AVE,NEW YORK,NY,10022,Manhattan,,(917) 543-2948,113
553,"SHARAKU, INC",,Enclosed Sidewalk Cafe,1323624,"14 STUYVESANT ST, NEW YORK, NY 10003",14,STUYVESANT ST,NEW YORK,NY,10003,Manhattan,,(212) 598-0403,254
839,"SHELBURNE BAR AND GRILL, INC.",THE IRISH PUB,Unenclosed Sidewalk Cafe,1424846,"837 7TH AVE, NEW YORK, NY 10019",837,7TH AVE,NEW YORK,NY,10019,Manhattan,,(212) 664-9364,192
275,SHIRT RESTAURANT CORP,ISLAND,Unenclosed Sidewalk Cafe,1191523,"1305 MADISON AVENUE, NEW YORK, NY 10128",1305,MADISON AVENUE,NEW YORK,NY,10128,Manhattan,,(212) 996-1200,83
90,SIBECA CORPORATION,POLLOS MARIO,Enclosed Sidewalk Cafe,0978206,"40-19 BROADWAY, ASTORIA, NY 11103",40-19,BROADWAY,ASTORIA,NY,11103,Queens,,(718) 932-2424,366
432,SIGGY'S GOOD FOOD L.L.C.,,Unenclosed Sidewalk Cafe,1277182,"76 HENRY ST, BROOKLYN, NY 11201",76,HENRY ST,BROOKLYN,NY,11201,Brooklyn,,(718) 237-3199,158
882,SIGNATURE 102 NORTH END AVE LLC,NORTH END GRILL,Unenclosed Sidewalk Cafe,1433949,"102 N END AVE, NEW YORK, NY 10282",102,N END AVE,NEW YORK,NY,10282,Manhattan,,(646) 747-1600,462
859,SILO EAST INC,SOCARRAT EAST,Unenclosed Sidewalk Cafe,1429319,"953 2ND AVE, NEW YORK, NY 10022",953,2ND AVE,NEW YORK,NY,10022,Manhattan,,(917) 572-9916,42
333,SILVER MOON BAKERY INC.,,Unenclosed Sidewalk Cafe,1222176,"2740 BROADWAY, NEW YORK, NY 10025",2740,BROADWAY,NEW YORK,NY,10025,Manhattan,,(212) 866-4717,261
942,"SIMMONS PROVISIONS OF NY, LLC",KIWIANA,Unenclosed Sidewalk Cafe,1456771,"847A UNION ST, BROOKLYN, NY 11215",847A,UNION ST,BROOKLYN,NY,11215,Brooklyn,,(718) 230-3682,83
186,SKIPWELL CORP,BISTRO TEN-18,Unenclosed Sidewalk Cafe,1133929,"1018 AMSTERDAM AVENUE, NEW YORK, NY 10025",1018,AMSTERDAM AVENUE,NEW YORK,NY,10025,Manhattan,,(212) 662-7600,271
406,SLD DELI GRILL INC,GRACIES'S CAFE,Unenclosed Sidewalk Cafe,1256574,"1530 YORK AVENUE, NEW YORK, NY 10028",1530,YORK AVENUE,NEW YORK,NY,10028,Manhattan,,(212) 517-2667,418
483,SL & H BAGEL INC.,BAGAL EXPRESS II,Unenclosed Sidewalk Cafe,1286845,"1228 2ND AVE, NEW YORK, NY 10065",1228,2ND AVE,NEW YORK,NY,10065,Manhattan,,(212) 879-3960,208
602,"SLICE WEST VILLAGE, LTD.",WILD,Unenclosed Sidewalk Cafe,1346838,"535 HUDSON ST, NEW YORK, NY 10014",535,HUDSON ST,NEW YORK,NY,10014,Manhattan,,(212) 929-2920,193
209,SMOKE CITY ENTERPRISES LLC,NATIVE,Unenclosed Sidewalk Cafe,1159785,"161 LENOX AVE, NEW YORK, NY 10026",161,LENOX AVE,NEW YORK,NY,10026,Manhattan,101 W 118TH ST,(212) 665-2525,503
363,SMORGAS CHEF WEST VILLAGE LLC,,Unenclosed Sidewalk Cafe,1233131,"283 WEST   12 STREET, NEW YORK, NY 10014",283,WEST   12 STREET,NEW YORK,NY,10014,Manhattan,,(646) 209-9633,275
802,SNOWDAY LLC,THE SKYLARK,Unenclosed Sidewalk Cafe,1420950,"477 5TH AVE, BROOKLYN, NY 11215",477,5TH AVE,BROOKLYN,NY,11215,Brooklyn,,(347) 564-3364,236
981,SOFIA 61ST STREET CORP.,SERAFINA,Unenclosed Sidewalk Cafe,1463548,"33 EAST 61ST ST, NEW YORK, NY 10065",33,EAST 61ST ST,NEW YORK,NY,10065,Manhattan,,(212) 315-1700,81
924,SOH PEACE INC,FUKUROU,Unenclosed Sidewalk Cafe,1452982,"87 MACDOUGAL ST, NEW YORK, NY 10012",87,MACDOUGAL ST,NEW YORK,NY,10012,Manhattan,,(646) 244-6911,108
678,SOI 30 INC.,SOI 30 THAI,Enclosed Sidewalk Cafe,1375450,"430 3RD AVE, NEW YORK, NY 10016",430,3RD AVE,NEW YORK,NY,10016,Manhattan,,(212) 481-5211,233
342,"SOL'S RESTAURANT,INC",IL SOLE,Unenclosed Sidewalk Cafe,1224759,"233 DYCKMAN ST, NEW YORK, NY 10034",233,DYCKMAN ST,NEW YORK,NY,10034,Manhattan,,(212) 544-0406,542
304,SOL Y SOMBRE LTD,,Unenclosed Sidewalk Cafe,1218320,"462 AMSTERDAM AVE, NEW YORK, NY 10024",462,AMSTERDAM AVE,NEW YORK,NY,10024,Manhattan,,(212) 400-4036,120
630,SONNY LOU INC,,Unenclosed Sidewalk Cafe,1351690,"253 10 AVE, NEW YORK, NY 10001",253,10 AVE,NEW YORK,NY,10001,Manhattan,,(646) 552-9587,91
448,SO-TAUN ENTERPRISES LLC,WAVE THAI,Unenclosed Sidewalk Cafe,1277928,"21-37 31ST ST, QUEENS, NY 11105",21-37,31ST ST,QUEENS,NY,11105,Queens,,(718) 777-6789,129
392,SOUP KITCHEN ASSOC. LTD.,BISTRO 33,Unenclosed Sidewalk Cafe,1250759,"19-33 DITMARS BOULEVARD, ASTORIA, NY 11105",19-33,DITMARS BOULEVARD,ASTORIA,NY,11105,Queens,,(718) 721-1933,555
820,SOUTH ELLIOTT BK LLC, BERLYN,Unenclosed Sidewalk Cafe,1422648,"25 LAFAYETTE AVE, BROOKLYN, NY 11217",25,LAFAYETTE AVE,BROOKLYN,NY,11217,Brooklyn,,(718) 222-5800,315
857,SOUTH LAKE HOSPITALITY GROUP INC,HARLEM PUBLIC,Unenclosed Sidewalk Cafe,1428232,"3612 BROADWAY, NEW YORK, NY 10031",3612,BROADWAY,NEW YORK,NY,10031,Manhattan,,(201) 230-2574,113
763,SPRING NATURAL CORP,SPRING NATURAL KITCHEN,Unenclosed Sidewalk Cafe,1415817,"474-476 COLUMBUS AVE, NEW YORK, NY 10024",474-476,COLUMBUS AVE,NEW YORK,NY,10024,Manhattan,,(201) 280-1978,233
265,STANTON RESTAURANT CORP,EPSTEIN BAR,Unenclosed Sidewalk Cafe,1189213,"82 STANTON STREET, NEW YORK, NY 10002",82,STANTON STREET,NEW YORK,NY,10002,Manhattan,,(212) 477-2232,241
61,STARBUCKS CORPORATION,STARBUCKS COFFEE COMPANY,Enclosed Sidewalk Cafe,0924582,"454 LAFAYETTE ST, NEW YORK, NY 10003",454,LAFAYETTE ST,NEW YORK,NY,10003,Manhattan,STORE #825_AKA 13-25 ASTOR PLACE,(206) 318-4048,947
60,STARBUCKS CORPORATION,STARBUCKS COFFEE CO. #818,Enclosed Sidewalk Cafe,0924263,"1559 2 AVENUE, NEW YORK, NY 10028",1559,2 AVENUE,NEW YORK,NY,10028,Manhattan,,(206) 318-4048,439
369,STARBUCKS CORPORATION,STARBUCKS COFFEE COMPANY,Enclosed Sidewalk Cafe,1237141,"7419 3 AVENUE, BROOKLYN, NY 11209",7419,3 AVENUE,BROOKLYN,NY,11209,Brooklyn,,(212) 613-1280,260
364,STARBUCKS CORPORATION,STARBUCKS COFFEE,Unenclosed Sidewalk Cafe,1233396,"145 2ND AVE, NEW YORK, NY 10003",145,2ND AVE,NEW YORK,NY,10003,Manhattan,,(718) 921-2736,232
852,STARBUCKS CORPORATION,STARBUCKS COFFEE COMPANY,Unenclosed Sidewalk Cafe,1427775,"1515 YORK AVE, NEW YORK, NY 10028",1515,YORK AVE,NEW YORK,NY,10028,Manhattan,AKA 443 E 80TH ST,(212) 982-3566,671
485,STEVEN JAY LLC,PARLOR STEAKHOUSE,Enclosed Sidewalk Cafe,1287124,"1600 THIRD AVENUE, NEW YORK, NY 10128",1600,THIRD AVENUE,NEW YORK,NY,10128,Manhattan,,(212) 423-5888,300
507,"STEVEN JAY, LLC",PARLOR,Unenclosed Sidewalk Cafe,1306814,"1600 3 AVENUE, NEW YORK, NY 10128",1600,3 AVENUE,NEW YORK,NY,10128,Manhattan,,(914) 476-588,308
510,"STINKY VINE, LLC",THE JAKEWALK,Unenclosed Sidewalk Cafe,1308519,"282 SMITH STREET, BROOKLYN, NY 11231",282,SMITH STREET,BROOKLYN,NY,11231,Brooklyn,,(718) 875-1500,190
91,ST. JAMES ASSOCIATES LP,SMITH & WOLLENSKY,Unenclosed Sidewalk Cafe,0978960,"201 E 49TH ST, NEW YORK, NY 10017",201,E 49TH ST,NEW YORK,NY,10017,Manhattan,,(212) 753-1530,214
92,"ST. JAMES ASSOCIATES, LP",SMITH & WOLLENSKY,Enclosed Sidewalk Cafe,0978961,"201 EAST   49 STREET, NEW YORK, NY 10017",201,EAST   49 STREET,NEW YORK,NY,10017,Manhattan,,(212) 753-1530,334
745,"ST. JUDE ENTERPRISES, LLC",BENITO ONE,Unenclosed Sidewalk Cafe,1394721,"174 MULBERRY ST, NEW YORK, NY 10013",174,MULBERRY ST,NEW YORK,NY,10013,Manhattan,,(212) 226-9171,66
886,STOKES & MCGINLEY INC,,Unenclosed Sidewalk Cafe,1435075,"800 9TH AVE, NEW YORK, NY 10019",800,9TH AVE,NEW YORK,NY,10019,Manhattan,,(917) 929-0363,140
227,STONE PARK CORNER LLC,STONE PARK CAFE,Unenclosed Sidewalk Cafe,1166206,"324 FIFTH AVENUE, BROOKLYN, NY 11215",324,FIFTH AVENUE,BROOKLYN,NY,11215,Brooklyn,,(718) 369-0082,238
976,STRANGERS FORTUNE LLC,PASSENGER,Unenclosed Sidewalk Cafe,1462684,"229 ROEBLING ST, BROOKLYN, NY 11211",229,ROEBLING ST,BROOKLYN,NY,11211,Brooklyn,,(718) 218-7869,142
876,STRATOS BAKERY CORP,BOCADO BAKERY CAFE,Enclosed Sidewalk Cafe,1433213,"1297 LEXINGTON AVENUE, NEW YORK, NY 10128",1297,LEXINGTON AVENUE,NEW YORK,NY,10128,Manhattan,,(917) 902-6607,227
124,STROKOS GOURMET DELI INC,,Enclosed Sidewalk Cafe,1026510,"1090 AMSTERDAM AVE, NEW YORK, NY 10025",1090,AMSTERDAM AVE,NEW YORK,NY,10025,Manhattan,,(212) 666-2121,301
640,STRONGFIVE LLC,BLAUE GANS,Unenclosed Sidewalk Cafe,1353480,"139 DUANE ST, NEW YORK, NY 10013",139,DUANE ST,NEW YORK,NY,10013,Manhattan,,(212) 513-1988,180
245,STS RESTAURANT CORP,CINEMA CAFE,Unenclosed Sidewalk Cafe,1172205,"505 3 AVENUE, NEW YORK, NY 10016",505,3 AVENUE,NEW YORK,NY,10016,Manhattan,,(212) 689-9022,453
133,STS RESTAURANT CORP.,CINEMA CAFE,Unenclosed Sidewalk Cafe,1034243,"505 3RD AVE, NEW YORK, NY 10016",505,3RD AVE,NEW YORK,NY,10016,Manhattan,,(212) 689-9022,95
699,SUD123 INCORPORATED,CRUDO,Unenclosed Sidewalk Cafe,1382366,"178 MULBERRY ST, NEW YORK, NY 10012",178,MULBERRY ST,NEW YORK,NY,10012,Manhattan,,(347) 469-9223,214
933,SUGAR AND PLUMM (UPPER WEST) LLC,SUGAR AND PLUMM,Unenclosed Sidewalk Cafe,1455060,"173 WEST   78 STREET, NEW YORK, NY 10024",173,WEST   78 STREET,NEW YORK,NY,10024,Manhattan,A/K/A 377 AMSTERDAM AVE,(201) 334-1600,482
850,SUGAR FREAK LLC,SUGAR FREAK,Unenclosed Sidewalk Cafe,1427125,"3618 30TH AVE, ASTORIA, NY 11103",3618,30TH AVE,ASTORIA,NY,11103,Queens,,(718) 726-5850,119
539,SULLIVAN RESTAURANT LLC,COMPANY,Unenclosed Sidewalk Cafe,1316751,"230 9TH AVE, NEW YORK, NY 10001",230,9TH AVE,NEW YORK,NY,10001,Manhattan,,(212) 243-1105,57
574,SUMMIT OF THE WORLD INC.,BONE LICK PARK,Unenclosed Sidewalk Cafe,1343308,"75 GREENWICH AVE, NEW YORK, NY 10014",75,GREENWICH AVE,NEW YORK,NY,10014,Manhattan,,(212) 647-9600,200
774,"SUN OF MAY, LLC",LENOX SOCIAL,Unenclosed Sidewalk Cafe,1418169,"321 LENOX AVE, NEW YORK, NY 10027",321,LENOX AVE,NEW YORK,NY,10027,Manhattan,,(917) 691-3630,500
864,SUPER DUMPLING CORP,,Unenclosed Sidewalk Cafe,1430023,"251 E 45TH ST, NEW YORK, NY 10017",251,E 45TH ST,NEW YORK,NY,10017,Manhattan,,(212) 254-2868,156
123,"SURTIC, INC",CITRUS,Unenclosed Sidewalk Cafe,1025224,"320 AMSTERDAM AVE, NEW YORK, NY 10023",320,AMSTERDAM AVE,NEW YORK,NY,10023,Manhattan,,(212) 595-0500,585
594,SUTOL OPERATING COMPANY LLC,ABE & ARTHUR'S RESTAURANT,Unenclosed Sidewalk Cafe,1345894,"409 W 14TH ST, NEW YORK, NY 10014",409,W 14TH ST,NEW YORK,NY,10014,Manhattan,,(212) 627-1235,251
901,SWEET ATHENS CAFE INC,,Unenclosed Sidewalk Cafe,1441294,"3207 30TH AVE, QUEENS, NY 11102",3207,30TH AVE,QUEENS,NY,11102,Queens,,(718) 626-2164,1205
897,SWEET ATHENS CAFE INC,,Enclosed Sidewalk Cafe,1439584,"3207 30TH AVE, QUEENS, NY 11102",3207,30TH AVE,QUEENS,NY,11102,Queens,,(718) 626-2164,398
957,SYMBIONTS LIVING LLC,BAREBURGER,Unenclosed Sidewalk Cafe,1458968,"145-149 COURT ST, BROOKLYN, NY 11201",145-149,COURT ST,BROOKLYN,NY,11201,Brooklyn,,(347) 529-6673,292
325,SYMPATOCH CAFE INC.,DANDANA CAFE,Unenclosed Sidewalk Cafe,1221132,"4221 BROADWAY, ASTORIA, NY 11103",4221,BROADWAY,ASTORIA,NY,11103,Queens,,(718) 204-6811,319
235,SYVROS RESTAURANT CORP.,ZORBA'S,Unenclosed Sidewalk Cafe,1169199,"2905 23RD AVE, ASTORIA, NY 11105",2905,23RD AVE,ASTORIA,NY,11105,Queens,,(718) 956-7266,187
402,TABOON RESTAURANT CORP.,TABOON,Unenclosed Sidewalk Cafe,1253585,"773 10TH AVE, NEW YORK, NY 10019",773,10TH AVE,NEW YORK,NY,10019,Manhattan,,(212) 713-0271,196
110,TAKATSUKI CORPORATION,SHIMA JAPANESE RESTAURANT,Unenclosed Sidewalk Cafe,1004472,"188-190 2ND AVE, NEW YORK, NY 10003",188-190,2ND AVE,NEW YORK,NY,10003,Manhattan,,(212) 260-6303,199
662,"TANOREEN CATERERS, INC",TANOREEN,Enclosed Sidewalk Cafe,1360215,"7523 3 AVENUE, BROOKLYN, NY 11209",7523,3 AVENUE,BROOKLYN,NY,11209,Brooklyn,,(718) 748-5600,222
719,"TAPPO, INC",,Unenclosed Sidewalk Cafe,1385967,"49 W 24TH ST, NEW YORK, NY 10010",49,W 24TH ST,NEW YORK,NY,10010,Manhattan,,(646) 454-9051,140
28,"TARO REST, INC",DUE,Unenclosed Sidewalk Cafe,0835262,"1396 3RD AVE, NEW YORK, NY 10075",1396,3RD AVE,NEW YORK,NY,10075,Manhattan,,(212) 249-7070,84
544,TAZZINI CORP.,TAZZA,Unenclosed Sidewalk Cafe,1319786,"311 HENRY ST, BROOKLYN, NY 11201",311,HENRY ST,BROOKLYN,NY,11201,Brooklyn,,(718) 243-0487,285
399,"T BURGER, LLC",67 BURGER,Unenclosed Sidewalk Cafe,1253169,"67 LAFAYETTE AVENUE, BROOKLYN, NY 11217",67,LAFAYETTE AVENUE,BROOKLYN,NY,11217,Brooklyn,,(718) 797-3790,138
660,TECTON CAFE INC,ESTANCIA STREET,Unenclosed Sidewalk Cafe,1359208,"460 GREENWICH ST, NEW YORK, NY 10013",460,GREENWICH ST,NEW YORK,NY,10013,Manhattan,,(212) 431-5093,79
185,TEN ELEVEN HOLDINGS L.L.C.,PENCIL FACTORY,Unenclosed Sidewalk Cafe,1133916,"142 FRANKLIN ST, BROOKLYN, NY 11222",142,FRANKLIN ST,BROOKLYN,NY,11222,Brooklyn,,(718) 609-5858,298
587,"TEN JAPANESE CUISINE, CORP.",,Unenclosed Sidewalk Cafe,1345473,"440 7 AVENUE, BROOKLYN, NY 11215",440,7 AVENUE,BROOKLYN,NY,11215,Brooklyn,,(718) 768-9888,140
571,TENZAN NEW YORK CORP,TENZAN JAPANESE RESTAURANT,Unenclosed Sidewalk Cafe,1343003,"285 COLUMBUS AVE, NEW YORK, NY 10023",285,COLUMBUS AVE,NEW YORK,NY,10023,Manhattan,,(212) 580-7300,350
119,"TERMINUS RESTAURANT ASSOCIATES, LLC",ORSAY RESTAURANT,Enclosed Sidewalk Cafe,1022739,"1057 LEXINGTON AVENUE, NEW YORK, NY 10021",1057,LEXINGTON AVENUE,NEW YORK,NY,10021,Manhattan,,(212) 517-4296,371
684,TERRA MIA ENTERPRISES INC,EOLO,Unenclosed Sidewalk Cafe,1378680,"190 7TH AVE, NEW YORK, NY 10011",190,7TH AVE,NEW YORK,NY,10011,Manhattan,,(917) 544-3972,215
828,"TESSA & LUCHO, INC",BAR BRUNO,Unenclosed Sidewalk Cafe,1422856,"520 HENRY STREET, BROOKLYN, NY 11231",520,HENRY STREET,BROOKLYN,NY,11231,Brooklyn,,(347) 763-0850,197
776,TGD GROUP INC,BOTTEGA,Unenclosed Sidewalk Cafe,1418174,"233 E 70TH ST, NEW YORK, NY 10021",233,E 70TH ST,NEW YORK,NY,10021,Manhattan,AKA 1331 2ND AVE,(646) 875-0178,456
249,THAFATH INC,DEUX AMIS RESTAURANT,Unenclosed Sidewalk Cafe,1174880,"356 E 51TH ST, NEW YORK, NY 10022",356,E 51TH ST,NEW YORK,NY,10022,Manhattan,,(516) 641-8924,166
427,THAI MARKET INC.,,Unenclosed Sidewalk Cafe,1275484,"960 AMSTERDAM AVE, NEW YORK, NY 10025",960,AMSTERDAM AVE,NEW YORK,NY,10025,Manhattan,,(212) 280-4575,232
195,THE 8801 CORP,CEBU,Unenclosed Sidewalk Cafe,1139335,"8801 3RD AVE, BROOKLYN, NY 11209",8801,3RD AVE,BROOKLYN,NY,11209,Brooklyn,,(718) 492-5095,575
321,THE ATTIC CORPORATION OF DOUGLASTON,LOCALE,Unenclosed Sidewalk Cafe,1220794,"33-02 34 AVENUE, QUEENS, NY 11106",33-02,34 AVENUE,QUEENS,NY,11106,Queens,,(718) 729-9080,239
22,THE BORDON AVE REST. INC,WATERFRONT CRABHOUSEE/S/C #530,Enclosed Sidewalk Cafe,0804849,"2-03 BORDEN AVE, LONG ISLND CITY, NY 11101",2-03,BORDEN AVE,LONG ISLND CITY,NY,11101,Queens,,(718) 729-4862,375
622,"THE ELEMENT RESTAURANT GROUP, INC.",181 CABRINI,Unenclosed Sidewalk Cafe,1349596,"854 W 181ST ST, NEW YORK, NY 10033",854,W 181ST ST,NEW YORK,NY,10033,Manhattan,,(212) 363-0032,334
438,THE EMERA GROUP INCORPORATED,DUNKIN DONUTS & BASKIN-ROBBINS,Unenclosed Sidewalk Cafe,1277636,"610 10TH AVE, NEW YORK, NY 10036",610,10TH AVE,NEW YORK,NY,10036,Manhattan,,(212) 969-9100,140
781,THE GLEF LTD.,TEDDY'S BAR & GRILL,Unenclosed Sidewalk Cafe,1418758,"96 BERRY ST, BROOKLYN, NY 11211",96,BERRY ST,BROOKLYN,NY,11211,Brooklyn,,(718) 384-9787,294
351,THE HOLY GRAIL INC.,DOWNTOWN BAR & GRILL,Unenclosed Sidewalk Cafe,1226454,"160 COURT STREET, BROOKLYN, NY 11201",160,COURT STREET,BROOKLYN,NY,11201,Brooklyn,,(718) 625-2835,309
863,THE HUMMUS & PITA COMPANY LLC,THE HUMMUS & PITA CO,Unenclosed Sidewalk Cafe,1429816,"585 AVE OF THE AMERICAS, NEW YORK, NY 10011",585,AVE OF THE AMERICAS,NEW YORK,NY,10011,Manhattan,,(212) 510-7405,90
636,THE MEATBALL SHOP LLC,THE MEATBALL SHOP,Unenclosed Sidewalk Cafe,1352656,"84 STANTON ST, NEW YORK, NY 10002",84,STANTON ST,NEW YORK,NY,10002,Manhattan,,(415) 378-8420,89
57,THE ODEON INC,THE ODEON,Unenclosed Sidewalk Cafe,0920717,"145 WEST BROADWAY, NEW YORK, NY 10013",145,WEST BROADWAY,NEW YORK,NY,10013,Manhattan,,(917) 747-6481,371
172,THE OTHEROOM INC.,,Unenclosed Sidewalk Cafe,1110366,"143 PERRY STREET, NEW YORK, NY 10014",143,PERRY STREET,NEW YORK,NY,10014,Manhattan,,(212) 645-9758,63
811,"THE PIZZA BOX RESTAURANT -PIZZERIA-CAFE, INC.",GENERICO'S PIZZERIA AND CAFE,Unenclosed Sidewalk Cafe,1421503,"3535 RIVERDALE AVE, BRONX, NY 10463",3535,RIVERDALE AVE,BRONX,NY,10463,Bronx,,(718) 601-9000,121
499,THE SHOREHAM LLC,THE SHOREHAM HOTEL,Unenclosed Sidewalk Cafe,1298516,"39 W 55TH ST, NEW YORK, NY 10019",39,W 55TH ST,NEW YORK,NY,10019,Manhattan,,(212) 957-8300,190
378,THE SMOKE JOINT LLC,THE SMOKE JOINT,Enclosed Sidewalk Cafe,1245257,"87 S ELLIOTT PL, BROOKLYN, NY 11217",87,S ELLIOTT PL,BROOKLYN,NY,11217,Brooklyn,,(718) 797-1011,161
993,THE YORK RESTAURANT BAR INC.,ANASSA,Enclosed Sidewalk Cafe,1466251,"200 EAST   60 STREET, NEW YORK, NY 10022",200,EAST   60 STREET,NEW YORK,NY,10022,Manhattan,AKA: 1009 3RD AVE,(212) 688-8688,309
234,THIERRY INC.,LE CHARIOT,Unenclosed Sidewalk Cafe,1167909,"19 EAST   69 STREET, NEW YORK, NY 10021",19,EAST   69 STREET,NEW YORK,NY,10021,Manhattan,,(212) 794-1628,137
439,THINK BLEECKER LLC,THINK COFFEE,Unenclosed Sidewalk Cafe,1277645,"1 BLEECKER ST, NEW YORK, NY 10012",1,BLEECKER ST,NEW YORK,NY,10012,Manhattan,,(917) 692-2571,233
614,THIRD AVE CAFE LLC,BANC CAFE,Unenclosed Sidewalk Cafe,1348205,"431 3RD AVE, NEW YORK, NY 10016",431,3RD AVE,NEW YORK,NY,10016,Manhattan,,(212) 252-0146,540
157,"THIRD AVE. REST.,INC.",JAKE'S DILEMMA,Unenclosed Sidewalk Cafe,1096363,"430 AMSTERDAM AVENUE, NEW YORK, NY 10024",430,AMSTERDAM AVENUE,NEW YORK,NY,10024,Manhattan,,(212) 580-0556,197
843,"T. HOSPITALITY, INC.",SEA,Unenclosed Sidewalk Cafe,1425422,"835 WASHINGTON ST, NEW YORK, NY 10014",835,WASHINGTON ST,NEW YORK,NY,10014,Manhattan,,(212) 243-3339,577
947,"TH PLUS, INC",THAI PLUS,Unenclosed Sidewalk Cafe,1458099,"208 7TH AVE, NEW YORK, NY 10011",208,7TH AVE,NEW YORK,NY,10011,Manhattan,,(212) 807-9872,105
31,THREE BEANS INC,BENNY'S BURRITO,Unenclosed Sidewalk Cafe,0853927,"93 AVENUE A, NEW YORK, NY 10009",93,AVENUE A,NEW YORK,NY,10009,Manhattan,,(212) 234-2054,410
71,"THREE DECKER RESTAURANT,LTD",THREE DECKER RESTAURANT,Enclosed Sidewalk Cafe,0949696,"1746 2 AVENUE, NEW YORK, NY 10128",1746,2 AVENUE,NEW YORK,NY,10128,Manhattan,,(212) 289-9936,414
312,"THREE STAR ON FIRST, INC.",THREE STAR DINER,Enclosed Sidewalk Cafe,1219509,"1462 1ST AVE, NEW YORK, NY 10075",1462,1ST AVE,NEW YORK,NY,10075,Manhattan,,(212) 861-7500,359
930,"TIN MARIN BAR & LOUNGE, INC.",,Unenclosed Sidewalk Cafe,1454468,"3708 RIVERDALE AVE, BRONX, NY 10463",3708,RIVERDALE AVE,BRONX,NY,10463,Bronx,,(718) 884-4800,146
466,"TIRAMISU RESTAURANT, LLC",TIRAMISU REST.,Unenclosed Sidewalk Cafe,1282359,"1410 THIRD AVENUE, NEW YORK, NY 10028",1410,THIRD AVENUE,NEW YORK,NY,10028,Manhattan,,(212) 988-9780,287
497,TJ 104 RESTAURANT CORP.,TIMMY'S BY THE RIVER.,Unenclosed Sidewalk Cafe,1295832,"1737 YORK AVENUE, NEW YORK, NY 10128",1737,YORK AVENUE,NEW YORK,NY,10128,Manhattan,,(212) 860-9191,467
228,TK REST. CORP.,,Unenclosed Sidewalk Cafe,1166759,"33 LEONARD ST, NEW YORK, NY 10013",33,LEONARD ST,NEW YORK,NY,10013,Manhattan,,(212) 925-7188,316
872,TOBSK LLC,MCCOY,Unenclosed Sidewalk Cafe,1432085,"89 MACDOUGAL ST, NEW YORK, NY 10012",89,MACDOUGAL ST,NEW YORK,NY,10012,Manhattan,,(516) 946-6389,420
870,TOBY'S PUBLIC HOUSE II LLC,,Unenclosed Sidewalk Cafe,1431897,"86 KENMARE ST, NEW YORK, NY 10012",86,KENMARE ST,NEW YORK,NY,10012,Manhattan,,(917) 450-4988,118
29,TOTORE PIZZERIA & RESTUARANT INC.,TOTORE PIZZERIA & RESTUARANT INC.,Enclosed Sidewalk Cafe,0851667,"36-20 DITMARS BLVD, ASTORIA, NY 11105",36-20,DITMARS BLVD,ASTORIA,NY,11105,Queens,,(718) 932-5924,395
559,TREL RESTAURANT INC,ROSIE O'GRADY,Unenclosed Sidewalk Cafe,1334107,"800 7TH AVE, NEW YORK, NY 10019",800,7TH AVE,NEW YORK,NY,10019,Manhattan,,(212) 582-2975,382
595,"TRES DE MEXICO, LLC",MESA COYOACAN,Unenclosed Sidewalk Cafe,1346116,"372 GRAHAM AVENUE, BROOKLYN, NY 11211",372,GRAHAM AVENUE,BROOKLYN,NY,11211,Brooklyn,,(718) 782-8171,75
782,"TRIBECA GRAND HOTEL, INC",TRIBECA GRAND HOTEL,Unenclosed Sidewalk Cafe,1418818,"32 WHITE ST, NEW YORK, NY 10013",32,WHITE ST,NEW YORK,NY,10013,Manhattan,AKA 2 AVE OF THE AMERICAS,(212) 965-3000,575
761,TRIM CASTLE CORP.,COOPERS CRAFT AND KITCHEN,Enclosed Sidewalk Cafe,1414471,"87 2ND AVE, NEW YORK, NY 10003",87,2ND AVE,NEW YORK,NY,10003,Manhattan,AKA: 239 E 5TH ST,(646) 606-2384,246
892,TRIPTI INC,MOTI MAHAL DELUX,Enclosed Sidewalk Cafe,1438010,"1149 1ST AVE, NEW YORK, NY 10065",1149,1ST AVE,NEW YORK,NY,10065,Manhattan,,(212) 371-3535,269
826,TS3 HOSPITALITY LLC,THE SMITH,Unenclosed Sidewalk Cafe,1422807,"1900 BROADWAY, NEW YORK, NY 10023",1900,BROADWAY,NEW YORK,NY,10023,Manhattan,,(212) 966-3250,686
902,TSG 89 CORP,MIDNIGHT EXPRESS,Enclosed Sidewalk Cafe,1441303,"1715 2ND AVE, NEW YORK, NY 10128",1715,2ND AVE,NEW YORK,NY,10128,Manhattan,,(212) 860-2320,510
429,TSM RESTAURANT LLC,BUTTERMILK CHANNEL,Unenclosed Sidewalk Cafe,1276639,"524 COURT ST, BROOKLYN, NY 11231",524,COURT ST,BROOKLYN,NY,11231,Brooklyn,,(718) 781-5445,144
896,TWIST IT TOP IT FROZEN YOGURT LLC,,Unenclosed Sidewalk Cafe,1438861,"15818A CROSSBAY BLVD, QUEENS, NY 11414",15818A,CROSSBAY BLVD,QUEENS,NY,11414,Queens,,(917) 797-5730,140
963,"TWO BIKES, LLC",DODLEY'S,Unenclosed Sidewalk Cafe,1459845,"85 ORCHARD ST, NEW YORK, NY 10002",85,ORCHARD ST,NEW YORK,NY,10002,Manhattan,,(212) 226-5047,75
21,TWO & EIGHT GOURMET LTD.,DALLAS BBQ,Unenclosed Sidewalk Cafe,0804523,"132 2ND AVE, MANHATTAN, NY 10003",132,2ND AVE,MANHATTAN,NY,10003,Manhattan,,(212) 529-2563,535
101,UKATOSH CORP,,Enclosed Sidewalk Cafe,0987452,"36-02 31 STREET, ASTORIA, NY 11106",36-02,31 STREET,ASTORIA,NY,11106,Queens,"A/K/A 31-02, 36 STREET",(718) 433-2191,167
752,UNCLE ABIES DELI ON FIRST INC.,2ND AVENUE DELI,Enclosed Sidewalk Cafe,1398066,"1442 1ST AVE, NEW YORK, NY 10021",1442,1ST AVE,NEW YORK,NY,10021,Manhattan,,(212) 300-7117,565
757,UNDERHILL CAFE & GRILL LLC.,,Enclosed Sidewalk Cafe,1411308,"760 DEAN STREET, BROOKLYN, NY 11238",760,DEAN STREET,BROOKLYN,NY,11238,Brooklyn,,(917) 337-4337,355
203,UNION SQUARE CATERING FACILITY INC.,COFFEE SHOP,Unenclosed Sidewalk Cafe,1157684,"29 UNION SQ W, NEW YORK, NY 10003",29,UNION SQ W,NEW YORK,NY,10003,Manhattan,,(212) 243-7969,812
814,UNION STREET PROVISIONS LLC,FORT RENO,Unenclosed Sidewalk Cafe,1421725,"669 UNION ST, BROOKLYN, NY 11215",669,UNION ST,BROOKLYN,NY,11215,Brooklyn,,(347) 227-7777,350
201,"UNO OF ASTORIA, INC.",PIZZERIA UNO,Unenclosed Sidewalk Cafe,1157157,"37-11 35 AVENUE, QUEENS, NY 11101",37-11,35 AVENUE,QUEENS,NY,11101,Queens,,(718) 706-8800,320
305,UPPER WEST REST. CORP.,FRED'S,Unenclosed Sidewalk Cafe,1218332,"476 AMSTERDAM AVE, NEW YORK, NY 10024",476,AMSTERDAM AVE,NEW YORK,NY,10024,Manhattan,,(212) 579-3076,504
268,URBAN RUSTIC LLC,LODGE,Unenclosed Sidewalk Cafe,1189835,"318 GRAND ST, BROOKLYN, NY 11211",318,GRAND ST,BROOKLYN,NY,11211,Brooklyn,,(718) 486-9400,242
810,"VAI UWS, LLC",,Unenclosed Sidewalk Cafe,1421365,"429 AMSTERDAM AVE, NEW YORK, NY 10024",429,AMSTERDAM AVE,NEW YORK,NY,10024,Manhattan,,(347) 393-5409,236
970,VARIS ENTERPRISES INC.,FOOD GRAZE,Unenclosed Sidewalk Cafe,1462187,"36-19 BROADWAY, QUEENS, NY 11106",36-19,BROADWAY,QUEENS,NY,11106,Queens,,(718) 855-6566,351
770,V EATERY LLC,VEATERY,Unenclosed Sidewalk Cafe,1417881,"1700 2ND AVE, NEW YORK, NY 10128",1700,2ND AVE,NEW YORK,NY,10128,Manhattan,,(646) 641-2514,204
661,VELVET ROPE LOUNGE CORP,,Unenclosed Sidewalk Cafe,1359448,"3212-3214 CONEY ISLAND AVE, BROOKLYN, NY 11235",3212-3214,CONEY ISLAND AVE,BROOKLYN,NY,11235,Brooklyn,,(347) 554-8511,288
922,VEM GROUP CORP.,CRAVE,Unenclosed Sidewalk Cafe,1451850,"2855 36TH ST, ASTORIA, NY 11103",2855,36TH ST,ASTORIA,NY,11103,Queens,,(718) 726-4976,231
163,"VERB, INC.",VERB CAFE,Unenclosed Sidewalk Cafe,1103409,"218 BEDFORD AVE, BROOKLYN, NY 11211",218,BEDFORD AVE,BROOKLYN,NY,11211,Brooklyn,,(718) 599-0977,168
355,VERO INC.,,Unenclosed Sidewalk Cafe,1228814,"1483 2 AVE, NEW YORK, NY 10075",1483,2 AVE,NEW YORK,NY,10075,Manhattan,,(212) 452-3354,132
489,VERO MIDTOWN LLC,,Unenclosed Sidewalk Cafe,1289202,"1004 2ND AVE, NEW YORK, NY 10022",1004,2ND AVE,NEW YORK,NY,10022,Manhattan,,(212) 533-6700,390
65,VESELKA ENTERPRISES LTD,VESELKA RESTAURANT,Unenclosed Sidewalk Cafe,0933853,"144 2 AVENUE, NEW YORK, NY 10003",144,2 AVENUE,NEW YORK,NY,10003,Manhattan,,(212) 228-9682,386
361,"VEZZO, INC.",,Unenclosed Sidewalk Cafe,1230929,"178 LEXINGTON AVENUE, NEW YORK, NY 10016",178,LEXINGTON AVENUE,NEW YORK,NY,10016,Manhattan,,(212) 807-7800,342
888,VFB CORP.,THE STELLAN,Unenclosed Sidewalk Cafe,1436323,"2 W 35TH ST, NEW YORK, NY 10001",2,W 35TH ST,NEW YORK,NY,10001,Manhattan,,(212) 594-9343,220
89,VIAND RESTAURANT INC,,Enclosed Sidewalk Cafe,0976475,"300 E 86TH ST, NEW YORK, NY 10028",300,E 86TH ST,NEW YORK,NY,10028,Manhattan,,(212) 879-9425,148
907,VICTORY SWEET SHOP LTD,,Unenclosed Sidewalk Cafe,1445109,"21-69 STEINWAY STREET, ASTORIA, NY 11105",21-69,STEINWAY STREET,ASTORIA,NY,11105,Queens,,(718) 274-2087,195
612,VIDA MEXICANA INC.,PAPASITO MEXICAN GRILL,Unenclosed Sidewalk Cafe,1347915,"223 DYCKMAN ST, NEW YORK, NY 10034",223,DYCKMAN ST,NEW YORK,NY,10034,Manhattan,,(631) 327-2500,438
529,VILLAGE CANTINA CORP,BAMBOLEO,Unenclosed Sidewalk Cafe,1313487,"170 BLEECKER STREET, NEW YORK, NY 10012",170,BLEECKER STREET,NEW YORK,NY,10012,Manhattan,,(212) 253-8226,39
344,VIRGILIA CAFE INC.,ANTONUCCI,Unenclosed Sidewalk Cafe,1225069,"168 E 81ST ST, NEW YORK, NY 10028",168,E 81ST ST,NEW YORK,NY,10028,Manhattan,,(212) 570-5100,177
129,"V & T RESTAURANT, INC",,Unenclosed Sidewalk Cafe,1028336,"1024 AMSTERDAM AVE, NEW YORK, NY 10025",1024,AMSTERDAM AVE,NEW YORK,NY,10025,Manhattan,,(212) 663-1708,365
540,WATAWA INC,WATAWA JAPANESE REST,Unenclosed Sidewalk Cafe,1318210,"33-10 DITMARS BLVD, ASTORIA, NY 11105",33-10,DITMARS BLVD,ASTORIA,NY,11105,Queens,,(718) 545-9596,252
338,"WEST BROADWAY MANAGEMENT, LLC.",LANDMARC,Unenclosed Sidewalk Cafe,1223457,"179 W BROADWAY, NEW YORK, NY 10013",179,W BROADWAY,NEW YORK,NY,10013,Manhattan,,(212) 343-3883,139
856,"WEST SIDE STEAKHOUSE, LLC",WEST SIDE STEAKHOUSE,Unenclosed Sidewalk Cafe,1428086,"597 10TH AVE, NEW YORK, NY 10036",597,10TH AVE,NEW YORK,NY,10036,Manhattan,,(212) 564-4803,157
627,WESTVILLE RESTAURANT INC,WESTVILLE,Unenclosed Sidewalk Cafe,1350510,"173 AVE A, NEW YORK, NY 10009",173,AVE A,NEW YORK,NY,10009,Manhattan,,(212) 677-2033,80
865,WKNAPP LTD,TABLE D'MOTE,Unenclosed Sidewalk Cafe,1430367,"44 E 92ND ST, NEW YORK, NY 10128",44,E 92ND ST,NEW YORK,NY,10128,Manhattan,,(212) 348-8125,47
212,"WOGIE'S, INC.",WOGIES,Unenclosed Sidewalk Cafe,1160623,"39 GREENWICH AVENUE, NEW YORK, NY 10014",39,GREENWICH AVENUE,NEW YORK,NY,10014,Manhattan,,(212) 229-2171,357
950,"WONDERFUL RESTAURANT, LLC",IL MULINO NEW YORK,Unenclosed Sidewalk Cafe,1458456,"37 EAST   60 STREET, NEW YORK, NY 10022",37,EAST   60 STREET,NEW YORK,NY,10022,Manhattan,,(212) 750-3270,63
591,WORKHORSE RESTAURANT INC.,REGIONAL,Unenclosed Sidewalk Cafe,1345744,"2607 BROADWAY, NEW YORK, NY 10025",2607,BROADWAY,NEW YORK,NY,10025,Manhattan,,(212) 666-1915,157
437,"WOW BRIGDE CAFE, LLC",,Unenclosed Sidewalk Cafe,1277457,"168 BORINQUEN PL, BROOKLYN, NY 11211",168,BORINQUEN PL,BROOKLYN,NY,11211,Brooklyn,,(718) 344-1147,176
328,"WUCOM, INC",SUSHID,Unenclosed Sidewalk Cafe,1221200,"207 DEKALB AVE, BROOKLYN, NY 11205",207,DEKALB AVE,BROOKLYN,NY,11205,Brooklyn,,(718) 858-0058,280
609,"YALLOS REST, INC",,Unenclosed Sidewalk Cafe,1347538,"776 9 AVENUE, NEW YORK, NY 10019",776,9 AVENUE,NEW YORK,NY,10019,Manhattan,,(212) 246-9873,96
937,YASAKA INC.,,Unenclosed Sidewalk Cafe,1455737,"251 W 72ND ST, NEW YORK, NY 10023",251,W 72ND ST,NEW YORK,NY,10023,Manhattan,,(212) 496-8460,176
973,Y.L.A. GROUP INC,MEZZA PLACE,Unenclosed Sidewalk Cafe,1462366,"3118 BROADWAY, ASTORIA, NY 11106",3118,BROADWAY,ASTORIA,NY,11106,Queens,,(212) 932-7566,175
182,Y.N.L.C. CAFE CORP.,AVENUE CAFE,Unenclosed Sidewalk Cafe,1133602,"3527 30TH AVE, ASTORIA, NY 11103",3527,30TH AVE,ASTORIA,NY,11103,Queens,,(718) 278-6967,862
923,"YO-BURGER, INC.",YO-BURGER,Unenclosed Sidewalk Cafe,1452060,"3720-3726 RIVERDALE AVE, BRONX, NY 10463",3720-3726,RIVERDALE AVE,BRONX,NY,10463,Bronx,,(917) 578-5461,419
789,YOLA'S CAFE MEXICAN FOOD CORP.,YOLA'S CAFE,Enclosed Sidewalk Cafe,1419684,"524 METROPOLITAN AVE, BROOKLYN, NY 11211",524,METROPOLITAN AVE,BROOKLYN,NY,11211,Brooklyn,,(718) 486-0757,79
298,YUNHUA ON COLUMBUS INC.,,Unenclosed Sidewalk Cafe,1216111,"193 COLUMBUS AVE, NEW YORK, NY 10023",193,COLUMBUS AVE,NEW YORK,NY,10023,Manhattan,,(212) 496-8778,188
909,ZEE SEVEN CORP,VARELI,Unenclosed Sidewalk Cafe,1447032,"2869 BROADWAY, NEW YORK, NY 10025",2869,BROADWAY,NEW YORK,NY,10025,Manhattan,,(212) 678-8585,136
52,ZESTFUL MANAGEMENT CORP.,BAR SIX,Unenclosed Sidewalk Cafe,0919619,"502 AVE OF THE AMERICAS, NEW YORK, NY 10011",502,AVE OF THE AMERICAS,NEW YORK,NY,10011,Manhattan,6TH AVE,(212) 691-1363,89
5,ZONOR REST CORP,RIVIERA CAFE,Enclosed Sidewalk Cafe,0629616,"225 WEST    4 STREET, NEW YORK, NY 10014",225,WEST    4 STREET,NEW YORK,NY,10014,Manhattan,,(212) 929-3250,366
59,ZONOR REST CORP.,RIVIERA CAFE,Unenclosed Sidewalk Cafe,0922650,"225 W 4TH ST, NEW YORK, NY 10014",225,W 4TH ST,NEW YORK,NY,10014,Manhattan,,(212) 929-3250,718
838,ZOSSIMA INC,DOMA NA ROHU,Unenclosed Sidewalk Cafe,1424566,"27 1/2 MORTON ST, NEW YORK, NY 10014",27 1/2,MORTON ST,NEW YORK,NY,10014,Manhattan,,(212) 929-0004,133
556,ZUCCA TRATTORIA INC.,ZUCCA TRATTORIA,Enclosed Sidewalk Cafe,1326701,"95 7TH AVE S, NEW YORK, NY 10014",95,7TH AVE S,NEW YORK,NY,10014,Manhattan,,(212) 255-1980,309
162,ZUMSCHNEIDER CORP,ZUMSCHNEIDER,Unenclosed Sidewalk Cafe,1102989,"107-109 AVENUE C, NEW YORK, NY 10009",107-109,AVENUE C,NEW YORK,NY,10009,Manhattan,,(212) 598-1098,532
791,"ZUTTO SQUARED, LLC",ZUTTO,Unenclosed Sidewalk Cafe,1419821,"77 HUDSON ST, NEW YORK, NY 10013",77,HUDSON ST,NEW YORK,NY,10013,Manhattan,,(212) 233-,133
